<?xml version="1.0" encoding="UTF-8"?>
<gpx version="1.1" creator="GarminFitSummaryExtractor" xmlns="http://www.topografix.com/GPX/1/1" xmlns:xsi="http://www.w3.org/2001/XMLSchema-instance" xsi:schemaLocation="http://www.topografix.com/GPX/1/1 http://www.topografix.com/GPX/1/1/gpx.xsd">
  <metadata>
    <name>2025-06-29-18-54-42</name>
    <time>2005-06-30T18:54:42-07:00</time>
  </metadata>
  <trk>
    <name>2025-06-29-18-54-42</name>
    <type>HIKING</type>
    <trkseg>
      <trkpt lat="37.89754321798682" lon="-119.40194573253393">
        <time>2005-06-30T18:54:42-07:00</time>
      </trkpt>
      <trkpt lat="37.89754020050168" lon="-119.40198973752558">
        <time>2005-06-30T18:54:54-07:00</time>
      </trkpt>
      <trkpt lat="37.897551599889994" lon="-119.40205352380872">
        <time>2005-06-30T18:54:56-07:00</time>
      </trkpt>
      <trkpt lat="37.89759015664458" lon="-119.40212829038501">
        <time>2005-06-30T18:55:00-07:00</time>
      </trkpt>
      <trkpt lat="37.89759376086295" lon="-119.40213709138334">
        <time>2005-06-30T18:55:08-07:00</time>
      </trkpt>
      <trkpt lat="37.89762577973306" lon="-119.40219534561038">
        <time>2005-06-30T18:55:09-07:00</time>
      </trkpt>
      <trkpt lat="37.89765302091837" lon="-119.40226625651121">
        <time>2005-06-30T18:55:17-07:00</time>
      </trkpt>
      <trkpt lat="37.897722171619534" lon="-119.4024208188057">
        <time>2005-06-30T18:55:25-07:00</time>
      </trkpt>
      <trkpt lat="37.89779224433005" lon="-119.40256339497864">
        <time>2005-06-30T18:55:33-07:00</time>
      </trkpt>
      <trkpt lat="37.897798363119364" lon="-119.40256683155894">
        <time>2005-06-30T18:55:40-07:00</time>
      </trkpt>
      <trkpt lat="37.897862903773785" lon="-119.40259943716228">
        <time>2005-06-30T18:55:41-07:00</time>
      </trkpt>
      <trkpt lat="37.89790028706193" lon="-119.40273103304207">
        <time>2005-06-30T18:55:48-07:00</time>
      </trkpt>
      <trkpt lat="37.89794730953872" lon="-119.40288442187011">
        <time>2005-06-30T18:55:56-07:00</time>
      </trkpt>
      <trkpt lat="37.897931300103664" lon="-119.40291996113956">
        <time>2005-06-30T18:56:03-07:00</time>
      </trkpt>
      <trkpt lat="37.89794278331101" lon="-119.40294326283038">
        <time>2005-06-30T18:56:07-07:00</time>
      </trkpt>
      <trkpt lat="37.89796935394406" lon="-119.40299782902002">
        <time>2005-06-30T18:56:09-07:00</time>
      </trkpt>
      <trkpt lat="37.897981675341725" lon="-119.40302406437695">
        <time>2005-06-30T18:56:13-07:00</time>
      </trkpt>
      <trkpt lat="37.89801117964089" lon="-119.4030699133873">
        <time>2005-06-30T18:56:15-07:00</time>
      </trkpt>
      <trkpt lat="37.89804018102586" lon="-119.4031455181539">
        <time>2005-06-30T18:56:19-07:00</time>
      </trkpt>
      <trkpt lat="37.8980587888509" lon="-119.40325859002769">
        <time>2005-06-30T18:56:24-07:00</time>
      </trkpt>
      <trkpt lat="37.89809315465391" lon="-119.40343058668077">
        <time>2005-06-30T18:56:31-07:00</time>
      </trkpt>
      <trkpt lat="37.89812106639147" lon="-119.40355958417058">
        <time>2005-06-30T18:56:42-07:00</time>
      </trkpt>
      <trkpt lat="37.89813632145524" lon="-119.40367684699595">
        <time>2005-06-30T18:56:50-07:00</time>
      </trkpt>
      <trkpt lat="37.89813665673137" lon="-119.40369503572583">
        <time>2005-06-30T18:56:58-07:00</time>
      </trkpt>
      <trkpt lat="37.89818359538913" lon="-119.40379628911614">
        <time>2005-06-30T18:56:59-07:00</time>
      </trkpt>
      <trkpt lat="37.89821301586926" lon="-119.40389863215387">
        <time>2005-06-30T18:57:06-07:00</time>
      </trkpt>
      <trkpt lat="37.898295829072595" lon="-119.40399343147874">
        <time>2005-06-30T18:57:13-07:00</time>
      </trkpt>
      <trkpt lat="37.89839297533035" lon="-119.40406132489443">
        <time>2005-06-30T18:57:22-07:00</time>
      </trkpt>
      <trkpt lat="37.89847972802818" lon="-119.40411052666605">
        <time>2005-06-30T18:57:31-07:00</time>
      </trkpt>
      <trkpt lat="37.89857184514403" lon="-119.40417003817856">
        <time>2005-06-30T18:57:39-07:00</time>
      </trkpt>
      <trkpt lat="37.89868391118944" lon="-119.40417867153883">
        <time>2005-06-30T18:57:47-07:00</time>
      </trkpt>
      <trkpt lat="37.89876999333501" lon="-119.40421840175986">
        <time>2005-06-30T18:57:56-07:00</time>
      </trkpt>
      <trkpt lat="37.89883268997073" lon="-119.40427623689175">
        <time>2005-06-30T18:58:03-07:00</time>
      </trkpt>
      <trkpt lat="37.89890360087156" lon="-119.40433910116553">
        <time>2005-06-30T18:58:10-07:00</time>
      </trkpt>
      <trkpt lat="37.89896445348859" lon="-119.40440732985735">
        <time>2005-06-30T18:58:17-07:00</time>
      </trkpt>
      <trkpt lat="37.89902497082949" lon="-119.40448402427137">
        <time>2005-06-30T18:58:24-07:00</time>
      </trkpt>
      <trkpt lat="37.89907207712531" lon="-119.40457362681627">
        <time>2005-06-30T18:58:31-07:00</time>
      </trkpt>
      <trkpt lat="37.899100324139" lon="-119.40463481470942">
        <time>2005-06-30T18:58:39-07:00</time>
      </trkpt>
      <trkpt lat="37.89913049899042" lon="-119.4046635646373">
        <time>2005-06-30T18:58:44-07:00</time>
      </trkpt>
      <trkpt lat="37.89921289309859" lon="-119.40471771173179">
        <time>2005-06-30T18:58:47-07:00</time>
      </trkpt>
      <trkpt lat="37.89931381121278" lon="-119.40477881580591">
        <time>2005-06-30T18:58:55-07:00</time>
      </trkpt>
      <trkpt lat="37.899401569738984" lon="-119.40485970117152">
        <time>2005-06-30T18:59:04-07:00</time>
      </trkpt>
      <trkpt lat="37.89946921169758" lon="-119.40493689849973">
        <time>2005-06-30T18:59:12-07:00</time>
      </trkpt>
      <trkpt lat="37.8994938544929" lon="-119.40499087795615">
        <time>2005-06-30T18:59:19-07:00</time>
      </trkpt>
      <trkpt lat="37.89952855557203" lon="-119.40504125319421">
        <time>2005-06-30T18:59:23-07:00</time>
      </trkpt>
      <trkpt lat="37.899566777050495" lon="-119.40508198924363">
        <time>2005-06-30T18:59:27-07:00</time>
      </trkpt>
      <trkpt lat="37.8995974548161" lon="-119.40513538196683">
        <time>2005-06-30T18:59:31-07:00</time>
      </trkpt>
      <trkpt lat="37.899660570546985" lon="-119.40527720376849">
        <time>2005-06-30T18:59:36-07:00</time>
      </trkpt>
      <trkpt lat="37.89967339485884" lon="-119.40539253875613">
        <time>2005-06-30T18:59:45-07:00</time>
      </trkpt>
      <trkpt lat="37.8996648453176" lon="-119.4055061135441">
        <time>2005-06-30T18:59:53-07:00</time>
      </trkpt>
      <trkpt lat="37.899627881124616" lon="-119.40562949515879">
        <time>2005-06-30T19:00:00-07:00</time>
      </trkpt>
      <trkpt lat="37.899628803133965" lon="-119.40573611296713">
        <time>2005-06-30T19:00:08-07:00</time>
      </trkpt>
      <trkpt lat="37.899637604132295" lon="-119.40579889342189">
        <time>2005-06-30T19:00:15-07:00</time>
      </trkpt>
      <trkpt lat="37.89965403266251" lon="-119.40588003024459">
        <time>2005-06-30T19:00:19-07:00</time>
      </trkpt>
      <trkpt lat="37.8996582236141" lon="-119.40591464750469">
        <time>2005-06-30T19:00:24-07:00</time>
      </trkpt>
      <trkpt lat="37.8996458183974" lon="-119.40597047097981">
        <time>2005-06-30T19:00:27-07:00</time>
      </trkpt>
      <trkpt lat="37.89964472874999" lon="-119.40609469078481">
        <time>2005-06-30T19:00:31-07:00</time>
      </trkpt>
      <trkpt lat="37.89966920390725" lon="-119.40621698275208">
        <time>2005-06-30T19:00:39-07:00</time>
      </trkpt>
      <trkpt lat="37.89967414923012" lon="-119.40624196082354">
        <time>2005-06-30T19:00:47-07:00</time>
      </trkpt>
      <trkpt lat="37.89970465935767" lon="-119.40631161443889">
        <time>2005-06-30T19:00:49-07:00</time>
      </trkpt>
      <trkpt lat="37.899776324629784" lon="-119.40642217174172">
        <time>2005-06-30T19:00:56-07:00</time>
      </trkpt>
      <trkpt lat="37.89979585446417" lon="-119.4065066613257">
        <time>2005-06-30T19:01:05-07:00</time>
      </trkpt>
      <trkpt lat="37.899806248024106" lon="-119.40660674124956">
        <time>2005-06-30T19:01:12-07:00</time>
      </trkpt>
      <trkpt lat="37.89985570125282" lon="-119.40671537071466">
        <time>2005-06-30T19:01:19-07:00</time>
      </trkpt>
      <trkpt lat="37.89989350363612" lon="-119.40683372318745">
        <time>2005-06-30T19:01:28-07:00</time>
      </trkpt>
      <trkpt lat="37.8999188169837" lon="-119.40698124468327">
        <time>2005-06-30T19:01:37-07:00</time>
      </trkpt>
      <trkpt lat="37.89992501959205" lon="-119.40700831823051">
        <time>2005-06-30T19:01:48-07:00</time>
      </trkpt>
      <trkpt lat="37.89992267265916" lon="-119.40707914531231">
        <time>2005-06-30T19:01:50-07:00</time>
      </trkpt>
      <trkpt lat="37.899928288534284" lon="-119.4070949871093">
        <time>2005-06-30T19:01:55-07:00</time>
      </trkpt>
      <trkpt lat="37.89995091967285" lon="-119.40717679448426">
        <time>2005-06-30T19:01:56-07:00</time>
      </trkpt>
      <trkpt lat="37.89993390440941" lon="-119.40722004510462">
        <time>2005-06-30T19:02:02-07:00</time>
      </trkpt>
      <trkpt lat="37.89992921054363" lon="-119.40722398459911">
        <time>2005-06-30T19:02:06-07:00</time>
      </trkpt>
      <trkpt lat="37.89992719888687" lon="-119.40725474618375">
        <time>2005-06-30T19:02:08-07:00</time>
      </trkpt>
      <trkpt lat="37.899958631023765" lon="-119.40729422494769">
        <time>2005-06-30T19:02:12-07:00</time>
      </trkpt>
      <trkpt lat="37.89997313171625" lon="-119.40737787634134">
        <time>2005-06-30T19:02:16-07:00</time>
      </trkpt>
      <trkpt lat="37.899957709014416" lon="-119.40738642588258">
        <time>2005-06-30T19:02:23-07:00</time>
      </trkpt>
      <trkpt lat="37.89993692189455" lon="-119.40742791630328">
        <time>2005-06-30T19:02:24-07:00</time>
      </trkpt>
      <trkpt lat="37.899944968521595" lon="-119.40746387466788">
        <time>2005-06-30T19:02:27-07:00</time>
      </trkpt>
      <trkpt lat="37.89998344145715" lon="-119.40750385634601">
        <time>2005-06-30T19:02:30-07:00</time>
      </trkpt>
      <trkpt lat="37.89999274536967" lon="-119.4075009226799">
        <time>2005-06-30T19:02:35-07:00</time>
      </trkpt>
      <trkpt lat="37.9000139515847" lon="-119.40749371424317">
        <time>2005-06-30T19:02:36-07:00</time>
      </trkpt>
      <trkpt lat="37.90002535097301" lon="-119.40750737674534">
        <time>2005-06-30T19:02:38-07:00</time>
      </trkpt>
      <trkpt lat="37.90003021247685" lon="-119.4075149204582">
        <time>2005-06-30T19:02:41-07:00</time>
      </trkpt>
      <trkpt lat="37.900043707340956" lon="-119.40754157491028">
        <time>2005-06-30T19:02:42-07:00</time>
      </trkpt>
      <trkpt lat="37.90006985887885" lon="-119.407569905743">
        <time>2005-06-30T19:02:45-07:00</time>
      </trkpt>
      <trkpt lat="37.900089137256145" lon="-119.40758591517806">
        <time>2005-06-30T19:02:48-07:00</time>
      </trkpt>
      <trkpt lat="37.90010489523411" lon="-119.4076031818986">
        <time>2005-06-30T19:02:50-07:00</time>
      </trkpt>
      <trkpt lat="37.90011621080339" lon="-119.40761583857238">
        <time>2005-06-30T19:02:52-07:00</time>
      </trkpt>
      <trkpt lat="37.90012559853494" lon="-119.4076235499233">
        <time>2005-06-30T19:02:54-07:00</time>
      </trkpt>
      <trkpt lat="37.900163903832436" lon="-119.40766369923949">
        <time>2005-06-30T19:02:56-07:00</time>
      </trkpt>
      <trkpt lat="37.900166753679514" lon="-119.40766965039074">
        <time>2005-06-30T19:03:01-07:00</time>
      </trkpt>
      <trkpt lat="37.90016541257501" lon="-119.4076806306839">
        <time>2005-06-30T19:03:02-07:00</time>
      </trkpt>
      <trkpt lat="37.90016541257501" lon="-119.4076806306839">
        <time>2005-06-30T19:03:08-07:00</time>
      </trkpt>
      <trkpt lat="37.900176644325256" lon="-119.40769320353866">
        <time>2005-06-30T19:03:11-07:00</time>
      </trkpt>
      <trkpt lat="37.90023531764746" lon="-119.4077255576849">
        <time>2005-06-30T19:03:22-07:00</time>
      </trkpt>
      <trkpt lat="37.90024135261774" lon="-119.40772706642747">
        <time>2005-06-30T19:03:28-07:00</time>
      </trkpt>
      <trkpt lat="37.9003229085356" lon="-119.40775271505117">
        <time>2005-06-30T19:03:29-07:00</time>
      </trkpt>
      <trkpt lat="37.900333888828754" lon="-119.40775363706052">
        <time>2005-06-30T19:03:39-07:00</time>
      </trkpt>
      <trkpt lat="37.90033891797066" lon="-119.40779504366219">
        <time>2005-06-30T19:03:41-07:00</time>
      </trkpt>
      <trkpt lat="37.900325674563646" lon="-119.4079047627747">
        <time>2005-06-30T19:03:45-07:00</time>
      </trkpt>
      <trkpt lat="37.900328524410725" lon="-119.40794851630926">
        <time>2005-06-30T19:03:52-07:00</time>
      </trkpt>
      <trkpt lat="37.900332883000374" lon="-119.407979529351">
        <time>2005-06-30T19:03:56-07:00</time>
      </trkpt>
      <trkpt lat="37.900329530239105" lon="-119.4080847222358">
        <time>2005-06-30T19:03:59-07:00</time>
      </trkpt>
      <trkpt lat="37.900321651250124" lon="-119.40819720737636">
        <time>2005-06-30T19:04:07-07:00</time>
      </trkpt>
      <trkpt lat="37.90030941367149" lon="-119.40828748047352">
        <time>2005-06-30T19:04:14-07:00</time>
      </trkpt>
      <trkpt lat="37.900310000404716" lon="-119.40842561423779">
        <time>2005-06-30T19:04:21-07:00</time>
      </trkpt>
      <trkpt lat="37.90032190270722" lon="-119.40851043909788">
        <time>2005-06-30T19:04:29-07:00</time>
      </trkpt>
      <trkpt lat="37.90032399818301" lon="-119.4085443019867">
        <time>2005-06-30T19:04:35-07:00</time>
      </trkpt>
      <trkpt lat="37.90033799596131" lon="-119.4086664263159">
        <time>2005-06-30T19:04:38-07:00</time>
      </trkpt>
      <trkpt lat="37.90035316720605" lon="-119.40872174687684">
        <time>2005-06-30T19:04:45-07:00</time>
      </trkpt>
      <trkpt lat="37.90035651996732" lon="-119.4087427854538">
        <time>2005-06-30T19:04:49-07:00</time>
      </trkpt>
      <trkpt lat="37.900358363986015" lon="-119.40884060226381">
        <time>2005-06-30T19:04:51-07:00</time>
      </trkpt>
      <trkpt lat="37.90035668760538" lon="-119.40890447236598">
        <time>2005-06-30T19:04:58-07:00</time>
      </trkpt>
      <trkpt lat="37.90036532096565" lon="-119.40894084982574">
        <time>2005-06-30T19:05:03-07:00</time>
      </trkpt>
      <trkpt lat="37.90038853883743" lon="-119.40904025919735">
        <time>2005-06-30T19:05:05-07:00</time>
      </trkpt>
      <trkpt lat="37.900439919903874" lon="-119.40912558697164">
        <time>2005-06-30T19:05:12-07:00</time>
      </trkpt>
      <trkpt lat="37.90045961737633" lon="-119.40915844403207">
        <time>2005-06-30T19:05:19-07:00</time>
      </trkpt>
      <trkpt lat="37.900470262393355" lon="-119.40920471213758">
        <time>2005-06-30T19:05:23-07:00</time>
      </trkpt>
      <trkpt lat="37.900496581569314" lon="-119.40930026583374">
        <time>2005-06-30T19:05:26-07:00</time>
      </trkpt>
      <trkpt lat="37.900497168302536" lon="-119.40934401936829">
        <time>2005-06-30T19:05:34-07:00</time>
      </trkpt>
      <trkpt lat="37.90049146860838" lon="-119.40935642458498">
        <time>2005-06-30T19:05:39-07:00</time>
      </trkpt>
      <trkpt lat="37.9004420991987" lon="-119.40939271822572">
        <time>2005-06-30T19:05:40-07:00</time>
      </trkpt>
      <trkpt lat="37.900431118905544" lon="-119.40940277650952">
        <time>2005-06-30T19:05:47-07:00</time>
      </trkpt>
      <trkpt lat="37.90039381943643" lon="-119.409488607198">
        <time>2005-06-30T19:05:48-07:00</time>
      </trkpt>
      <trkpt lat="37.900388119742274" lon="-119.40950537100434">
        <time>2005-06-30T19:05:54-07:00</time>
      </trkpt>
      <trkpt lat="37.90038384497166" lon="-119.40958860330284">
        <time>2005-06-30T19:05:55-07:00</time>
      </trkpt>
      <trkpt lat="37.90039759129286" lon="-119.40968113951385">
        <time>2005-06-30T19:06:01-07:00</time>
      </trkpt>
      <trkpt lat="37.900435980409384" lon="-119.40975272096694">
        <time>2005-06-30T19:06:08-07:00</time>
      </trkpt>
      <trkpt lat="37.90045685134828" lon="-119.40979949198663">
        <time>2005-06-30T19:06:15-07:00</time>
      </trkpt>
      <trkpt lat="37.900485433638096" lon="-119.40983142703772">
        <time>2005-06-30T19:06:20-07:00</time>
      </trkpt>
      <trkpt lat="37.90049398317933" lon="-119.40984039567411">
        <time>2005-06-30T19:06:23-07:00</time>
      </trkpt>
      <trkpt lat="37.90054318495095" lon="-119.4098942913115">
        <time>2005-06-30T19:06:24-07:00</time>
      </trkpt>
      <trkpt lat="37.90060051716864" lon="-119.40995883196592">
        <time>2005-06-30T19:06:31-07:00</time>
      </trkpt>
      <trkpt lat="37.90061007253826" lon="-119.40997023135424">
        <time>2005-06-30T19:06:38-07:00</time>
      </trkpt>
      <trkpt lat="37.90063966065645" lon="-119.4100047647953">
        <time>2005-06-30T19:06:41-07:00</time>
      </trkpt>
      <trkpt lat="37.90070503950119" lon="-119.41006637178361">
        <time>2005-06-30T19:06:44-07:00</time>
      </trkpt>
      <trkpt lat="37.900725323706865" lon="-119.41009294241667">
        <time>2005-06-30T19:06:52-07:00</time>
      </trkpt>
      <trkpt lat="37.900741919875145" lon="-119.4101157411933">
        <time>2005-06-30T19:06:55-07:00</time>
      </trkpt>
      <trkpt lat="37.90078651160002" lon="-119.410157231614">
        <time>2005-06-30T19:06:57-07:00</time>
      </trkpt>
      <trkpt lat="37.90079732425511" lon="-119.41021498292685">
        <time>2005-06-30T19:07:04-07:00</time>
      </trkpt>
      <trkpt lat="37.90081383660436" lon="-119.4102328363806">
        <time>2005-06-30T19:07:10-07:00</time>
      </trkpt>
      <trkpt lat="37.90087351575494" lon="-119.41023526713252">
        <time>2005-06-30T19:07:12-07:00</time>
      </trkpt>
      <trkpt lat="37.900885082781315" lon="-119.4102344289422">
        <time>2005-06-30T19:07:18-07:00</time>
      </trkpt>
      <trkpt lat="37.90094442665577" lon="-119.4102227780968">
        <time>2005-06-30T19:07:19-07:00</time>
      </trkpt>
      <trkpt lat="37.900964291766286" lon="-119.41022688522935">
        <time>2005-06-30T19:07:26-07:00</time>
      </trkpt>
      <trkpt lat="37.90098650380969" lon="-119.41026384942234">
        <time>2005-06-30T19:07:29-07:00</time>
      </trkpt>
      <trkpt lat="37.90099170058966" lon="-119.41028002649546">
        <time>2005-06-30T19:07:33-07:00</time>
      </trkpt>
      <trkpt lat="37.90105397813022" lon="-119.41034406423569">
        <time>2005-06-30T19:07:34-07:00</time>
      </trkpt>
      <trkpt lat="37.901063449680805" lon="-119.41034129820764">
        <time>2005-06-30T19:07:42-07:00</time>
      </trkpt>
      <trkpt lat="37.90106847882271" lon="-119.41033476032317">
        <time>2005-06-30T19:07:47-07:00</time>
      </trkpt>
      <trkpt lat="37.901108376681805" lon="-119.41027139313519">
        <time>2005-06-30T19:07:48-07:00</time>
      </trkpt>
      <trkpt lat="37.90112019516528" lon="-119.41025798209012">
        <time>2005-06-30T19:07:54-07:00</time>
      </trkpt>
      <trkpt lat="37.901142071932554" lon="-119.41023551858962">
        <time>2005-06-30T19:07:56-07:00</time>
      </trkpt>
      <trkpt lat="37.90116176940501" lon="-119.41023459658027">
        <time>2005-06-30T19:08:00-07:00</time>
      </trkpt>
      <trkpt lat="37.90117157623172" lon="-119.41024348139763">
        <time>2005-06-30T19:08:04-07:00</time>
      </trkpt>
      <trkpt lat="37.90119169279933" lon="-119.4102672021836">
        <time>2005-06-30T19:08:06-07:00</time>
      </trkpt>
      <trkpt lat="37.90119772776961" lon="-119.41028513945639">
        <time>2005-06-30T19:08:09-07:00</time>
      </trkpt>
      <trkpt lat="37.90121625177562" lon="-119.41031916998327">
        <time>2005-06-30T19:08:11-07:00</time>
      </trkpt>
      <trkpt lat="37.901245253160596" lon="-119.41034716553986">
        <time>2005-06-30T19:08:15-07:00</time>
      </trkpt>
      <trkpt lat="37.9012690577656" lon="-119.41037063486874">
        <time>2005-06-30T19:08:19-07:00</time>
      </trkpt>
      <trkpt lat="37.90128272026777" lon="-119.41038396209478">
        <time>2005-06-30T19:08:23-07:00</time>
      </trkpt>
      <trkpt lat="37.90128758177161" lon="-119.41035504452884">
        <time>2005-06-30T19:08:26-07:00</time>
      </trkpt>
      <trkpt lat="37.90129764005542" lon="-119.41032839007676">
        <time>2005-06-30T19:08:30-07:00</time>
      </trkpt>
      <trkpt lat="37.90130266919732" lon="-119.41032051108778">
        <time>2005-06-30T19:08:33-07:00</time>
      </trkpt>
      <trkpt lat="37.90132462978363" lon="-119.41028815694153">
        <time>2005-06-30T19:08:34-07:00</time>
      </trkpt>
      <trkpt lat="37.90134952403605" lon="-119.41023736260831">
        <time>2005-06-30T19:08:38-07:00</time>
      </trkpt>
      <trkpt lat="37.9013988096267" lon="-119.41019302234054">
        <time>2005-06-30T19:08:41-07:00</time>
      </trkpt>
      <trkpt lat="37.90140928700566" lon="-119.41018698737025">
        <time>2005-06-30T19:08:47-07:00</time>
      </trkpt>
      <trkpt lat="37.90146494284272" lon="-119.41015446558595">
        <time>2005-06-30T19:08:48-07:00</time>
      </trkpt>
      <trkpt lat="37.90148036554456" lon="-119.41014700569212">
        <time>2005-06-30T19:08:53-07:00</time>
      </trkpt>
      <trkpt lat="37.90153048932552" lon="-119.41014549694955">
        <time>2005-06-30T19:08:55-07:00</time>
      </trkpt>
      <trkpt lat="37.901536943390965" lon="-119.41014038398862">
        <time>2005-06-30T19:09:01-07:00</time>
      </trkpt>
      <trkpt lat="37.90157365612686" lon="-119.41012613475323">
        <time>2005-06-30T19:09:02-07:00</time>
      </trkpt>
      <trkpt lat="37.90162671357393" lon="-119.41010341979563">
        <time>2005-06-30T19:09:05-07:00</time>
      </trkpt>
      <trkpt lat="37.90164607577026" lon="-119.41009839065373">
        <time>2005-06-30T19:09:09-07:00</time>
      </trkpt>
      <trkpt lat="37.901710867881775" lon="-119.41009411588311">
        <time>2005-06-30T19:09:11-07:00</time>
      </trkpt>
      <trkpt lat="37.90173592977226" lon="-119.41009922884405">
        <time>2005-06-30T19:09:17-07:00</time>
      </trkpt>
      <trkpt lat="37.90176384150982" lon="-119.41013141535223">
        <time>2005-06-30T19:09:19-07:00</time>
      </trkpt>
      <trkpt lat="37.90176744572818" lon="-119.4101397972554">
        <time>2005-06-30T19:09:23-07:00</time>
      </trkpt>
      <trkpt lat="37.90178672410548" lon="-119.41017349250615">
        <time>2005-06-30T19:09:24-07:00</time>
      </trkpt>
      <trkpt lat="37.90181522257626" lon="-119.41021992824972">
        <time>2005-06-30T19:09:27-07:00</time>
      </trkpt>
      <trkpt lat="37.90182486176491" lon="-119.41024012863636">
        <time>2005-06-30T19:09:31-07:00</time>
      </trkpt>
      <trkpt lat="37.901849085465074" lon="-119.41032176837325">
        <time>2005-06-30T19:09:32-07:00</time>
      </trkpt>
      <trkpt lat="37.9018634185195" lon="-119.4103639293462">
        <time>2005-06-30T19:09:37-07:00</time>
      </trkpt>
      <trkpt lat="37.90191094391048" lon="-119.41038077697158">
        <time>2005-06-30T19:09:40-07:00</time>
      </trkpt>
      <trkpt lat="37.901940951123834" lon="-119.4103760831058">
        <time>2005-06-30T19:09:45-07:00</time>
      </trkpt>
      <trkpt lat="37.90198177099228" lon="-119.41034054383636">
        <time>2005-06-30T19:09:47-07:00</time>
      </trkpt>
      <trkpt lat="37.90200624614954" lon="-119.41031414084136">
        <time>2005-06-30T19:09:51-07:00</time>
      </trkpt>
      <trkpt lat="37.9021065775305" lon="-119.41022587940097">
        <time>2005-06-30T19:09:54-07:00</time>
      </trkpt>
      <trkpt lat="37.9021152947098" lon="-119.4102138094604">
        <time>2005-06-30T19:10:03-07:00</time>
      </trkpt>
      <trkpt lat="37.90217346511781" lon="-119.41016008146107">
        <time>2005-06-30T19:10:04-07:00</time>
      </trkpt>
      <trkpt lat="37.90218117646873" lon="-119.41015387885273">
        <time>2005-06-30T19:10:10-07:00</time>
      </trkpt>
      <trkpt lat="37.90219567716122" lon="-119.41014566458762">
        <time>2005-06-30T19:10:11-07:00</time>
      </trkpt>
      <trkpt lat="37.90219735354185" lon="-119.41015706397593">
        <time>2005-06-30T19:10:17-07:00</time>
      </trkpt>
      <trkpt lat="37.90220129303634" lon="-119.41016779281199">
        <time>2005-06-30T19:10:18-07:00</time>
      </trkpt>
      <trkpt lat="37.902203891426325" lon="-119.41020525991917">
        <time>2005-06-30T19:10:19-07:00</time>
      </trkpt>
      <trkpt lat="37.90219391696155" lon="-119.41029083915055">
        <time>2005-06-30T19:10:22-07:00</time>
      </trkpt>
      <trkpt lat="37.90217631496489" lon="-119.41033132374287">
        <time>2005-06-30T19:10:27-07:00</time>
      </trkpt>
      <trkpt lat="37.90214748121798" lon="-119.41040650941432">
        <time>2005-06-30T19:10:30-07:00</time>
      </trkpt>
      <trkpt lat="37.902129208669066" lon="-119.41050709225237">
        <time>2005-06-30T19:10:35-07:00</time>
      </trkpt>
      <trkpt lat="37.902123760432005" lon="-119.4105991255492">
        <time>2005-06-30T19:10:42-07:00</time>
      </trkpt>
      <trkpt lat="37.90205745957792" lon="-119.41067959181964">
        <time>2005-06-30T19:10:49-07:00</time>
      </trkpt>
      <trkpt lat="37.90204295888543" lon="-119.41071135923266">
        <time>2005-06-30T19:10:55-07:00</time>
      </trkpt>
      <trkpt lat="37.902013789862394" lon="-119.4107593037188">
        <time>2005-06-30T19:10:57-07:00</time>
      </trkpt>
      <trkpt lat="37.901954613626" lon="-119.41080984659493">
        <time>2005-06-30T19:11:02-07:00</time>
      </trkpt>
      <trkpt lat="37.901863334700465" lon="-119.41088100895286">
        <time>2005-06-30T19:11:08-07:00</time>
      </trkpt>
      <trkpt lat="37.90179376490414" lon="-119.41094144247472">
        <time>2005-06-30T19:11:17-07:00</time>
      </trkpt>
      <trkpt lat="37.90175939910114" lon="-119.4110431149602">
        <time>2005-06-30T19:11:23-07:00</time>
      </trkpt>
      <trkpt lat="37.901744060218334" lon="-119.41115962341428">
        <time>2005-06-30T19:11:30-07:00</time>
      </trkpt>
      <trkpt lat="37.90170826949179" lon="-119.41129080019891">
        <time>2005-06-30T19:11:38-07:00</time>
      </trkpt>
      <trkpt lat="37.90168488398194" lon="-119.41139272414148">
        <time>2005-06-30T19:11:46-07:00</time>
      </trkpt>
      <trkpt lat="37.90167482569814" lon="-119.4114797282964">
        <time>2005-06-30T19:11:53-07:00</time>
      </trkpt>
      <trkpt lat="37.90165504440665" lon="-119.4116179458797">
        <time>2005-06-30T19:11:59-07:00</time>
      </trkpt>
      <trkpt lat="37.90163325145841" lon="-119.41170134581625">
        <time>2005-06-30T19:12:08-07:00</time>
      </trkpt>
      <trkpt lat="37.901626881211996" lon="-119.411830175668">
        <time>2005-06-30T19:12:14-07:00</time>
      </trkpt>
      <trkpt lat="37.90163786150515" lon="-119.41196604631841">
        <time>2005-06-30T19:12:23-07:00</time>
      </trkpt>
      <trkpt lat="37.90164548903704" lon="-119.4120527151972">
        <time>2005-06-30T19:12:31-07:00</time>
      </trkpt>
      <trkpt lat="37.90163149125874" lon="-119.41218556836247">
        <time>2005-06-30T19:12:37-07:00</time>
      </trkpt>
      <trkpt lat="37.90162269026041" lon="-119.41230065189302">
        <time>2005-06-30T19:12:46-07:00</time>
      </trkpt>
      <trkpt lat="37.90156854316592" lon="-119.41236837767065">
        <time>2005-06-30T19:12:54-07:00</time>
      </trkpt>
      <trkpt lat="37.90155773051083" lon="-119.41237851977348">
        <time>2005-06-30T19:13:00-07:00</time>
      </trkpt>
      <trkpt lat="37.90146913379431" lon="-119.41241850145161">
        <time>2005-06-30T19:13:01-07:00</time>
      </trkpt>
      <trkpt lat="37.90143300779164" lon="-119.41249460913241">
        <time>2005-06-30T19:13:09-07:00</time>
      </trkpt>
      <trkpt lat="37.90141171775758" lon="-119.41257004626095">
        <time>2005-06-30T19:13:15-07:00</time>
      </trkpt>
      <trkpt lat="37.90140735916793" lon="-119.41259410232306">
        <time>2005-06-30T19:13:20-07:00</time>
      </trkpt>
      <trkpt lat="37.90135983377695" lon="-119.41273818723857">
        <time>2005-06-30T19:13:22-07:00</time>
      </trkpt>
      <trkpt lat="37.90131691843271" lon="-119.41280490718782">
        <time>2005-06-30T19:13:32-07:00</time>
      </trkpt>
      <trkpt lat="37.90130836889148" lon="-119.41280281171203">
        <time>2005-06-30T19:13:39-07:00</time>
      </trkpt>
      <trkpt lat="37.90125120431185" lon="-119.41281630657613">
        <time>2005-06-30T19:13:40-07:00</time>
      </trkpt>
      <trkpt lat="37.901136204600334" lon="-119.41289786249399">
        <time>2005-06-30T19:13:45-07:00</time>
      </trkpt>
      <trkpt lat="37.90106671862304" lon="-119.41300079226494">
        <time>2005-06-30T19:13:56-07:00</time>
      </trkpt>
      <trkpt lat="37.901023887097836" lon="-119.41314018331468">
        <time>2005-06-30T19:14:04-07:00</time>
      </trkpt>
      <trkpt lat="37.90096437558532" lon="-119.41320145502687">
        <time>2005-06-30T19:14:13-07:00</time>
      </trkpt>
      <trkpt lat="37.900917353108525" lon="-119.41329591907561">
        <time>2005-06-30T19:14:21-07:00</time>
      </trkpt>
      <trkpt lat="37.900975020602345" lon="-119.41338962875307">
        <time>2005-06-30T19:14:29-07:00</time>
      </trkpt>
      <trkpt lat="37.90102598257363" lon="-119.41341393627226">
        <time>2005-06-30T19:14:38-07:00</time>
      </trkpt>
      <trkpt lat="37.90105833671987" lon="-119.41344905644655">
        <time>2005-06-30T19:14:43-07:00</time>
      </trkpt>
      <trkpt lat="37.9010861646384" lon="-119.41352013498545">
        <time>2005-06-30T19:14:47-07:00</time>
      </trkpt>
      <trkpt lat="37.901081051677465" lon="-119.41357210278511">
        <time>2005-06-30T19:14:53-07:00</time>
      </trkpt>
      <trkpt lat="37.90108130313456" lon="-119.41359154880047">
        <time>2005-06-30T19:14:58-07:00</time>
      </trkpt>
      <trkpt lat="37.90108993649483" lon="-119.41361585631967">
        <time>2005-06-30T19:15:00-07:00</time>
      </trkpt>
      <trkpt lat="37.90110628120601" lon="-119.41362130455673">
        <time>2005-06-30T19:15:03-07:00</time>
      </trkpt>
      <trkpt lat="37.90113067254424" lon="-119.41362155601382">
        <time>2005-06-30T19:15:05-07:00</time>
      </trkpt>
      <trkpt lat="37.901184568181634" lon="-119.41362834535539">
        <time>2005-06-30T19:15:07-07:00</time>
      </trkpt>
      <trkpt lat="37.90120602585375" lon="-119.41365416161716">
        <time>2005-06-30T19:15:12-07:00</time>
      </trkpt>
      <trkpt lat="37.90123905055225" lon="-119.4137158524245">
        <time>2005-06-30T19:15:15-07:00</time>
      </trkpt>
      <trkpt lat="37.90124198421836" lon="-119.4137174449861">
        <time>2005-06-30T19:15:22-07:00</time>
      </trkpt>
      <trkpt lat="37.901250030845404" lon="-119.4137560017407">
        <time>2005-06-30T19:15:23-07:00</time>
      </trkpt>
      <trkpt lat="37.90125380270183" lon="-119.41376614384353">
        <time>2005-06-30T19:15:28-07:00</time>
      </trkpt>
      <trkpt lat="37.90128112770617" lon="-119.41384158097208">
        <time>2005-06-30T19:15:29-07:00</time>
      </trkpt>
      <trkpt lat="37.901324881240726" lon="-119.41392824985087">
        <time>2005-06-30T19:15:36-07:00</time>
      </trkpt>
      <trkpt lat="37.90140333585441" lon="-119.41395934671164">
        <time>2005-06-30T19:15:44-07:00</time>
      </trkpt>
      <trkpt lat="37.90144415572286" lon="-119.41399966366589">
        <time>2005-06-30T19:15:52-07:00</time>
      </trkpt>
      <trkpt lat="37.90146427229047" lon="-119.41400737501681">
        <time>2005-06-30T19:15:58-07:00</time>
      </trkpt>
      <trkpt lat="37.901470474898815" lon="-119.41400771029294">
        <time>2005-06-30T19:16:01-07:00</time>
      </trkpt>
      <trkpt lat="37.901477348059416" lon="-119.41401366144419">
        <time>2005-06-30T19:16:02-07:00</time>
      </trkpt>
      <trkpt lat="37.90153669193387" lon="-119.41401315853">
        <time>2005-06-30T19:16:03-07:00</time>
      </trkpt>
      <trkpt lat="37.901541804894805" lon="-119.41401542164385">
        <time>2005-06-30T19:16:08-07:00</time>
      </trkpt>
      <trkpt lat="37.90158396586776" lon="-119.41400293260813">
        <time>2005-06-30T19:16:09-07:00</time>
      </trkpt>
      <trkpt lat="37.90159620344639" lon="-119.41400620155036">
        <time>2005-06-30T19:16:13-07:00</time>
      </trkpt>
      <trkpt lat="37.90162352845073" lon="-119.41404165700078">
        <time>2005-06-30T19:16:15-07:00</time>
      </trkpt>
      <trkpt lat="37.90163392201066" lon="-119.41406353376806">
        <time>2005-06-30T19:16:20-07:00</time>
      </trkpt>
      <trkpt lat="37.90164515376091" lon="-119.41410259343684">
        <time>2005-06-30T19:16:23-07:00</time>
      </trkpt>
      <trkpt lat="37.901651272550225" lon="-119.41412480548024">
        <time>2005-06-30T19:16:28-07:00</time>
      </trkpt>
      <trkpt lat="37.901657056063414" lon="-119.41417107358575">
        <time>2005-06-30T19:16:30-07:00</time>
      </trkpt>
      <trkpt lat="37.90168337523937" lon="-119.41422455012798">
        <time>2005-06-30T19:16:34-07:00</time>
      </trkpt>
      <trkpt lat="37.901752861216664" lon="-119.41428766585886">
        <time>2005-06-30T19:16:38-07:00</time>
      </trkpt>
      <trkpt lat="37.901787646114826" lon="-119.41431490704417">
        <time>2005-06-30T19:16:45-07:00</time>
      </trkpt>
      <trkpt lat="37.90180005133152" lon="-119.4143253006041">
        <time>2005-06-30T19:16:49-07:00</time>
      </trkpt>
      <trkpt lat="37.901838859543204" lon="-119.41435111686587">
        <time>2005-06-30T19:16:51-07:00</time>
      </trkpt>
      <trkpt lat="37.90188713930547" lon="-119.41437500528991">
        <time>2005-06-30T19:16:55-07:00</time>
      </trkpt>
      <trkpt lat="37.90191136300564" lon="-119.41437634639442">
        <time>2005-06-30T19:16:59-07:00</time>
      </trkpt>
      <trkpt lat="37.90196232497692" lon="-119.4143810402602">
        <time>2005-06-30T19:17:01-07:00</time>
      </trkpt>
      <trkpt lat="37.90199602022767" lon="-119.41436754539609">
        <time>2005-06-30T19:17:06-07:00</time>
      </trkpt>
      <trkpt lat="37.9019997920841" lon="-119.41436050459743">
        <time>2005-06-30T19:17:10-07:00</time>
      </trkpt>
      <trkpt lat="37.902014292776585" lon="-119.41434843465686">
        <time>2005-06-30T19:17:11-07:00</time>
      </trkpt>
      <trkpt lat="37.902038265019655" lon="-119.41431297920644">
        <time>2005-06-30T19:17:13-07:00</time>
      </trkpt>
      <trkpt lat="37.90204773657024" lon="-119.41429713740945">
        <time>2005-06-30T19:17:17-07:00</time>
      </trkpt>
      <trkpt lat="37.902076821774244" lon="-119.41422966308892">
        <time>2005-06-30T19:17:19-07:00</time>
      </trkpt>
      <trkpt lat="37.90208285674453" lon="-119.41421574912965">
        <time>2005-06-30T19:17:25-07:00</time>
      </trkpt>
      <trkpt lat="37.90210112929344" lon="-119.41420543938875">
        <time>2005-06-30T19:17:26-07:00</time>
      </trkpt>
      <trkpt lat="37.9021308850497" lon="-119.4141963031143">
        <time>2005-06-30T19:17:28-07:00</time>
      </trkpt>
      <trkpt lat="37.90213976986706" lon="-119.41419194452465">
        <time>2005-06-30T19:17:31-07:00</time>
      </trkpt>
      <trkpt lat="37.902179416269064" lon="-119.41417107358575">
        <time>2005-06-30T19:17:32-07:00</time>
      </trkpt>
      <trkpt lat="37.902202885597944" lon="-119.41415129229426">
        <time>2005-06-30T19:17:36-07:00</time>
      </trkpt>
      <trkpt lat="37.90223876014352" lon="-119.41411692649126">
        <time>2005-06-30T19:17:39-07:00</time>
      </trkpt>
      <trkpt lat="37.90225267410278" lon="-119.41409697756171">
        <time>2005-06-30T19:17:44-07:00</time>
      </trkpt>
      <trkpt lat="37.902277735993266" lon="-119.41408641636372">
        <time>2005-06-30T19:17:47-07:00</time>
      </trkpt>
      <trkpt lat="37.902286956086755" lon="-119.41409186460078">
        <time>2005-06-30T19:17:51-07:00</time>
      </trkpt>
      <trkpt lat="37.90233263745904" lon="-119.41414182074368">
        <time>2005-06-30T19:17:53-07:00</time>
      </trkpt>
      <trkpt lat="37.90234185755253" lon="-119.41414592787623">
        <time>2005-06-30T19:17:58-07:00</time>
      </trkpt>
      <trkpt lat="37.902380246669054" lon="-119.41412044689059">
        <time>2005-06-30T19:17:59-07:00</time>
      </trkpt>
      <trkpt lat="37.902389550581574" lon="-119.41411617211998">
        <time>2005-06-30T19:18:03-07:00</time>
      </trkpt>
      <trkpt lat="37.90243472903967" lon="-119.41412530839443">
        <time>2005-06-30T19:18:04-07:00</time>
      </trkpt>
      <trkpt lat="37.90245476178825" lon="-119.41411374136806">
        <time>2005-06-30T19:18:10-07:00</time>
      </trkpt>
      <trkpt lat="37.90245870128274" lon="-119.41408700309694">
        <time>2005-06-30T19:18:12-07:00</time>
      </trkpt>
      <trkpt lat="37.90245492942631" lon="-119.41407434642315">
        <time>2005-06-30T19:18:14-07:00</time>
      </trkpt>
      <trkpt lat="37.902456521987915" lon="-119.41400201059878">
        <time>2005-06-30T19:18:15-07:00</time>
      </trkpt>
      <trkpt lat="37.902472196146846" lon="-119.41399832256138">
        <time>2005-06-30T19:18:22-07:00</time>
      </trkpt>
      <trkpt lat="37.90249088779092" lon="-119.41401869058609">
        <time>2005-06-30T19:18:25-07:00</time>
      </trkpt>
      <trkpt lat="37.90252114646137" lon="-119.41408566199243">
        <time>2005-06-30T19:18:28-07:00</time>
      </trkpt>
      <trkpt lat="37.902559619396925" lon="-119.4141096342355">
        <time>2005-06-30T19:18:35-07:00</time>
      </trkpt>
      <trkpt lat="37.902590883895755" lon="-119.41411692649126">
        <time>2005-06-30T19:18:39-07:00</time>
      </trkpt>
      <trkpt lat="37.90262592025101" lon="-119.41410896368325">
        <time>2005-06-30T19:18:42-07:00</time>
      </trkpt>
      <trkpt lat="37.902656849473715" lon="-119.41411189734936">
        <time>2005-06-30T19:18:46-07:00</time>
      </trkpt>
      <trkpt lat="37.90271518751979" lon="-119.41416344605386">
        <time>2005-06-30T19:18:49-07:00</time>
      </trkpt>
      <trkpt lat="37.9027234017849" lon="-119.41423418931663">
        <time>2005-06-30T19:18:57-07:00</time>
      </trkpt>
      <trkpt lat="37.90271636098623" lon="-119.41425573080778">
        <time>2005-06-30T19:19:03-07:00</time>
      </trkpt>
      <trkpt lat="37.90272306650877" lon="-119.4142687227577">
        <time>2005-06-30T19:19:05-07:00</time>
      </trkpt>
      <trkpt lat="37.90276078507304" lon="-119.4143186789006">
        <time>2005-06-30T19:19:06-07:00</time>
      </trkpt>
      <trkpt lat="37.902800096198916" lon="-119.41437450237572">
        <time>2005-06-30T19:19:11-07:00</time>
      </trkpt>
      <trkpt lat="37.90282557718456" lon="-119.4144690502435">
        <time>2005-06-30T19:19:18-07:00</time>
      </trkpt>
      <trkpt lat="37.90284460410476" lon="-119.41457290202379">
        <time>2005-06-30T19:19:25-07:00</time>
      </trkpt>
      <trkpt lat="37.902842089533806" lon="-119.41461690701544">
        <time>2005-06-30T19:19:33-07:00</time>
      </trkpt>
      <trkpt lat="37.902839155867696" lon="-119.41466661170125">
        <time>2005-06-30T19:19:36-07:00</time>
      </trkpt>
      <trkpt lat="37.902820045128465" lon="-119.41472511738539">
        <time>2005-06-30T19:19:40-07:00</time>
      </trkpt>
      <trkpt lat="37.90281191468239" lon="-119.414750514552">
        <time>2005-06-30T19:19:46-07:00</time>
      </trkpt>
      <trkpt lat="37.902786852791905" lon="-119.41478270106018">
        <time>2005-06-30T19:19:49-07:00</time>
      </trkpt>
      <trkpt lat="37.9027802310884" lon="-119.4147899094969">
        <time>2005-06-30T19:19:54-07:00</time>
      </trkpt>
      <trkpt lat="37.90276422165334" lon="-119.41481958143413">
        <time>2005-06-30T19:19:55-07:00</time>
      </trkpt>
      <trkpt lat="37.90276556275785" lon="-119.41482880152762">
        <time>2005-06-30T19:19:58-07:00</time>
      </trkpt>
      <trkpt lat="37.90275391191244" lon="-119.41485553979874">
        <time>2005-06-30T19:19:59-07:00</time>
      </trkpt>
      <trkpt lat="37.902746703475714" lon="-119.41489761695266">
        <time>2005-06-30T19:20:03-07:00</time>
      </trkpt>
      <trkpt lat="37.90274553000927" lon="-119.4149130396545">
        <time>2005-06-30T19:20:07-07:00</time>
      </trkpt>
      <trkpt lat="37.90275516919792" lon="-119.41495821811259">
        <time>2005-06-30T19:20:09-07:00</time>
      </trkpt>
      <trkpt lat="37.90276698768139" lon="-119.4150425400585">
        <time>2005-06-30T19:20:15-07:00</time>
      </trkpt>
      <trkpt lat="37.90275324136019" lon="-119.4151252694428">
        <time>2005-06-30T19:20:21-07:00</time>
      </trkpt>
      <trkpt lat="37.9027752019465" lon="-119.41522618755698">
        <time>2005-06-30T19:20:28-07:00</time>
      </trkpt>
      <trkpt lat="37.90275969542563" lon="-119.41526625305414">
        <time>2005-06-30T19:20:35-07:00</time>
      </trkpt>
      <trkpt lat="37.90274980477989" lon="-119.41527924500406">
        <time>2005-06-30T19:20:39-07:00</time>
      </trkpt>
      <trkpt lat="37.90274418890476" lon="-119.41528494469821">
        <time>2005-06-30T19:20:41-07:00</time>
      </trkpt>
      <trkpt lat="37.902720887213945" lon="-119.41531101241708">
        <time>2005-06-30T19:20:42-07:00</time>
      </trkpt>
      <trkpt lat="37.90269046090543" lon="-119.41535761579871">
        <time>2005-06-30T19:20:46-07:00</time>
      </trkpt>
      <trkpt lat="37.90268601849675" lon="-119.41536901518703">
        <time>2005-06-30T19:20:52-07:00</time>
      </trkpt>
      <trkpt lat="37.9026404209435" lon="-119.41544017754495">
        <time>2005-06-30T19:20:53-07:00</time>
      </trkpt>
      <trkpt lat="37.90262399241328" lon="-119.41545635461807">
        <time>2005-06-30T19:21:01-07:00</time>
      </trkpt>
      <trkpt lat="37.90260907262564" lon="-119.41546632908285">
        <time>2005-06-30T19:21:05-07:00</time>
      </trkpt>
      <trkpt lat="37.90257194079459" lon="-119.4155256729573">
        <time>2005-06-30T19:21:07-07:00</time>
      </trkpt>
      <trkpt lat="37.902481416240335" lon="-119.41559088416398">
        <time>2005-06-30T19:21:13-07:00</time>
      </trkpt>
      <trkpt lat="37.90244420059025" lon="-119.41563178785145">
        <time>2005-06-30T19:21:22-07:00</time>
      </trkpt>
      <trkpt lat="37.90240589529276" lon="-119.41568207927048">
        <time>2005-06-30T19:21:26-07:00</time>
      </trkpt>
      <trkpt lat="37.90238703601062" lon="-119.4157154392451">
        <time>2005-06-30T19:21:31-07:00</time>
      </trkpt>
      <trkpt lat="37.902352921664715" lon="-119.41575961187482">
        <time>2005-06-30T19:21:34-07:00</time>
      </trkpt>
      <trkpt lat="37.90234236046672" lon="-119.4157677423209">
        <time>2005-06-30T19:21:39-07:00</time>
      </trkpt>
      <trkpt lat="37.902281172573566" lon="-119.41579850390553">
        <time>2005-06-30T19:21:40-07:00</time>
      </trkpt>
      <trkpt lat="37.90226164273918" lon="-119.41581065766513">
        <time>2005-06-30T19:21:46-07:00</time>
      </trkpt>
      <trkpt lat="37.90219098329544" lon="-119.4158761203289">
        <time>2005-06-30T19:21:48-07:00</time>
      </trkpt>
      <trkpt lat="37.90216986089945" lon="-119.41589933820069">
        <time>2005-06-30T19:21:55-07:00</time>
      </trkpt>
      <trkpt lat="37.90212107822299" lon="-119.41596840508282">
        <time>2005-06-30T19:21:57-07:00</time>
      </trkpt>
      <trkpt lat="37.90204983204603" lon="-119.41604585386813">
        <time>2005-06-30T19:22:03-07:00</time>
      </trkpt>
      <trkpt lat="37.90202477015555" lon="-119.41608340479434">
        <time>2005-06-30T19:22:10-07:00</time>
      </trkpt>
      <trkpt lat="37.90199342183769" lon="-119.41618423908949">
        <time>2005-06-30T19:22:13-07:00</time>
      </trkpt>
      <trkpt lat="37.901996690779924" lon="-119.41620443947613">
        <time>2005-06-30T19:22:21-07:00</time>
      </trkpt>
      <trkpt lat="37.90198671631515" lon="-119.41625883802772">
        <time>2005-06-30T19:22:23-07:00</time>
      </trkpt>
      <trkpt lat="37.902004821226" lon="-119.41629479639232">
        <time>2005-06-30T19:22:28-07:00</time>
      </trkpt>
      <trkpt lat="37.902016723528504" lon="-119.4162926170975">
        <time>2005-06-30T19:22:32-07:00</time>
      </trkpt>
      <trkpt lat="37.902028961107135" lon="-119.41628825850785">
        <time>2005-06-30T19:22:33-07:00</time>
      </trkpt>
      <trkpt lat="37.902063159272075" lon="-119.416293958202">
        <time>2005-06-30T19:22:34-07:00</time>
      </trkpt>
      <trkpt lat="37.90207413956523" lon="-119.41629270091653">
        <time>2005-06-30T19:22:38-07:00</time>
      </trkpt>
      <trkpt lat="37.90209433995187" lon="-119.4163061119616">
        <time>2005-06-30T19:22:39-07:00</time>
      </trkpt>
      <trkpt lat="37.90210431441665" lon="-119.41633184440434">
        <time>2005-06-30T19:22:43-07:00</time>
      </trkpt>
      <trkpt lat="37.90213733911514" lon="-119.41637115553021">
        <time>2005-06-30T19:22:45-07:00</time>
      </trkpt>
      <trkpt lat="37.90214614011347" lon="-119.41637199372053">
        <time>2005-06-30T19:22:49-07:00</time>
      </trkpt>
      <trkpt lat="37.90216843597591" lon="-119.41637333482504">
        <time>2005-06-30T19:22:50-07:00</time>
      </trkpt>
      <trkpt lat="37.90219056420028" lon="-119.41637258045375">
        <time>2005-06-30T19:22:53-07:00</time>
      </trkpt>
      <trkpt lat="37.902228282764554" lon="-119.41637123934925">
        <time>2005-06-30T19:22:56-07:00</time>
      </trkpt>
      <trkpt lat="37.902242531999946" lon="-119.41637685522437">
        <time>2005-06-30T19:23:00-07:00</time>
      </trkpt>
      <trkpt lat="37.90229600854218" lon="-119.41638230346143">
        <time>2005-06-30T19:23:01-07:00</time>
      </trkpt>
      <trkpt lat="37.90237907320261" lon="-119.41635087132454">
        <time>2005-06-30T19:23:06-07:00</time>
      </trkpt>
      <trkpt lat="37.90239382535219" lon="-119.4163285754621">
        <time>2005-06-30T19:23:13-07:00</time>
      </trkpt>
      <trkpt lat="37.90240757167339" lon="-119.41630334593356">
        <time>2005-06-30T19:23:17-07:00</time>
      </trkpt>
      <trkpt lat="37.902488289400935" lon="-119.41624165512621">
        <time>2005-06-30T19:23:20-07:00</time>
      </trkpt>
      <trkpt lat="37.90255987085402" lon="-119.41620904952288">
        <time>2005-06-30T19:23:28-07:00</time>
      </trkpt>
      <trkpt lat="37.90260538458824" lon="-119.41619329154491">
        <time>2005-06-30T19:23:35-07:00</time>
      </trkpt>
      <trkpt lat="37.90263069793582" lon="-119.41618633456528">
        <time>2005-06-30T19:23:40-07:00</time>
      </trkpt>
      <trkpt lat="37.902677804231644" lon="-119.41617837175727">
        <time>2005-06-30T19:23:42-07:00</time>
      </trkpt>
      <trkpt lat="37.90271426551044" lon="-119.4161649607122">
        <time>2005-06-30T19:23:46-07:00</time>
      </trkpt>
      <trkpt lat="37.90280663408339" lon="-119.41616202704608">
        <time>2005-06-30T19:23:49-07:00</time>
      </trkpt>
      <trkpt lat="37.90287318639457" lon="-119.41614761017263">
        <time>2005-06-30T19:23:56-07:00</time>
      </trkpt>
      <trkpt lat="37.902882155030966" lon="-119.4161424972117">
        <time>2005-06-30T19:24:02-07:00</time>
      </trkpt>
      <trkpt lat="37.90291643701494" lon="-119.41611223854125">
        <time>2005-06-30T19:24:03-07:00</time>
      </trkpt>
      <trkpt lat="37.90292926132679" lon="-119.41608717665076">
        <time>2005-06-30T19:24:06-07:00</time>
      </trkpt>
      <trkpt lat="37.90298600681126" lon="-119.41602129489183">
        <time>2005-06-30T19:24:08-07:00</time>
      </trkpt>
      <trkpt lat="37.90300243534148" lon="-119.41598248668015">
        <time>2005-06-30T19:24:16-07:00</time>
      </trkpt>
      <trkpt lat="37.90302255190909" lon="-119.41590319387615">
        <time>2005-06-30T19:24:19-07:00</time>
      </trkpt>
      <trkpt lat="37.90302791632712" lon="-119.41589095629752">
        <time>2005-06-30T19:24:25-07:00</time>
      </trkpt>
      <trkpt lat="37.90307141840458" lon="-119.41582683473825">
        <time>2005-06-30T19:24:26-07:00</time>
      </trkpt>
      <trkpt lat="37.90308306924999" lon="-119.41581107676029">
        <time>2005-06-30T19:24:31-07:00</time>
      </trkpt>
      <trkpt lat="37.903168397024274" lon="-119.41572474315763">
        <time>2005-06-30T19:24:32-07:00</time>
      </trkpt>
      <trkpt lat="37.903234949335456" lon="-119.41566196270287">
        <time>2005-06-30T19:24:39-07:00</time>
      </trkpt>
      <trkpt lat="37.903318013995886" lon="-119.4155637267977">
        <time>2005-06-30T19:24:46-07:00</time>
      </trkpt>
      <trkpt lat="37.903379034250975" lon="-119.41551628522575">
        <time>2005-06-30T19:24:54-07:00</time>
      </trkpt>
      <trkpt lat="37.9034208599478" lon="-119.41545216366649">
        <time>2005-06-30T19:25:01-07:00</time>
      </trkpt>
      <trkpt lat="37.90343049913645" lon="-119.41545258276165">
        <time>2005-06-30T19:25:07-07:00</time>
      </trkpt>
      <trkpt lat="37.90345807559788" lon="-119.41547856666148">
        <time>2005-06-30T19:25:08-07:00</time>
      </trkpt>
      <trkpt lat="37.90348883718252" lon="-119.41548351198435">
        <time>2005-06-30T19:25:11-07:00</time>
      </trkpt>
      <trkpt lat="37.90355094708502" lon="-119.41555970348418">
        <time>2005-06-30T19:25:13-07:00</time>
      </trkpt>
      <trkpt lat="37.90357659570873" lon="-119.4155949074775">
        <time>2005-06-30T19:25:21-07:00</time>
      </trkpt>
      <trkpt lat="37.90361330844462" lon="-119.4156327098608">
        <time>2005-06-30T19:25:24-07:00</time>
      </trkpt>
      <trkpt lat="37.9036745801568" lon="-119.41571191884577">
        <time>2005-06-30T19:25:28-07:00</time>
      </trkpt>
      <trkpt lat="37.90368824265897" lon="-119.41573689691722">
        <time>2005-06-30T19:25:35-07:00</time>
      </trkpt>
      <trkpt lat="37.90371456183493" lon="-119.41580194048584">
        <time>2005-06-30T19:25:37-07:00</time>
      </trkpt>
      <trkpt lat="37.90373752824962" lon="-119.41590503789485">
        <time>2005-06-30T19:25:41-07:00</time>
      </trkpt>
      <trkpt lat="37.90375471115112" lon="-119.41592205315828">
        <time>2005-06-30T19:25:48-07:00</time>
      </trkpt>
      <trkpt lat="37.90378077886999" lon="-119.41597754135728">
        <time>2005-06-30T19:25:50-07:00</time>
      </trkpt>
      <trkpt lat="37.90378790348768" lon="-119.41600788384676">
        <time>2005-06-30T19:25:54-07:00</time>
      </trkpt>
      <trkpt lat="37.90380584076047" lon="-119.41609933041036">
        <time>2005-06-30T19:25:56-07:00</time>
      </trkpt>
      <trkpt lat="37.903855461627245" lon="-119.41615850664675">
        <time>2005-06-30T19:26:02-07:00</time>
      </trkpt>
      <trkpt lat="37.90388697758317" lon="-119.41617200151086">
        <time>2005-06-30T19:26:09-07:00</time>
      </trkpt>
      <trkpt lat="37.90392125956714" lon="-119.41618147306144">
        <time>2005-06-30T19:26:12-07:00</time>
      </trkpt>
      <trkpt lat="37.90402041748166" lon="-119.416151214391">
        <time>2005-06-30T19:26:15-07:00</time>
      </trkpt>
      <trkpt lat="37.90406291373074" lon="-119.41612523049116">
        <time>2005-06-30T19:26:23-07:00</time>
      </trkpt>
      <trkpt lat="37.904099794104695" lon="-119.41614073701203">
        <time>2005-06-30T19:26:27-07:00</time>
      </trkpt>
      <trkpt lat="37.90412594564259" lon="-119.41617719829082">
        <time>2005-06-30T19:26:31-07:00</time>
      </trkpt>
      <trkpt lat="37.9041600599885" lon="-119.41621558740735">
        <time>2005-06-30T19:26:34-07:00</time>
      </trkpt>
      <trkpt lat="37.904207250103354" lon="-119.41628448665142">
        <time>2005-06-30T19:26:38-07:00</time>
      </trkpt>
      <trkpt lat="37.90423147380352" lon="-119.41629781387746">
        <time>2005-06-30T19:26:45-07:00</time>
      </trkpt>
      <trkpt lat="37.90424186736345" lon="-119.41629538312554">
        <time>2005-06-30T19:26:48-07:00</time>
      </trkpt>
      <trkpt lat="37.904306408017874" lon="-119.4163042679429">
        <time>2005-06-30T19:26:49-07:00</time>
      </trkpt>
      <trkpt lat="37.904348988085985" lon="-119.41634743474424">
        <time>2005-06-30T19:26:55-07:00</time>
      </trkpt>
      <trkpt lat="37.904404727742076" lon="-119.41640409640968">
        <time>2005-06-30T19:26:59-07:00</time>
      </trkpt>
      <trkpt lat="37.90440606884658" lon="-119.41641775891185">
        <time>2005-06-30T19:27:04-07:00</time>
      </trkpt>
      <trkpt lat="37.90444026701152" lon="-119.41648523323238">
        <time>2005-06-30T19:27:05-07:00</time>
      </trkpt>
      <trkpt lat="37.90446650236845" lon="-119.41651498898864">
        <time>2005-06-30T19:27:10-07:00</time>
      </trkpt>
      <trkpt lat="37.90450036525726" lon="-119.41656611859798">
        <time>2005-06-30T19:27:13-07:00</time>
      </trkpt>
      <trkpt lat="37.90453766472638" lon="-119.41666762344539">
        <time>2005-06-30T19:27:18-07:00</time>
      </trkpt>
      <trkpt lat="37.90457052178681" lon="-119.4166795257479">
        <time>2005-06-30T19:27:26-07:00</time>
      </trkpt>
      <trkpt lat="37.904610419645905" lon="-119.41668103449047">
        <time>2005-06-30T19:27:29-07:00</time>
      </trkpt>
      <trkpt lat="37.904676301404834" lon="-119.41676787100732">
        <time>2005-06-30T19:27:32-07:00</time>
      </trkpt>
      <trkpt lat="37.904735980555415" lon="-119.41680978052318">
        <time>2005-06-30T19:27:41-07:00</time>
      </trkpt>
      <trkpt lat="37.904818123206496" lon="-119.41682159900665">
        <time>2005-06-30T19:27:47-07:00</time>
      </trkpt>
      <trkpt lat="37.90489976294339" lon="-119.41682947799563">
        <time>2005-06-30T19:27:55-07:00</time>
      </trkpt>
      <trkpt lat="37.90493940934539" lon="-119.41682528704405">
        <time>2005-06-30T19:28:01-07:00</time>
      </trkpt>
      <trkpt lat="37.904994478449225" lon="-119.41681170836091">
        <time>2005-06-30T19:28:04-07:00</time>
      </trkpt>
      <trkpt lat="37.90502356365323" lon="-119.41679025068879">
        <time>2005-06-30T19:28:09-07:00</time>
      </trkpt>
      <trkpt lat="37.90508667938411" lon="-119.41673727706075">
        <time>2005-06-30T19:28:12-07:00</time>
      </trkpt>
      <trkpt lat="37.90510872378945" lon="-119.41672713495791">
        <time>2005-06-30T19:28:18-07:00</time>
      </trkpt>
      <trkpt lat="37.90519656613469" lon="-119.41674917936325">
        <time>2005-06-30T19:28:20-07:00</time>
      </trkpt>
      <trkpt lat="37.905238308012486" lon="-119.41680357791483">
        <time>2005-06-30T19:28:28-07:00</time>
      </trkpt>
      <trkpt lat="37.90524744428694" lon="-119.41683987155557">
        <time>2005-06-30T19:28:33-07:00</time>
      </trkpt>
      <trkpt lat="37.90527141653001" lon="-119.41687398590147">
        <time>2005-06-30T19:28:36-07:00</time>
      </trkpt>
      <trkpt lat="37.90527761913836" lon="-119.4169110339135">
        <time>2005-06-30T19:28:40-07:00</time>
      </trkpt>
      <trkpt lat="37.905267644673586" lon="-119.41693156957626">
        <time>2005-06-30T19:28:44-07:00</time>
      </trkpt>
      <trkpt lat="37.90524375624955" lon="-119.4169797655195">
        <time>2005-06-30T19:28:46-07:00</time>
      </trkpt>
      <trkpt lat="37.90518768131733" lon="-119.41707959398627">
        <time>2005-06-30T19:28:50-07:00</time>
      </trkpt>
      <trkpt lat="37.90513646788895" lon="-119.41718093119562">
        <time>2005-06-30T19:28:58-07:00</time>
      </trkpt>
      <trkpt lat="37.90509648621082" lon="-119.41728788428009">
        <time>2005-06-30T19:29:06-07:00</time>
      </trkpt>
      <trkpt lat="37.90506019257009" lon="-119.41742157563567">
        <time>2005-06-30T19:29:14-07:00</time>
      </trkpt>
      <trkpt lat="37.905027167871594" lon="-119.41752417013049">
        <time>2005-06-30T19:29:24-07:00</time>
      </trkpt>
      <trkpt lat="37.90498919785023" lon="-119.4176132697612">
        <time>2005-06-30T19:29:32-07:00</time>
      </trkpt>
      <trkpt lat="37.90492465719581" lon="-119.41770899109542">
        <time>2005-06-30T19:29:39-07:00</time>
      </trkpt>
      <trkpt lat="37.90487595833838" lon="-119.41782382316887">
        <time>2005-06-30T19:29:47-07:00</time>
      </trkpt>
      <trkpt lat="37.90483396500349" lon="-119.4179296027869">
        <time>2005-06-30T19:29:55-07:00</time>
      </trkpt>
      <trkpt lat="37.90482575073838" lon="-119.41794401966035">
        <time>2005-06-30T19:30:03-07:00</time>
      </trkpt>
      <trkpt lat="37.904756935313344" lon="-119.41798391751945">
        <time>2005-06-30T19:30:04-07:00</time>
      </trkpt>
      <trkpt lat="37.90468527004123" lon="-119.41804552450776">
        <time>2005-06-30T19:30:10-07:00</time>
      </trkpt>
      <trkpt lat="37.9046312905848" lon="-119.4181019347161">
        <time>2005-06-30T19:30:17-07:00</time>
      </trkpt>
      <trkpt lat="37.90462341159582" lon="-119.41820930689573">
        <time>2005-06-30T19:30:23-07:00</time>
      </trkpt>
      <trkpt lat="37.90464595891535" lon="-119.41822590306401">
        <time>2005-06-30T19:30:30-07:00</time>
      </trkpt>
      <trkpt lat="37.904705218970776" lon="-119.41822908818722">
        <time>2005-06-30T19:30:32-07:00</time>
      </trkpt>
      <trkpt lat="37.90479876101017" lon="-119.41828859969974">
        <time>2005-06-30T19:30:37-07:00</time>
      </trkpt>
      <trkpt lat="37.904819967225194" lon="-119.41831089556217">
        <time>2005-06-30T19:30:45-07:00</time>
      </trkpt>
      <trkpt lat="37.904854668304324" lon="-119.4183524698019">
        <time>2005-06-30T19:30:47-07:00</time>
      </trkpt>
      <trkpt lat="37.90488442406058" lon="-119.41840913146734">
        <time>2005-06-30T19:30:52-07:00</time>
      </trkpt>
      <trkpt lat="37.904907977208495" lon="-119.41845196299255">
        <time>2005-06-30T19:30:56-07:00</time>
      </trkpt>
      <trkpt lat="37.90497084148228" lon="-119.4185353629291">
        <time>2005-06-30T19:31:00-07:00</time>
      </trkpt>
      <trkpt lat="37.90500772185624" lon="-119.41855204291642">
        <time>2005-06-30T19:31:08-07:00</time>
      </trkpt>
      <trkpt lat="37.90506371296942" lon="-119.41855262964964">
        <time>2005-06-30T19:31:12-07:00</time>
      </trkpt>
      <trkpt lat="37.90512749925256" lon="-119.41855707205832">
        <time>2005-06-30T19:31:16-07:00</time>
      </trkpt>
      <trkpt lat="37.90513847954571" lon="-119.418566795066">
        <time>2005-06-30T19:31:22-07:00</time>
      </trkpt>
      <trkpt lat="37.90518818423152" lon="-119.41861616447568">
        <time>2005-06-30T19:31:23-07:00</time>
      </trkpt>
      <trkpt lat="37.90524384006858" lon="-119.41869704984128">
        <time>2005-06-30T19:31:27-07:00</time>
      </trkpt>
      <trkpt lat="37.90529773570597" lon="-119.41875966265798">
        <time>2005-06-30T19:31:35-07:00</time>
      </trkpt>
      <trkpt lat="37.90530402213335" lon="-119.41876745782793">
        <time>2005-06-30T19:31:41-07:00</time>
      </trkpt>
      <trkpt lat="37.90536303073168" lon="-119.41880199126899">
        <time>2005-06-30T19:31:42-07:00</time>
      </trkpt>
      <trkpt lat="37.90543503127992" lon="-119.41879888996482">
        <time>2005-06-30T19:31:48-07:00</time>
      </trkpt>
      <trkpt lat="37.90546956472099" lon="-119.41882319748402">
        <time>2005-06-30T19:31:54-07:00</time>
      </trkpt>
      <trkpt lat="37.90548171848059" lon="-119.41882202401757">
        <time>2005-06-30T19:31:58-07:00</time>
      </trkpt>
      <trkpt lat="37.905490938574076" lon="-119.41882202401757">
        <time>2005-06-30T19:31:59-07:00</time>
      </trkpt>
      <trkpt lat="37.905559837818146" lon="-119.41883317194879">
        <time>2005-06-30T19:32:00-07:00</time>
      </trkpt>
      <trkpt lat="37.90557182393968" lon="-119.41882780753076">
        <time>2005-06-30T19:32:06-07:00</time>
      </trkpt>
      <trkpt lat="37.90562982670963" lon="-119.41878547891974">
        <time>2005-06-30T19:32:07-07:00</time>
      </trkpt>
      <trkpt lat="37.905711214989424" lon="-119.41866846755147">
        <time>2005-06-30T19:32:12-07:00</time>
      </trkpt>
      <trkpt lat="37.90573367848992" lon="-119.41865941509604">
        <time>2005-06-30T19:32:21-07:00</time>
      </trkpt>
      <trkpt lat="37.905778186395764" lon="-119.41863846033812">
        <time>2005-06-30T19:32:23-07:00</time>
      </trkpt>
      <trkpt lat="37.90579444728792" lon="-119.41862999461591">
        <time>2005-06-30T19:32:28-07:00</time>
      </trkpt>
      <trkpt lat="37.90583987720311" lon="-119.41857928410172">
        <time>2005-06-30T19:32:30-07:00</time>
      </trkpt>
      <trkpt lat="37.905887151136994" lon="-119.41853066906333">
        <time>2005-06-30T19:32:36-07:00</time>
      </trkpt>
      <trkpt lat="37.90592931210995" lon="-119.41849999129772">
        <time>2005-06-30T19:32:42-07:00</time>
      </trkpt>
      <trkpt lat="37.90599058382213" lon="-119.4184679724276">
        <time>2005-06-30T19:32:48-07:00</time>
      </trkpt>
      <trkpt lat="37.90601849555969" lon="-119.41845900379121">
        <time>2005-06-30T19:32:54-07:00</time>
      </trkpt>
      <trkpt lat="37.90605554357171" lon="-119.4184306729585">
        <time>2005-06-30T19:32:56-07:00</time>
      </trkpt>
      <trkpt lat="37.90608521550894" lon="-119.41839161328971">
        <time>2005-06-30T19:33:00-07:00</time>
      </trkpt>
      <trkpt lat="37.90609653107822" lon="-119.41837870515883">
        <time>2005-06-30T19:33:04-07:00</time>
      </trkpt>
      <trkpt lat="37.90614238008857" lon="-119.41834484227002">
        <time>2005-06-30T19:33:06-07:00</time>
      </trkpt>
      <trkpt lat="37.906175907701254" lon="-119.41829371266067">
        <time>2005-06-30T19:33:11-07:00</time>
      </trkpt>
      <trkpt lat="37.90616786107421" lon="-119.41830083727837">
        <time>2005-06-30T19:33:19-07:00</time>
      </trkpt>
      <trkpt lat="37.90615503676236" lon="-119.41832464188337">
        <time>2005-06-30T19:33:21-07:00</time>
      </trkpt>
      <trkpt lat="37.906150510534644" lon="-119.4183667190373">
        <time>2005-06-30T19:33:23-07:00</time>
      </trkpt>
      <trkpt lat="37.906156461685896" lon="-119.41837979480624">
        <time>2005-06-30T19:33:26-07:00</time>
      </trkpt>
      <trkpt lat="37.90616358630359" lon="-119.41838490776718">
        <time>2005-06-30T19:33:28-07:00</time>
      </trkpt>
      <trkpt lat="37.906179428100586" lon="-119.41838507540524">
        <time>2005-06-30T19:33:29-07:00</time>
      </trkpt>
      <trkpt lat="37.906198874115944" lon="-119.41836898215115">
        <time>2005-06-30T19:33:31-07:00</time>
      </trkpt>
      <trkpt lat="37.90624958463013" lon="-119.41834987141192">
        <time>2005-06-30T19:33:33-07:00</time>
      </trkpt>
      <trkpt lat="37.90625880472362" lon="-119.41834785975516">
        <time>2005-06-30T19:33:40-07:00</time>
      </trkpt>
      <trkpt lat="37.90629384107888" lon="-119.41833411343396">
        <time>2005-06-30T19:33:41-07:00</time>
      </trkpt>
      <trkpt lat="37.90629434399307" lon="-119.41833176650107">
        <time>2005-06-30T19:33:47-07:00</time>
      </trkpt>
      <trkpt lat="37.9062875546515" lon="-119.4183321017772">
        <time>2005-06-30T19:33:48-07:00</time>
      </trkpt>
      <trkpt lat="37.90632569231093" lon="-119.41834316588938">
        <time>2005-06-30T19:34:02-07:00</time>
      </trkpt>
      <trkpt lat="37.90633072145283" lon="-119.41834668628871">
        <time>2005-06-30T19:34:07-07:00</time>
      </trkpt>
      <trkpt lat="37.90634195320308" lon="-119.41835490055382">
        <time>2005-06-30T19:34:08-07:00</time>
      </trkpt>
      <trkpt lat="37.90638629347086" lon="-119.41838054917753">
        <time>2005-06-30T19:34:09-07:00</time>
      </trkpt>
      <trkpt lat="37.90640389546752" lon="-119.41839748062193">
        <time>2005-06-30T19:34:14-07:00</time>
      </trkpt>
      <trkpt lat="37.90643356740475" lon="-119.41842120140791">
        <time>2005-06-30T19:34:17-07:00</time>
      </trkpt>
      <trkpt lat="37.90644446387887" lon="-119.41842371597886">
        <time>2005-06-30T19:34:22-07:00</time>
      </trkpt>
      <trkpt lat="37.90650020353496" lon="-119.41842296160758">
        <time>2005-06-30T19:34:23-07:00</time>
      </trkpt>
      <trkpt lat="37.90652325376868" lon="-119.41841650754213">
        <time>2005-06-30T19:34:28-07:00</time>
      </trkpt>
      <trkpt lat="37.90657019242644" lon="-119.41840720362961">
        <time>2005-06-30T19:34:31-07:00</time>
      </trkpt>
      <trkpt lat="37.906582932919264" lon="-119.41838423721492">
        <time>2005-06-30T19:34:35-07:00</time>
      </trkpt>
      <trkpt lat="37.906581591814756" lon="-119.41837375983596">
        <time>2005-06-30T19:34:38-07:00</time>
      </trkpt>
      <trkpt lat="37.906573209911585" lon="-119.41836026497185">
        <time>2005-06-30T19:34:39-07:00</time>
      </trkpt>
      <trkpt lat="37.90655015967786" lon="-119.41830737516284">
        <time>2005-06-30T19:34:41-07:00</time>
      </trkpt>
      <trkpt lat="37.90654119104147" lon="-119.41829874180257">
        <time>2005-06-30T19:34:46-07:00</time>
      </trkpt>
      <trkpt lat="37.90652761235833" lon="-119.4182610232383">
        <time>2005-06-30T19:34:47-07:00</time>
      </trkpt>
      <trkpt lat="37.906539011746645" lon="-119.41826093941927">
        <time>2005-06-30T19:34:51-07:00</time>
      </trkpt>
      <trkpt lat="37.90654672309756" lon="-119.41826697438955">
        <time>2005-06-30T19:34:53-07:00</time>
      </trkpt>
      <trkpt lat="37.90657002478838" lon="-119.41828256472945">
        <time>2005-06-30T19:34:54-07:00</time>
      </trkpt>
      <trkpt lat="37.90660623461008" lon="-119.41830293275416">
        <time>2005-06-30T19:34:57-07:00</time>
      </trkpt>
      <trkpt lat="37.906646467745304" lon="-119.41830955445766">
        <time>2005-06-30T19:35:01-07:00</time>
      </trkpt>
      <trkpt lat="37.906677816063166" lon="-119.41830703988671">
        <time>2005-06-30T19:35:05-07:00</time>
      </trkpt>
      <trkpt lat="37.90670153684914" lon="-119.41830469295382">
        <time>2005-06-30T19:35:08-07:00</time>
      </trkpt>
      <trkpt lat="37.90675115771592" lon="-119.41831206902862">
        <time>2005-06-30T19:35:11-07:00</time>
      </trkpt>
      <trkpt lat="37.906767167150974" lon="-119.41830930300057">
        <time>2005-06-30T19:35:16-07:00</time>
      </trkpt>
      <trkpt lat="37.90679583325982" lon="-119.41830812953413">
        <time>2005-06-30T19:35:18-07:00</time>
      </trkpt>
      <trkpt lat="37.90680354461074" lon="-119.41830511204898">
        <time>2005-06-30T19:35:22-07:00</time>
      </trkpt>
      <trkpt lat="37.906803376972675" lon="-119.41829949617386">
        <time>2005-06-30T19:35:23-07:00</time>
      </trkpt>
      <trkpt lat="37.90679055266082" lon="-119.41828147508204">
        <time>2005-06-30T19:35:25-07:00</time>
      </trkpt>
      <trkpt lat="37.90678418241441" lon="-119.41827367991209">
        <time>2005-06-30T19:35:28-07:00</time>
      </trkpt>
      <trkpt lat="37.906793151050806" lon="-119.41823068074882">
        <time>2005-06-30T19:35:29-07:00</time>
      </trkpt>
      <trkpt lat="37.90680605918169" lon="-119.41822950728238">
        <time>2005-06-30T19:35:34-07:00</time>
      </trkpt>
      <trkpt lat="37.9068314563483" lon="-119.41823805682361">
        <time>2005-06-30T19:35:36-07:00</time>
      </trkpt>
      <trkpt lat="37.906866827979684" lon="-119.41826806403697">
        <time>2005-06-30T19:35:39-07:00</time>
      </trkpt>
      <trkpt lat="37.90689457207918" lon="-119.4182922039181">
        <time>2005-06-30T19:35:43-07:00</time>
      </trkpt>
      <trkpt lat="37.90692709386349" lon="-119.41831022500992">
        <time>2005-06-30T19:35:46-07:00</time>
      </trkpt>
      <trkpt lat="37.90698442608118" lon="-119.41836085170507">
        <time>2005-06-30T19:35:50-07:00</time>
      </trkpt>
      <trkpt lat="37.90704293176532" lon="-119.41839454695582">
        <time>2005-06-30T19:35:56-07:00</time>
      </trkpt>
      <trkpt lat="37.90705542080104" lon="-119.41839538514614">
        <time>2005-06-30T19:36:03-07:00</time>
      </trkpt>
      <trkpt lat="37.90708266198635" lon="-119.41839454695582">
        <time>2005-06-30T19:36:04-07:00</time>
      </trkpt>
      <trkpt lat="37.90710856206715" lon="-119.41838876344264">
        <time>2005-06-30T19:36:07-07:00</time>
      </trkpt>
      <trkpt lat="37.907116608694196" lon="-119.41839781589806">
        <time>2005-06-30T19:36:10-07:00</time>
      </trkpt>
      <trkpt lat="37.90712088346481" lon="-119.41841281950474">
        <time>2005-06-30T19:36:11-07:00</time>
      </trkpt>
      <trkpt lat="37.907121889293194" lon="-119.41849001683295">
        <time>2005-06-30T19:36:12-07:00</time>
      </trkpt>
      <trkpt lat="37.90711392648518" lon="-119.41849831491709">
        <time>2005-06-30T19:36:17-07:00</time>
      </trkpt>
      <trkpt lat="37.90709054097533" lon="-119.41855070181191">
        <time>2005-06-30T19:36:18-07:00</time>
      </trkpt>
      <trkpt lat="37.90708811022341" lon="-119.41856754943728">
        <time>2005-06-30T19:36:23-07:00</time>
      </trkpt>
      <trkpt lat="37.90709816850722" lon="-119.41860585473478">
        <time>2005-06-30T19:36:24-07:00</time>
      </trkpt>
    </trkseg>
  </trk>
</gpx>
