<?xml version="1.0" encoding="UTF-8"?>
<gpx version="1.1" creator="GarminFitSummaryExtractor" xmlns="http://www.topografix.com/GPX/1/1" xmlns:xsi="http://www.w3.org/2001/XMLSchema-instance" xsi:schemaLocation="http://www.topografix.com/GPX/1/1 http://www.topografix.com/GPX/1/1/gpx.xsd">
  <metadata>
    <name>2025-05-31-18-23-11</name>
    <time>2005-06-01T18:23:11-07:00</time>
  </metadata>
  <trk>
    <name>2025-05-31-18-23-11</name>
    <type>HIKING</type>
    <trkseg>
      <trkpt lat="35.11393471620977" lon="-118.25752786360681">
        <time>2005-06-01T18:23:11-07:00</time>
      </trkpt>
      <trkpt lat="35.11394402012229" lon="-118.25752962380648">
        <time>2005-06-01T18:23:12-07:00</time>
      </trkpt>
      <trkpt lat="35.114002861082554" lon="-118.25753188692033">
        <time>2005-06-01T18:23:17-07:00</time>
      </trkpt>
      <trkpt lat="35.11407385580242" lon="-118.2575354911387">
        <time>2005-06-01T18:23:23-07:00</time>
      </trkpt>
      <trkpt lat="35.11410662904382" lon="-118.25759642757475">
        <time>2005-06-01T18:23:29-07:00</time>
      </trkpt>
      <trkpt lat="35.11413311585784" lon="-118.25766088441014">
        <time>2005-06-01T18:23:35-07:00</time>
      </trkpt>
      <trkpt lat="35.114139234647155" lon="-118.25767613947392">
        <time>2005-06-01T18:23:37-07:00</time>
      </trkpt>
      <trkpt lat="35.11413613334298" lon="-118.2576927356422">
        <time>2005-06-01T18:23:39-07:00</time>
      </trkpt>
      <trkpt lat="35.11411928571761" lon="-118.25772718526423">
        <time>2005-06-01T18:23:43-07:00</time>
      </trkpt>
      <trkpt lat="35.11411467567086" lon="-118.25773481279612">
        <time>2005-06-01T18:23:44-07:00</time>
      </trkpt>
      <trkpt lat="35.11409095488489" lon="-118.2577577792108">
        <time>2005-06-01T18:23:47-07:00</time>
      </trkpt>
      <trkpt lat="35.1140730176121" lon="-118.25776917859912">
        <time>2005-06-01T18:23:49-07:00</time>
      </trkpt>
      <trkpt lat="35.114051811397076" lon="-118.25778594240546">
        <time>2005-06-01T18:23:51-07:00</time>
      </trkpt>
      <trkpt lat="35.11403303593397" lon="-118.25780010782182">
        <time>2005-06-01T18:23:53-07:00</time>
      </trkpt>
      <trkpt lat="35.11398266069591" lon="-118.25784612447023">
        <time>2005-06-01T18:24:00-07:00</time>
      </trkpt>
      <trkpt lat="35.11396304704249" lon="-118.25786330737174">
        <time>2005-06-01T18:24:03-07:00</time>
      </trkpt>
      <trkpt lat="35.113914432004094" lon="-118.25789591297507">
        <time>2005-06-01T18:24:09-07:00</time>
      </trkpt>
      <trkpt lat="35.11386942118406" lon="-118.25793338008225">
        <time>2005-06-01T18:24:14-07:00</time>
      </trkpt>
      <trkpt lat="35.113847963511944" lon="-118.25795014388859">
        <time>2005-06-01T18:24:16-07:00</time>
      </trkpt>
      <trkpt lat="35.113808903843164" lon="-118.25799892656505">
        <time>2005-06-01T18:24:22-07:00</time>
      </trkpt>
      <trkpt lat="35.113792307674885" lon="-118.25801242142916">
        <time>2005-06-01T18:24:24-07:00</time>
      </trkpt>
      <trkpt lat="35.11373438872397" lon="-118.25805843807757">
        <time>2005-06-01T18:24:30-07:00</time>
      </trkpt>
      <trkpt lat="35.11369859799743" lon="-118.25808073394">
        <time>2005-06-01T18:24:33-07:00</time>
      </trkpt>
      <trkpt lat="35.113654006272554" lon="-118.258107136935">
        <time>2005-06-01T18:24:37-07:00</time>
      </trkpt>
      <trkpt lat="35.11362676508725" lon="-118.25812113471329">
        <time>2005-06-01T18:24:40-07:00</time>
      </trkpt>
      <trkpt lat="35.11359214782715" lon="-118.25815784744918">
        <time>2005-06-01T18:24:45-07:00</time>
      </trkpt>
      <trkpt lat="35.11357806622982" lon="-118.25817293487489">
        <time>2005-06-01T18:24:47-07:00</time>
      </trkpt>
      <trkpt lat="35.11355769820511" lon="-118.25822138227522">
        <time>2005-06-01T18:24:51-07:00</time>
      </trkpt>
      <trkpt lat="35.11354956775904" lon="-118.25824451632798">
        <time>2005-06-01T18:24:53-07:00</time>
      </trkpt>
      <trkpt lat="35.11349005624652" lon="-118.25831844471395">
        <time>2005-06-01T18:25:00-07:00</time>
      </trkpt>
      <trkpt lat="35.113436579704285" lon="-118.25838818214834">
        <time>2005-06-01T18:25:07-07:00</time>
      </trkpt>
      <trkpt lat="35.11342987418175" lon="-118.25839974917471">
        <time>2005-06-01T18:25:08-07:00</time>
      </trkpt>
      <trkpt lat="35.113407829776406" lon="-118.2584937941283">
        <time>2005-06-01T18:25:15-07:00</time>
      </trkpt>
      <trkpt lat="35.113430544734" lon="-118.25858247466385">
        <time>2005-06-01T18:25:23-07:00</time>
      </trkpt>
      <trkpt lat="35.11345183476806" lon="-118.25867744162679">
        <time>2005-06-01T18:25:30-07:00</time>
      </trkpt>
      <trkpt lat="35.11345736682415" lon="-118.2586994022131">
        <time>2005-06-01T18:25:32-07:00</time>
      </trkpt>
      <trkpt lat="35.113467844203115" lon="-118.25875346548855">
        <time>2005-06-01T18:25:37-07:00</time>
      </trkpt>
      <trkpt lat="35.11349558830261" lon="-118.25880660675466">
        <time>2005-06-01T18:25:41-07:00</time>
      </trkpt>
      <trkpt lat="35.113507490605116" lon="-118.25884415768087">
        <time>2005-06-01T18:25:44-07:00</time>
      </trkpt>
      <trkpt lat="35.1135462988168" lon="-118.25892445631325">
        <time>2005-06-01T18:25:50-07:00</time>
      </trkpt>
      <trkpt lat="35.11356633156538" lon="-118.25897642411292">
        <time>2005-06-01T18:25:54-07:00</time>
      </trkpt>
      <trkpt lat="35.113575300201774" lon="-118.25900534167886">
        <time>2005-06-01T18:25:56-07:00</time>
      </trkpt>
      <trkpt lat="35.113599859178066" lon="-118.25907222926617">
        <time>2005-06-01T18:26:01-07:00</time>
      </trkpt>
      <trkpt lat="35.11360874399543" lon="-118.25909972190857">
        <time>2005-06-01T18:26:03-07:00</time>
      </trkpt>
      <trkpt lat="35.11362919583917" lon="-118.25915965251625">
        <time>2005-06-01T18:26:07-07:00</time>
      </trkpt>
      <trkpt lat="35.113644702360034" lon="-118.25922100804746">
        <time>2005-06-01T18:26:11-07:00</time>
      </trkpt>
      <trkpt lat="35.11367621831596" lon="-118.2593379355967">
        <time>2005-06-01T18:26:19-07:00</time>
      </trkpt>
      <trkpt lat="35.11368007399142" lon="-118.25934941880405">
        <time>2005-06-01T18:26:20-07:00</time>
      </trkpt>
      <trkpt lat="35.11372181586921" lon="-118.25944086536765">
        <time>2005-06-01T18:26:28-07:00</time>
      </trkpt>
      <trkpt lat="35.113726342096925" lon="-118.25945503078401">
        <time>2005-06-01T18:26:29-07:00</time>
      </trkpt>
      <trkpt lat="35.11375492438674" lon="-118.2595506682992">
        <time>2005-06-01T18:26:36-07:00</time>
      </trkpt>
      <trkpt lat="35.11376188136637" lon="-118.25957396999002">
        <time>2005-06-01T18:26:38-07:00</time>
      </trkpt>
      <trkpt lat="35.1137862727046" lon="-118.2596680149436">
        <time>2005-06-01T18:26:46-07:00</time>
      </trkpt>
      <trkpt lat="35.113794319331646" lon="-118.25970313511789">
        <time>2005-06-01T18:26:49-07:00</time>
      </trkpt>
      <trkpt lat="35.113805551081896" lon="-118.25975342653692">
        <time>2005-06-01T18:26:53-07:00</time>
      </trkpt>
      <trkpt lat="35.11380806565285" lon="-118.25980472378433">
        <time>2005-06-01T18:26:57-07:00</time>
      </trkpt>
      <trkpt lat="35.113803120329976" lon="-118.25983699411154">
        <time>2005-06-01T18:27:00-07:00</time>
      </trkpt>
      <trkpt lat="35.113790296018124" lon="-118.25991067104042">
        <time>2005-06-01T18:27:06-07:00</time>
      </trkpt>
      <trkpt lat="35.1137862727046" lon="-118.25993992388248">
        <time>2005-06-01T18:27:08-07:00</time>
      </trkpt>
      <trkpt lat="35.11376271955669" lon="-118.26003623194993">
        <time>2005-06-01T18:27:17-07:00</time>
      </trkpt>
      <trkpt lat="35.113741932436824" lon="-118.26009348034859">
        <time>2005-06-01T18:27:23-07:00</time>
      </trkpt>
      <trkpt lat="35.113736148923635" lon="-118.26012474484742">
        <time>2005-06-01T18:27:25-07:00</time>
      </trkpt>
      <trkpt lat="35.11372894048691" lon="-118.26015802100301">
        <time>2005-06-01T18:27:28-07:00</time>
      </trkpt>
      <trkpt lat="35.113723911345005" lon="-118.26020194217563">
        <time>2005-06-01T18:27:31-07:00</time>
      </trkpt>
      <trkpt lat="35.11372064240277" lon="-118.26022608205676">
        <time>2005-06-01T18:27:33-07:00</time>
      </trkpt>
      <trkpt lat="35.113717122003436" lon="-118.26025055721402">
        <time>2005-06-01T18:27:35-07:00</time>
      </trkpt>
      <trkpt lat="35.11371276341379" lon="-118.26028240844607">
        <time>2005-06-01T18:27:37-07:00</time>
      </trkpt>
      <trkpt lat="35.113708823919296" lon="-118.2603361364454">
        <time>2005-06-01T18:27:41-07:00</time>
      </trkpt>
      <trkpt lat="35.11369767598808" lon="-118.26037561520934">
        <time>2005-06-01T18:27:44-07:00</time>
      </trkpt>
      <trkpt lat="35.113681918010116" lon="-118.26046840287745">
        <time>2005-06-01T18:27:50-07:00</time>
      </trkpt>
      <trkpt lat="35.11366926133633" lon="-118.26050201430917">
        <time>2005-06-01T18:27:53-07:00</time>
      </trkpt>
      <trkpt lat="35.113657945767045" lon="-118.26053688302636">
        <time>2005-06-01T18:27:56-07:00</time>
      </trkpt>
      <trkpt lat="35.11365610174835" lon="-118.26054719276726">
        <time>2005-06-01T18:27:57-07:00</time>
      </trkpt>
      <trkpt lat="35.113650653511286" lon="-118.26059740036726">
        <time>2005-06-01T18:28:02-07:00</time>
      </trkpt>
      <trkpt lat="35.11364931240678" lon="-118.2606453448534">
        <time>2005-06-01T18:28:06-07:00</time>
      </trkpt>
      <trkpt lat="35.113651659339666" lon="-118.26068541035056">
        <time>2005-06-01T18:28:09-07:00</time>
      </trkpt>
      <trkpt lat="35.11366590857506" lon="-118.26076813973486">
        <time>2005-06-01T18:28:16-07:00</time>
      </trkpt>
      <trkpt lat="35.11366926133633" lon="-118.26077979058027">
        <time>2005-06-01T18:28:17-07:00</time>
      </trkpt>
      <trkpt lat="35.11367864906788" lon="-118.2608110550791">
        <time>2005-06-01T18:28:20-07:00</time>
      </trkpt>
      <trkpt lat="35.11369080282748" lon="-118.26084785163403">
        <time>2005-06-01T18:28:23-07:00</time>
      </trkpt>
      <trkpt lat="35.113698514178395" lon="-118.26087165623903">
        <time>2005-06-01T18:28:25-07:00</time>
      </trkpt>
      <trkpt lat="35.1137172896415" lon="-118.2609268091619">
        <time>2005-06-01T18:28:30-07:00</time>
      </trkpt>
      <trkpt lat="35.113737070932984" lon="-118.26101414859295">
        <time>2005-06-01T18:28:36-07:00</time>
      </trkpt>
      <trkpt lat="35.11374067515135" lon="-118.26102948747575">
        <time>2005-06-01T18:28:37-07:00</time>
      </trkpt>
      <trkpt lat="35.11373405344784" lon="-118.2610441558063">
        <time>2005-06-01T18:28:42-07:00</time>
      </trkpt>
      <trkpt lat="35.11373044922948" lon="-118.26104516163468">
        <time>2005-06-01T18:28:51-07:00</time>
      </trkpt>
      <trkpt lat="35.11373061686754" lon="-118.26104457490146">
        <time>2005-06-01T18:28:52-07:00</time>
      </trkpt>
      <trkpt lat="35.11372952722013" lon="-118.26104390434921">
        <time>2005-06-01T18:28:54-07:00</time>
      </trkpt>
      <trkpt lat="35.11373111978173" lon="-118.26104264706373">
        <time>2005-06-01T18:29:00-07:00</time>
      </trkpt>
      <trkpt lat="35.11373095214367" lon="-118.26103535480797">
        <time>2005-06-01T18:29:02-07:00</time>
      </trkpt>
      <trkpt lat="35.11373874731362" lon="-118.26108346693218">
        <time>2005-06-01T18:29:09-07:00</time>
      </trkpt>
      <trkpt lat="35.11374335736036" lon="-118.26113275252283">
        <time>2005-06-01T18:29:13-07:00</time>
      </trkpt>
      <trkpt lat="35.11375559493899" lon="-118.26116284355521">
        <time>2005-06-01T18:29:16-07:00</time>
      </trkpt>
      <trkpt lat="35.11376431211829" lon="-118.26116275973618">
        <time>2005-06-01T18:29:17-07:00</time>
      </trkpt>
      <trkpt lat="35.113771269097924" lon="-118.26115882024169">
        <time>2005-06-01T18:29:21-07:00</time>
      </trkpt>
      <trkpt lat="35.11377286165953" lon="-118.26115697622299">
        <time>2005-06-01T18:29:28-07:00</time>
      </trkpt>
      <trkpt lat="35.113774789497256" lon="-118.26115630567074">
        <time>2005-06-01T18:29:29-07:00</time>
      </trkpt>
      <trkpt lat="35.11377981863916" lon="-118.26114197261631">
        <time>2005-06-01T18:29:33-07:00</time>
      </trkpt>
      <trkpt lat="35.113779148086905" lon="-118.26114448718727">
        <time>2005-06-01T18:29:36-07:00</time>
      </trkpt>
      <trkpt lat="35.11379440315068" lon="-118.2611390389502">
        <time>2005-06-01T18:29:41-07:00</time>
      </trkpt>
      <trkpt lat="35.113803623244166" lon="-118.26111389324069">
        <time>2005-06-01T18:29:44-07:00</time>
      </trkpt>
      <trkpt lat="35.11382684111595" lon="-118.26108681969345">
        <time>2005-06-01T18:29:47-07:00</time>
      </trkpt>
      <trkpt lat="35.113904206082225" lon="-118.2609891705215">
        <time>2005-06-01T18:29:57-07:00</time>
      </trkpt>
      <trkpt lat="35.11391325853765" lon="-118.26098196208477">
        <time>2005-06-01T18:29:58-07:00</time>
      </trkpt>
      <trkpt lat="35.11395089328289" lon="-118.26093125157058">
        <time>2005-06-01T18:30:04-07:00</time>
      </trkpt>
      <trkpt lat="35.11396690271795" lon="-118.26090317219496">
        <time>2005-06-01T18:30:07-07:00</time>
      </trkpt>
      <trkpt lat="35.113975536078215" lon="-118.26088464818895">
        <time>2005-06-01T18:30:09-07:00</time>
      </trkpt>
      <trkpt lat="35.11398945003748" lon="-118.26085916720331">
        <time>2005-06-01T18:30:12-07:00</time>
      </trkpt>
      <trkpt lat="35.11400252580643" lon="-118.26083100400865">
        <time>2005-06-01T18:30:15-07:00</time>
      </trkpt>
      <trkpt lat="35.11400998570025" lon="-118.26081826351583">
        <time>2005-06-01T18:30:17-07:00</time>
      </trkpt>
      <trkpt lat="35.114044435322285" lon="-118.2607700675726">
        <time>2005-06-01T18:30:22-07:00</time>
      </trkpt>
      <trkpt lat="35.114059103652835" lon="-118.26075523160398">
        <time>2005-06-01T18:30:24-07:00</time>
      </trkpt>
      <trkpt lat="35.11409372091293" lon="-118.26071508228779">
        <time>2005-06-01T18:30:29-07:00</time>
      </trkpt>
      <trkpt lat="35.11409975588322" lon="-118.26070762239397">
        <time>2005-06-01T18:30:30-07:00</time>
      </trkpt>
      <trkpt lat="35.114117274060845" lon="-118.26068348251283">
        <time>2005-06-01T18:30:33-07:00</time>
      </trkpt>
      <trkpt lat="35.114131858572364" lon="-118.26065523549914">
        <time>2005-06-01T18:30:37-07:00</time>
      </trkpt>
      <trkpt lat="35.11414518579841" lon="-118.26064257882535">
        <time>2005-06-01T18:30:39-07:00</time>
      </trkpt>
      <trkpt lat="35.114174438640475" lon="-118.26062045060098">
        <time>2005-06-01T18:30:43-07:00</time>
      </trkpt>
      <trkpt lat="35.114206708967686" lon="-118.26058926992118">
        <time>2005-06-01T18:30:47-07:00</time>
      </trkpt>
      <trkpt lat="35.11421517468989" lon="-118.2605850789696">
        <time>2005-06-01T18:30:48-07:00</time>
      </trkpt>
      <trkpt lat="35.11426446028054" lon="-118.26055238954723">
        <time>2005-06-01T18:30:55-07:00</time>
      </trkpt>
      <trkpt lat="35.11427938006818" lon="-118.26054434292018">
        <time>2005-06-01T18:30:57-07:00</time>
      </trkpt>
      <trkpt lat="35.114354230463505" lon="-118.26050670817494">
        <time>2005-06-01T18:31:05-07:00</time>
      </trkpt>
      <trkpt lat="35.11438658460975" lon="-118.26048608869314">
        <time>2005-06-01T18:31:09-07:00</time>
      </trkpt>
      <trkpt lat="35.114456824958324" lon="-118.26043822802603">
        <time>2005-06-01T18:31:17-07:00</time>
      </trkpt>
      <trkpt lat="35.11447509750724" lon="-118.26044258661568">
        <time>2005-06-01T18:31:19-07:00</time>
      </trkpt>
      <trkpt lat="35.11449144221842" lon="-118.26045566238463">
        <time>2005-06-01T18:31:21-07:00</time>
      </trkpt>
      <trkpt lat="35.11449261568487" lon="-118.26046396046877">
        <time>2005-06-01T18:31:22-07:00</time>
      </trkpt>
      <trkpt lat="35.11448725126684" lon="-118.26047016307712">
        <time>2005-06-01T18:31:23-07:00</time>
      </trkpt>
      <trkpt lat="35.114476438611746" lon="-118.26048801653087">
        <time>2005-06-01T18:31:26-07:00</time>
      </trkpt>
      <trkpt lat="35.1144546456635" lon="-118.26051358133554">
        <time>2005-06-01T18:31:30-07:00</time>
      </trkpt>
      <trkpt lat="35.11444576084614" lon="-118.26052514836192">
        <time>2005-06-01T18:31:31-07:00</time>
      </trkpt>
      <trkpt lat="35.114397732540965" lon="-118.26059605926275">
        <time>2005-06-01T18:31:37-07:00</time>
      </trkpt>
      <trkpt lat="35.11438004672527" lon="-118.26063017360866">
        <time>2005-06-01T18:31:40-07:00</time>
      </trkpt>
      <trkpt lat="35.11436244472861" lon="-118.26067560352385">
        <time>2005-06-01T18:31:44-07:00</time>
      </trkpt>
      <trkpt lat="35.11433897539973" lon="-118.26073570176959">
        <time>2005-06-01T18:31:48-07:00</time>
      </trkpt>
      <trkpt lat="35.11432078666985" lon="-118.26078549027443">
        <time>2005-06-01T18:31:52-07:00</time>
      </trkpt>
      <trkpt lat="35.11430326849222" lon="-118.26082119718194">
        <time>2005-06-01T18:31:55-07:00</time>
      </trkpt>
      <trkpt lat="35.11428122408688" lon="-118.26087450608611">
        <time>2005-06-01T18:31:59-07:00</time>
      </trkpt>
      <trkpt lat="35.11426270008087" lon="-118.2609545532614">
        <time>2005-06-01T18:32:05-07:00</time>
      </trkpt>
      <trkpt lat="35.114256078377366" lon="-118.26102454215288">
        <time>2005-06-01T18:32:11-07:00</time>
      </trkpt>
      <trkpt lat="35.11425632983446" lon="-118.26104004867375">
        <time>2005-06-01T18:32:12-07:00</time>
      </trkpt>
      <trkpt lat="35.114253563806415" lon="-118.26105354353786">
        <time>2005-06-01T18:32:13-07:00</time>
      </trkpt>
      <trkpt lat="35.114234955981374" lon="-118.26113300397992">
        <time>2005-06-01T18:32:19-07:00</time>
      </trkpt>
      <trkpt lat="35.11423177085817" lon="-118.26115848496556">
        <time>2005-06-01T18:32:21-07:00</time>
      </trkpt>
      <trkpt lat="35.11424308642745" lon="-118.26123668812215">
        <time>2005-06-01T18:32:26-07:00</time>
      </trkpt>
      <trkpt lat="35.114259934052825" lon="-118.26124154962599">
        <time>2005-06-01T18:32:28-07:00</time>
      </trkpt>
      <trkpt lat="35.11426362209022" lon="-118.2612323295325">
        <time>2005-06-01T18:32:29-07:00</time>
      </trkpt>
      <trkpt lat="35.114270243793726" lon="-118.2612048368901">
        <time>2005-06-01T18:32:31-07:00</time>
      </trkpt>
      <trkpt lat="35.114276614040136" lon="-118.26118547469378">
        <time>2005-06-01T18:32:33-07:00</time>
      </trkpt>
      <trkpt lat="35.114312740042806" lon="-118.26114046387374">
        <time>2005-06-01T18:32:39-07:00</time>
      </trkpt>
      <trkpt lat="35.11434878222644" lon="-118.26110643334687">
        <time>2005-06-01T18:32:43-07:00</time>
      </trkpt>
      <trkpt lat="35.11436579748988" lon="-118.26109352521598">
        <time>2005-06-01T18:32:45-07:00</time>
      </trkpt>
      <trkpt lat="35.1143906917423" lon="-118.26106955297291">
        <time>2005-06-01T18:32:48-07:00</time>
      </trkpt>
      <trkpt lat="35.1144237164408" lon="-118.26104314997792">
        <time>2005-06-01T18:32:52-07:00</time>
      </trkpt>
      <trkpt lat="35.11446797288954" lon="-118.26097911223769">
        <time>2005-06-01T18:32:58-07:00</time>
      </trkpt>
      <trkpt lat="35.11447166092694" lon="-118.26097316108644">
        <time>2005-06-01T18:32:59-07:00</time>
      </trkpt>
      <trkpt lat="35.11450091376901" lon="-118.26092815026641">
        <time>2005-06-01T18:33:03-07:00</time>
      </trkpt>
      <trkpt lat="35.114533603191376" lon="-118.26088330708444">
        <time>2005-06-01T18:33:08-07:00</time>
      </trkpt>
      <trkpt lat="35.11455816216767" lon="-118.26085816137493">
        <time>2005-06-01T18:33:11-07:00</time>
      </trkpt>
      <trkpt lat="35.1146084535867" lon="-118.2608179282397">
        <time>2005-06-01T18:33:17-07:00</time>
      </trkpt>
      <trkpt lat="35.114617086946964" lon="-118.26080694794655">
        <time>2005-06-01T18:33:18-07:00</time>
      </trkpt>
      <trkpt lat="35.11466134339571" lon="-118.26076311059296">
        <time>2005-06-01T18:33:23-07:00</time>
      </trkpt>
      <trkpt lat="35.114701744169" lon="-118.2607299182564">
        <time>2005-06-01T18:33:27-07:00</time>
      </trkpt>
      <trkpt lat="35.114720184355974" lon="-118.26070661656559">
        <time>2005-06-01T18:33:29-07:00</time>
      </trkpt>
      <trkpt lat="35.1147931907326" lon="-118.26060947030783">
        <time>2005-06-01T18:33:39-07:00</time>
      </trkpt>
      <trkpt lat="35.11485781520605" lon="-118.26056320220232">
        <time>2005-06-01T18:33:46-07:00</time>
      </trkpt>
      <trkpt lat="35.11489134281874" lon="-118.26052716001868">
        <time>2005-06-01T18:33:51-07:00</time>
      </trkpt>
      <trkpt lat="35.11491288430989" lon="-118.26051291078329">
        <time>2005-06-01T18:33:54-07:00</time>
      </trkpt>
      <trkpt lat="35.11495068669319" lon="-118.26049882918596">
        <time>2005-06-01T18:33:58-07:00</time>
      </trkpt>
      <trkpt lat="35.114981699734926" lon="-118.2605005055666">
        <time>2005-06-01T18:34:01-07:00</time>
      </trkpt>
      <trkpt lat="35.11499988846481" lon="-118.26052280142903">
        <time>2005-06-01T18:34:04-07:00</time>
      </trkpt>
      <trkpt lat="35.11499645188451" lon="-118.26054777950048">
        <time>2005-06-01T18:34:06-07:00</time>
      </trkpt>
      <trkpt lat="35.11498832143843" lon="-118.26056999154389">
        <time>2005-06-01T18:34:08-07:00</time>
      </trkpt>
      <trkpt lat="35.11496719904244" lon="-118.26059924438596">
        <time>2005-06-01T18:34:12-07:00</time>
      </trkpt>
      <trkpt lat="35.11494758538902" lon="-118.26064274646342">
        <time>2005-06-01T18:34:16-07:00</time>
      </trkpt>
      <trkpt lat="35.11492311023176" lon="-118.26074835844338">
        <time>2005-06-01T18:34:23-07:00</time>
      </trkpt>
      <trkpt lat="35.11492336168885" lon="-118.26076420024037">
        <time>2005-06-01T18:34:24-07:00</time>
      </trkpt>
      <trkpt lat="35.114940041676164" lon="-118.2608078699559">
        <time>2005-06-01T18:34:29-07:00</time>
      </trkpt>
      <trkpt lat="35.1149573083967" lon="-118.2608113065362">
        <time>2005-06-01T18:34:31-07:00</time>
      </trkpt>
      <trkpt lat="35.11499687097967" lon="-118.2608387991786">
        <time>2005-06-01T18:34:37-07:00</time>
      </trkpt>
      <trkpt lat="35.115000391379" lon="-118.2608512043953">
        <time>2005-06-01T18:34:39-07:00</time>
      </trkpt>
      <trkpt lat="35.11500810272992" lon="-118.26092940755188">
        <time>2005-06-01T18:34:45-07:00</time>
      </trkpt>
      <trkpt lat="35.11501807719469" lon="-118.26099562458694">
        <time>2005-06-01T18:34:49-07:00</time>
      </trkpt>
      <trkpt lat="35.11501966975629" lon="-118.2610150706023">
        <time>2005-06-01T18:34:51-07:00</time>
      </trkpt>
      <trkpt lat="35.11500743217766" lon="-118.26108925044537">
        <time>2005-06-01T18:34:58-07:00</time>
      </trkpt>
      <trkpt lat="35.1150054205209" lon="-118.26111791655421">
        <time>2005-06-01T18:35:00-07:00</time>
      </trkpt>
      <trkpt lat="35.11499930173159" lon="-118.26117910444736">
        <time>2005-06-01T18:35:04-07:00</time>
      </trkpt>
      <trkpt lat="35.11499444022775" lon="-118.2612394541502">
        <time>2005-06-01T18:35:08-07:00</time>
      </trkpt>
      <trkpt lat="35.11497708968818" lon="-118.2612896617502">
        <time>2005-06-01T18:35:14-07:00</time>
      </trkpt>
      <trkpt lat="35.11497113853693" lon="-118.26131044887006">
        <time>2005-06-01T18:35:16-07:00</time>
      </trkpt>
      <trkpt lat="35.11495127342641" lon="-118.26136174611747">
        <time>2005-06-01T18:35:21-07:00</time>
      </trkpt>
      <trkpt lat="35.11493165977299" lon="-118.26141111552715">
        <time>2005-06-01T18:35:26-07:00</time>
      </trkpt>
      <trkpt lat="35.11490458622575" lon="-118.26144623570144">
        <time>2005-06-01T18:35:30-07:00</time>
      </trkpt>
      <trkpt lat="35.11489503085613" lon="-118.26145830564201">
        <time>2005-06-01T18:35:31-07:00</time>
      </trkpt>
      <trkpt lat="35.11485052295029" lon="-118.26154069975019">
        <time>2005-06-01T18:35:40-07:00</time>
      </trkpt>
      <trkpt lat="35.114843314513564" lon="-118.26156249269843">
        <time>2005-06-01T18:35:42-07:00</time>
      </trkpt>
      <trkpt lat="35.11480400338769" lon="-118.26165745966136">
        <time>2005-06-01T18:35:50-07:00</time>
      </trkpt>
      <trkpt lat="35.11477265506983" lon="-118.26172409579158">
        <time>2005-06-01T18:35:56-07:00</time>
      </trkpt>
      <trkpt lat="35.11476594954729" lon="-118.26174865476787">
        <time>2005-06-01T18:35:58-07:00</time>
      </trkpt>
      <trkpt lat="35.1147377025336" lon="-118.26186088845134">
        <time>2005-06-01T18:36:09-07:00</time>
      </trkpt>
      <trkpt lat="35.1146755926311" lon="-118.26192048378289">
        <time>2005-06-01T18:36:15-07:00</time>
      </trkpt>
      <trkpt lat="35.11466670781374" lon="-118.26193020679057">
        <time>2005-06-01T18:36:16-07:00</time>
      </trkpt>
      <trkpt lat="35.11464374139905" lon="-118.2619580347091">
        <time>2005-06-01T18:36:19-07:00</time>
      </trkpt>
      <trkpt lat="35.11461926624179" lon="-118.26198829337955">
        <time>2005-06-01T18:36:22-07:00</time>
      </trkpt>
      <trkpt lat="35.11459864675999" lon="-118.26201100833714">
        <time>2005-06-01T18:36:24-07:00</time>
      </trkpt>
      <trkpt lat="35.114536955952644" lon="-118.26210119761527">
        <time>2005-06-01T18:36:32-07:00</time>
      </trkpt>
      <trkpt lat="35.114541901275516" lon="-118.26213296502829">
        <time>2005-06-01T18:36:35-07:00</time>
      </trkpt>
      <trkpt lat="35.11456101201475" lon="-118.2621319591999">
        <time>2005-06-01T18:36:37-07:00</time>
      </trkpt>
      <trkpt lat="35.1145719923079" lon="-118.26212340965867">
        <time>2005-06-01T18:36:38-07:00</time>
      </trkpt>
      <trkpt lat="35.114608872681856" lon="-118.26209994032979">
        <time>2005-06-01T18:36:42-07:00</time>
      </trkpt>
      <trkpt lat="35.11462320573628" lon="-118.26208627782762">
        <time>2005-06-01T18:36:44-07:00</time>
      </trkpt>
      <trkpt lat="35.11465589515865" lon="-118.26205534860492">
        <time>2005-06-01T18:36:48-07:00</time>
      </trkpt>
      <trkpt lat="35.114683136343956" lon="-118.26204319484532">
        <time>2005-06-01T18:36:51-07:00</time>
      </trkpt>
      <trkpt lat="35.1147136464715" lon="-118.26204805634916">
        <time>2005-06-01T18:36:55-07:00</time>
      </trkpt>
      <trkpt lat="35.11475622653961" lon="-118.26203783042729">
        <time>2005-06-01T18:36:59-07:00</time>
      </trkpt>
      <trkpt lat="35.114799393340945" lon="-118.2619887124747">
        <time>2005-06-01T18:37:04-07:00</time>
      </trkpt>
      <trkpt lat="35.11481607332826" lon="-118.26197043992579">
        <time>2005-06-01T18:37:06-07:00</time>
      </trkpt>
      <trkpt lat="35.114891678094864" lon="-118.26191025786102">
        <time>2005-06-01T18:37:14-07:00</time>
      </trkpt>
      <trkpt lat="35.11493392288685" lon="-118.26185569167137">
        <time>2005-06-01T18:37:19-07:00</time>
      </trkpt>
      <trkpt lat="35.1149467471987" lon="-118.26184161007404">
        <time>2005-06-01T18:37:21-07:00</time>
      </trkpt>
      <trkpt lat="35.11498438194394" lon="-118.26178369112313">
        <time>2005-06-01T18:37:27-07:00</time>
      </trkpt>
      <trkpt lat="35.11499075219035" lon="-118.26177706941962">
        <time>2005-06-01T18:37:28-07:00</time>
      </trkpt>
      <trkpt lat="35.1150072645396" lon="-118.26179492287338">
        <time>2005-06-01T18:37:32-07:00</time>
      </trkpt>
      <trkpt lat="35.11499980464578" lon="-118.2618108484894">
        <time>2005-06-01T18:37:33-07:00</time>
      </trkpt>
      <trkpt lat="35.1149935182184" lon="-118.26183750294149">
        <time>2005-06-01T18:37:35-07:00</time>
      </trkpt>
      <trkpt lat="35.11499502696097" lon="-118.26190162450075">
        <time>2005-06-01T18:37:40-07:00</time>
      </trkpt>
      <trkpt lat="35.11497365310788" lon="-118.26199114322662">
        <time>2005-06-01T18:37:47-07:00</time>
      </trkpt>
      <trkpt lat="35.11491338722408" lon="-118.2620680052787">
        <time>2005-06-01T18:37:54-07:00</time>
      </trkpt>
      <trkpt lat="35.1148983836174" lon="-118.2620835956186">
        <time>2005-06-01T18:37:56-07:00</time>
      </trkpt>
      <trkpt lat="35.11485722847283" lon="-118.2621443644166">
        <time>2005-06-01T18:38:02-07:00</time>
      </trkpt>
      <trkpt lat="35.11483007110655" lon="-118.26218292117119">
        <time>2005-06-01T18:38:05-07:00</time>
      </trkpt>
      <trkpt lat="35.11479729786515" lon="-118.26222139410675">
        <time>2005-06-01T18:38:10-07:00</time>
      </trkpt>
      <trkpt lat="35.11478992179036" lon="-118.26223094947636">
        <time>2005-06-01T18:38:11-07:00</time>
      </trkpt>
      <trkpt lat="35.11475186794996" lon="-118.26230890117586">
        <time>2005-06-01T18:38:18-07:00</time>
      </trkpt>
      <trkpt lat="35.11476720683277" lon="-118.26231015846133">
        <time>2005-06-01T18:38:20-07:00</time>
      </trkpt>
      <trkpt lat="35.114785144105554" lon="-118.26229481957853">
        <time>2005-06-01T18:38:22-07:00</time>
      </trkpt>
      <trkpt lat="35.11479360982776" lon="-118.26228501275182">
        <time>2005-06-01T18:38:23-07:00</time>
      </trkpt>
      <trkpt lat="35.114826802164316" lon="-118.26225089840591">
        <time>2005-06-01T18:38:27-07:00</time>
      </trkpt>
      <trkpt lat="35.114851612597704" lon="-118.26223229058087">
        <time>2005-06-01T18:38:30-07:00</time>
      </trkpt>
      <trkpt lat="35.114913722500205" lon="-118.26220018789172">
        <time>2005-06-01T18:38:36-07:00</time>
      </trkpt>
      <trkpt lat="35.114924535155296" lon="-118.26219742186368">
        <time>2005-06-01T18:38:37-07:00</time>
      </trkpt>
      <trkpt lat="35.11500374414027" lon="-118.26215358451009">
        <time>2005-06-01T18:38:45-07:00</time>
      </trkpt>
      <trkpt lat="35.115079348906875" lon="-118.26209164224565">
        <time>2005-06-01T18:38:52-07:00</time>
      </trkpt>
      <trkpt lat="35.115113127976656" lon="-118.26201209798455">
        <time>2005-06-01T18:38:58-07:00</time>
      </trkpt>
      <trkpt lat="35.115139447152615" lon="-118.26194286346436">
        <time>2005-06-01T18:39:03-07:00</time>
      </trkpt>
      <trkpt lat="35.115158976987004" lon="-118.26190765947104">
        <time>2005-06-01T18:39:06-07:00</time>
      </trkpt>
      <trkpt lat="35.11518219485879" lon="-118.26190673746169">
        <time>2005-06-01T18:39:09-07:00</time>
      </trkpt>
      <trkpt lat="35.115191331133246" lon="-118.26191922649741">
        <time>2005-06-01T18:39:11-07:00</time>
      </trkpt>
      <trkpt lat="35.1152004674077" lon="-118.26192760840058">
        <time>2005-06-01T18:39:12-07:00</time>
      </trkpt>
      <trkpt lat="35.11522410437465" lon="-118.26196314767003">
        <time>2005-06-01T18:39:16-07:00</time>
      </trkpt>
      <trkpt lat="35.11523726396263" lon="-118.26197831891477">
        <time>2005-06-01T18:39:18-07:00</time>
      </trkpt>
      <trkpt lat="35.11523902416229" lon="-118.26198435388505">
        <time>2005-06-01T18:39:19-07:00</time>
      </trkpt>
      <trkpt lat="35.115245981141925" lon="-118.26203741133213">
        <time>2005-06-01T18:39:25-07:00</time>
      </trkpt>
      <trkpt lat="35.11524179019034" lon="-118.26206272467971">
        <time>2005-06-01T18:39:27-07:00</time>
      </trkpt>
      <trkpt lat="35.11522511020303" lon="-118.26208803802729">
        <time>2005-06-01T18:39:30-07:00</time>
      </trkpt>
      <trkpt lat="35.11522167362273" lon="-118.26210170052946">
        <time>2005-06-01T18:39:31-07:00</time>
      </trkpt>
      <trkpt lat="35.11521706357598" lon="-118.2621514890343">
        <time>2005-06-01T18:39:35-07:00</time>
      </trkpt>
      <trkpt lat="35.11518797837198" lon="-118.26218568719923">
        <time>2005-06-01T18:39:38-07:00</time>
      </trkpt>
      <trkpt lat="35.11517582461238" lon="-118.2621961645782">
        <time>2005-06-01T18:39:39-07:00</time>
      </trkpt>
      <trkpt lat="35.1151143014431" lon="-118.26224721036851">
        <time>2005-06-01T18:39:45-07:00</time>
      </trkpt>
      <trkpt lat="35.11510491371155" lon="-118.26225198805332">
        <time>2005-06-01T18:39:46-07:00</time>
      </trkpt>
      <trkpt lat="35.1150416303426" lon="-118.2623103260994">
        <time>2005-06-01T18:39:53-07:00</time>
      </trkpt>
      <trkpt lat="35.11499268002808" lon="-118.26237201690674">
        <time>2005-06-01T18:39:59-07:00</time>
      </trkpt>
      <trkpt lat="35.114982118830085" lon="-118.26238266192377">
        <time>2005-06-01T18:40:00-07:00</time>
      </trkpt>
      <trkpt lat="35.11493157595396" lon="-118.26244234107435">
        <time>2005-06-01T18:40:05-07:00</time>
      </trkpt>
      <trkpt lat="35.11491104029119" lon="-118.2624686602503">
        <time>2005-06-01T18:40:08-07:00</time>
      </trkpt>
      <trkpt lat="35.11489628814161" lon="-118.26251928694546">
        <time>2005-06-01T18:40:12-07:00</time>
      </trkpt>
      <trkpt lat="35.11488757096231" lon="-118.26260620728135">
        <time>2005-06-01T18:40:18-07:00</time>
      </trkpt>
      <trkpt lat="35.11485823430121" lon="-118.26270117424428">
        <time>2005-06-01T18:40:25-07:00</time>
      </trkpt>
      <trkpt lat="35.11483593843877" lon="-118.26274995692074">
        <time>2005-06-01T18:40:29-07:00</time>
      </trkpt>
      <trkpt lat="35.11481246910989" lon="-118.2628111448139">
        <time>2005-06-01T18:40:33-07:00</time>
      </trkpt>
      <trkpt lat="35.11479830369353" lon="-118.26291164383292">
        <time>2005-06-01T18:40:40-07:00</time>
      </trkpt>
      <trkpt lat="35.11480894871056" lon="-118.26294240541756">
        <time>2005-06-01T18:40:42-07:00</time>
      </trkpt>
      <trkpt lat="35.1148172467947" lon="-118.26295606791973">
        <time>2005-06-01T18:40:43-07:00</time>
      </trkpt>
      <trkpt lat="35.114829232916236" lon="-118.26298314146698">
        <time>2005-06-01T18:40:45-07:00</time>
      </trkpt>
      <trkpt lat="35.114835100248456" lon="-118.26301013119519">
        <time>2005-06-01T18:40:47-07:00</time>
      </trkpt>
      <trkpt lat="35.11482504196465" lon="-118.26309881173074">
        <time>2005-06-01T18:40:53-07:00</time>
      </trkpt>
      <trkpt lat="35.114812050014734" lon="-118.26314348727465">
        <time>2005-06-01T18:40:56-07:00</time>
      </trkpt>
      <trkpt lat="35.114805763587356" lon="-118.26316645368934">
        <time>2005-06-01T18:40:58-07:00</time>
      </trkpt>
      <trkpt lat="35.114778857678175" lon="-118.26325815171003">
        <time>2005-06-01T18:41:04-07:00</time>
      </trkpt>
      <trkpt lat="35.114761255681515" lon="-118.26331179589033">
        <time>2005-06-01T18:41:08-07:00</time>
      </trkpt>
      <trkpt lat="35.114754466339946" lon="-118.26334222219884">
        <time>2005-06-01T18:41:10-07:00</time>
      </trkpt>
      <trkpt lat="35.114751448854804" lon="-118.26343920081854">
        <time>2005-06-01T18:41:17-07:00</time>
      </trkpt>
      <trkpt lat="35.11475077830255" lon="-118.2634581439197">
        <time>2005-06-01T18:41:18-07:00</time>
      </trkpt>
      <trkpt lat="35.114725632593036" lon="-118.26354447752237">
        <time>2005-06-01T18:41:24-07:00</time>
      </trkpt>
      <trkpt lat="35.114721190184355" lon="-118.26358152553439">
        <time>2005-06-01T18:41:27-07:00</time>
      </trkpt>
      <trkpt lat="35.11471993289888" lon="-118.26360566541553">
        <time>2005-06-01T18:41:29-07:00</time>
      </trkpt>
      <trkpt lat="35.11472127400339" lon="-118.26361865736544">
        <time>2005-06-01T18:41:30-07:00</time>
      </trkpt>
      <trkpt lat="35.114721190184355" lon="-118.26368562877178">
        <time>2005-06-01T18:41:36-07:00</time>
      </trkpt>
      <trkpt lat="35.11473326012492" lon="-118.26374455355108">
        <time>2005-06-01T18:41:41-07:00</time>
      </trkpt>
      <trkpt lat="35.11477508582175" lon="-118.26379928737879">
        <time>2005-06-01T18:41:48-07:00</time>
      </trkpt>
      <trkpt lat="35.11480945162475" lon="-118.26383273117244">
        <time>2005-06-01T18:41:52-07:00</time>
      </trkpt>
      <trkpt lat="35.11483727954328" lon="-118.2638574577868">
        <time>2005-06-01T18:41:56-07:00</time>
      </trkpt>
      <trkpt lat="35.11489980854094" lon="-118.26393297873437">
        <time>2005-06-01T18:42:03-07:00</time>
      </trkpt>
      <trkpt lat="35.11490307748318" lon="-118.26394672505558">
        <time>2005-06-01T18:42:04-07:00</time>
      </trkpt>
      <trkpt lat="35.114909866824746" lon="-118.26402165926993">
        <time>2005-06-01T18:42:09-07:00</time>
      </trkpt>
      <trkpt lat="35.11490475386381" lon="-118.26405057683587">
        <time>2005-06-01T18:42:11-07:00</time>
      </trkpt>
      <trkpt lat="35.11489343829453" lon="-118.26410849578679">
        <time>2005-06-01T18:42:16-07:00</time>
      </trkpt>
      <trkpt lat="35.11491833254695" lon="-118.26418996788561">
        <time>2005-06-01T18:42:23-07:00</time>
      </trkpt>
      <trkpt lat="35.114955799654126" lon="-118.2642047200352">
        <time>2005-06-01T18:42:27-07:00</time>
      </trkpt>
      <trkpt lat="35.114972395822406" lon="-118.26421427540481">
        <time>2005-06-01T18:42:29-07:00</time>
      </trkpt>
      <trkpt lat="35.114978263154626" lon="-118.26421896927059">
        <time>2005-06-01T18:42:30-07:00</time>
      </trkpt>
      <trkpt lat="35.11502922512591" lon="-118.26420270837843">
        <time>2005-06-01T18:42:36-07:00</time>
      </trkpt>
      <trkpt lat="35.11503106914461" lon="-118.26418653130531">
        <time>2005-06-01T18:42:37-07:00</time>
      </trkpt>
      <trkpt lat="35.11504255235195" lon="-118.26416088268161">
        <time>2005-06-01T18:42:39-07:00</time>
      </trkpt>
      <trkpt lat="35.11505998671055" lon="-118.26412023045123">
        <time>2005-06-01T18:42:42-07:00</time>
      </trkpt>
      <trkpt lat="35.11508043855429" lon="-118.26401864178479">
        <time>2005-06-01T18:42:49-07:00</time>
      </trkpt>
      <trkpt lat="35.115107763558626" lon="-118.26392862014472">
        <time>2005-06-01T18:42:56-07:00</time>
      </trkpt>
      <trkpt lat="35.11511371470988" lon="-118.26385284774005">
        <time>2005-06-01T18:43:01-07:00</time>
      </trkpt>
      <trkpt lat="35.1151127088815" lon="-118.26383725740016">
        <time>2005-06-01T18:43:02-07:00</time>
      </trkpt>
      <trkpt lat="35.11510499753058" lon="-118.26373726129532">
        <time>2005-06-01T18:43:09-07:00</time>
      </trkpt>
      <trkpt lat="35.11510248295963" lon="-118.26367238536477">
        <time>2005-06-01T18:43:14-07:00</time>
      </trkpt>
      <trkpt lat="35.11509770527482" lon="-118.26363475061953">
        <time>2005-06-01T18:43:17-07:00</time>
      </trkpt>
      <trkpt lat="35.115106757730246" lon="-118.26354891993105">
        <time>2005-06-01T18:43:23-07:00</time>
      </trkpt>
      <trkpt lat="35.11513886041939" lon="-118.26347088441253">
        <time>2005-06-01T18:43:29-07:00</time>
      </trkpt>
      <trkpt lat="35.11514464393258" lon="-118.26346065849066">
        <time>2005-06-01T18:43:30-07:00</time>
      </trkpt>
      <trkpt lat="35.11518462561071" lon="-118.26341313309968">
        <time>2005-06-01T18:43:35-07:00</time>
      </trkpt>
      <trkpt lat="35.11521044187248" lon="-118.2633994705975">
        <time>2005-06-01T18:43:38-07:00</time>
      </trkpt>
      <trkpt lat="35.11525101028383" lon="-118.26337206177413">
        <time>2005-06-01T18:43:42-07:00</time>
      </trkpt>
      <trkpt lat="35.11528235860169" lon="-118.26335194520652">
        <time>2005-06-01T18:43:45-07:00</time>
      </trkpt>
      <trkpt lat="35.11533373966813" lon="-118.26335420832038">
        <time>2005-06-01T18:43:50-07:00</time>
      </trkpt>
      <trkpt lat="35.11536148376763" lon="-118.26337717473507">
        <time>2005-06-01T18:43:55-07:00</time>
      </trkpt>
      <trkpt lat="35.11536215431988" lon="-118.2633793540299">
        <time>2005-06-01T18:43:57-07:00</time>
      </trkpt>
      <trkpt lat="35.11535804718733" lon="-118.26338832266629">
        <time>2005-06-01T18:43:58-07:00</time>
      </trkpt>
      <trkpt lat="35.115356957539916" lon="-118.26341128908098">
        <time>2005-06-01T18:44:00-07:00</time>
      </trkpt>
      <trkpt lat="35.11534589342773" lon="-118.26345613226295">
        <time>2005-06-01T18:44:03-07:00</time>
      </trkpt>
      <trkpt lat="35.11533625423908" lon="-118.26350583694875">
        <time>2005-06-01T18:44:08-07:00</time>
      </trkpt>
      <trkpt lat="35.11533801443875" lon="-118.26352871954441">
        <time>2005-06-01T18:44:10-07:00</time>
      </trkpt>
      <trkpt lat="35.11532820761204" lon="-118.2636000495404">
        <time>2005-06-01T18:44:16-07:00</time>
      </trkpt>
      <trkpt lat="35.11532376520336" lon="-118.26363860629499">
        <time>2005-06-01T18:44:19-07:00</time>
      </trkpt>
      <trkpt lat="35.11532686650753" lon="-118.26366794295609">
        <time>2005-06-01T18:44:21-07:00</time>
      </trkpt>
      <trkpt lat="35.11532820761204" lon="-118.26369350776076">
        <time>2005-06-01T18:44:23-07:00</time>
      </trkpt>
      <trkpt lat="35.11532778851688" lon="-118.26376676559448">
        <time>2005-06-01T18:44:28-07:00</time>
      </trkpt>
      <trkpt lat="35.11533843353391" lon="-118.26386198401451">
        <time>2005-06-01T18:44:35-07:00</time>
      </trkpt>
      <trkpt lat="35.11534136720002" lon="-118.26389593072236">
        <time>2005-06-01T18:44:38-07:00</time>
      </trkpt>
      <trkpt lat="35.11535276658833" lon="-118.26394982635975">
        <time>2005-06-01T18:44:43-07:00</time>
      </trkpt>
      <trkpt lat="35.11535377241671" lon="-118.26403171755373">
        <time>2005-06-01T18:44:49-07:00</time>
      </trkpt>
      <trkpt lat="35.115358885377645" lon="-118.26406080275774">
        <time>2005-06-01T18:44:51-07:00</time>
      </trkpt>
      <trkpt lat="35.11537036858499" lon="-118.26409173198044">
        <time>2005-06-01T18:44:53-07:00</time>
      </trkpt>
      <trkpt lat="35.11537531390786" lon="-118.26412006281316">
        <time>2005-06-01T18:44:55-07:00</time>
      </trkpt>
      <trkpt lat="35.11537715792656" lon="-118.26421226374805">
        <time>2005-06-01T18:45:02-07:00</time>
      </trkpt>
      <trkpt lat="35.11539828032255" lon="-118.2642369903624">
        <time>2005-06-01T18:45:06-07:00</time>
      </trkpt>
      <trkpt lat="35.11540850624442" lon="-118.2642113417387">
        <time>2005-06-01T18:45:08-07:00</time>
      </trkpt>
      <trkpt lat="35.11543205939233" lon="-118.26417043805122">
        <time>2005-06-01T18:45:11-07:00</time>
      </trkpt>
      <trkpt lat="35.11545393615961" lon="-118.26410329900682">
        <time>2005-06-01T18:45:16-07:00</time>
      </trkpt>
      <trkpt lat="35.11546424590051" lon="-118.26407714746892">
        <time>2005-06-01T18:45:18-07:00</time>
      </trkpt>
      <trkpt lat="35.11547732166946" lon="-118.26401914469898">
        <time>2005-06-01T18:45:22-07:00</time>
      </trkpt>
      <trkpt lat="35.11551353149116" lon="-118.26396172866225">
        <time>2005-06-01T18:45:28-07:00</time>
      </trkpt>
      <trkpt lat="35.11552518233657" lon="-118.26398067176342">
        <time>2005-06-01T18:45:32-07:00</time>
      </trkpt>
      <trkpt lat="35.115523505955935" lon="-118.26399324461818">
        <time>2005-06-01T18:45:33-07:00</time>
      </trkpt>
      <trkpt lat="35.115526942536235" lon="-118.26401277445257">
        <time>2005-06-01T18:45:34-07:00</time>
      </trkpt>
      <trkpt lat="35.11553046293557" lon="-118.26405007392168">
        <time>2005-06-01T18:45:37-07:00</time>
      </trkpt>
      <trkpt lat="35.11553842574358" lon="-118.26408670283854">
        <time>2005-06-01T18:45:40-07:00</time>
      </trkpt>
      <trkpt lat="35.115546556189656" lon="-118.2641421072185">
        <time>2005-06-01T18:45:45-07:00</time>
      </trkpt>
      <trkpt lat="35.115548903122544" lon="-118.26417085714638">
        <time>2005-06-01T18:45:47-07:00</time>
      </trkpt>
      <trkpt lat="35.11554823257029" lon="-118.2642301172018">
        <time>2005-06-01T18:45:51-07:00</time>
      </trkpt>
      <trkpt lat="35.11554689146578" lon="-118.26427395455539">
        <time>2005-06-01T18:45:54-07:00</time>
      </trkpt>
      <trkpt lat="35.115540185943246" lon="-118.26437554322183">
        <time>2005-06-01T18:46:02-07:00</time>
      </trkpt>
      <trkpt lat="35.11554513126612" lon="-118.26443497091532">
        <time>2005-06-01T18:46:07-07:00</time>
      </trkpt>
      <trkpt lat="35.11554571799934" lon="-118.26445047743618">
        <time>2005-06-01T18:46:08-07:00</time>
      </trkpt>
      <trkpt lat="35.115543538704515" lon="-118.26450387015939">
        <time>2005-06-01T18:46:12-07:00</time>
      </trkpt>
      <trkpt lat="35.115541107952595" lon="-118.26456296257675">
        <time>2005-06-01T18:46:16-07:00</time>
      </trkpt>
      <trkpt lat="35.115540185943246" lon="-118.26465206220746">
        <time>2005-06-01T18:46:22-07:00</time>
      </trkpt>
      <trkpt lat="35.115544963628054" lon="-118.26466103084385">
        <time>2005-06-01T18:46:23-07:00</time>
      </trkpt>
      <trkpt lat="35.11555024422705" lon="-118.26471090316772">
        <time>2005-06-01T18:46:28-07:00</time>
      </trkpt>
      <trkpt lat="35.11555066332221" lon="-118.26473680324852">
        <time>2005-06-01T18:46:30-07:00</time>
      </trkpt>
      <trkpt lat="35.115546053275466" lon="-118.26483931392431">
        <time>2005-06-01T18:46:37-07:00</time>
      </trkpt>
      <trkpt lat="35.11553599499166" lon="-118.2649317663163">
        <time>2005-06-01T18:46:44-07:00</time>
      </trkpt>
      <trkpt lat="35.11553356423974" lon="-118.26494978740811">
        <time>2005-06-01T18:46:45-07:00</time>
      </trkpt>
      <trkpt lat="35.115531804040074" lon="-118.26501684263349">
        <time>2005-06-01T18:46:50-07:00</time>
      </trkpt>
      <trkpt lat="35.11554186232388" lon="-118.26505062170327">
        <time>2005-06-01T18:46:53-07:00</time>
      </trkpt>
      <trkpt lat="35.1155477296561" lon="-118.26509982347488">
        <time>2005-06-01T18:46:57-07:00</time>
      </trkpt>
      <trkpt lat="35.115547897294164" lon="-118.2651508692652">
        <time>2005-06-01T18:47:01-07:00</time>
      </trkpt>
      <trkpt lat="35.1155427005142" lon="-118.26521465554833">
        <time>2005-06-01T18:47:05-07:00</time>
      </trkpt>
      <trkpt lat="35.11556080542505" lon="-118.26526486314833">
        <time>2005-06-01T18:47:09-07:00</time>
      </trkpt>
      <trkpt lat="35.11558385565877" lon="-118.26525547541678">
        <time>2005-06-01T18:47:13-07:00</time>
      </trkpt>
      <trkpt lat="35.11559332720935" lon="-118.2652299106121">
        <time>2005-06-01T18:47:15-07:00</time>
      </trkpt>
      <trkpt lat="35.11560103856027" lon="-118.26520342379808">
        <time>2005-06-01T18:47:17-07:00</time>
      </trkpt>
      <trkpt lat="35.11561428196728" lon="-118.26516511850059">
        <time>2005-06-01T18:47:20-07:00</time>
      </trkpt>
      <trkpt lat="35.11562107130885" lon="-118.26514324173331">
        <time>2005-06-01T18:47:22-07:00</time>
      </trkpt>
      <trkpt lat="35.115628531202674" lon="-118.26511960476637">
        <time>2005-06-01T18:47:24-07:00</time>
      </trkpt>
      <trkpt lat="35.11564152315259" lon="-118.26506830751896">
        <time>2005-06-01T18:47:29-07:00</time>
      </trkpt>
      <trkpt lat="35.11564387008548" lon="-118.26505749486387">
        <time>2005-06-01T18:47:30-07:00</time>
      </trkpt>
      <trkpt lat="35.115646217018366" lon="-118.26504433527589">
        <time>2005-06-01T18:47:31-07:00</time>
      </trkpt>
      <trkpt lat="35.115659376606345" lon="-118.26500544324517">
        <time>2005-06-01T18:47:34-07:00</time>
      </trkpt>
      <trkpt lat="35.11566096916795" lon="-118.26499613933265">
        <time>2005-06-01T18:47:35-07:00</time>
      </trkpt>
      <trkpt lat="35.115671111270785" lon="-118.264952134341">
        <time>2005-06-01T18:47:38-07:00</time>
      </trkpt>
      <trkpt lat="35.1156893838197" lon="-118.26488088816404">
        <time>2005-06-01T18:47:44-07:00</time>
      </trkpt>
      <trkpt lat="35.115693993866444" lon="-118.26484920457006">
        <time>2005-06-01T18:47:46-07:00</time>
      </trkpt>
      <trkpt lat="35.11572659946978" lon="-118.26478944160044">
        <time>2005-06-01T18:47:51-07:00</time>
      </trkpt>
      <trkpt lat="35.115780495107174" lon="-118.26472867280245">
        <time>2005-06-01T18:47:58-07:00</time>
      </trkpt>
      <trkpt lat="35.115787452086806" lon="-118.26471601612866">
        <time>2005-06-01T18:47:59-07:00</time>
      </trkpt>
      <trkpt lat="35.11581636965275" lon="-118.2646756991744">
        <time>2005-06-01T18:48:04-07:00</time>
      </trkpt>
      <trkpt lat="35.115824081003666" lon="-118.26465927064419">
        <time>2005-06-01T18:48:06-07:00</time>
      </trkpt>
      <trkpt lat="35.11585056781769" lon="-118.26458006165922">
        <time>2005-06-01T18:48:12-07:00</time>
      </trkpt>
      <trkpt lat="35.11589272879064" lon="-118.26454921625555">
        <time>2005-06-01T18:48:16-07:00</time>
      </trkpt>
      <trkpt lat="35.115904714912176" lon="-118.26455617323518">
        <time>2005-06-01T18:48:18-07:00</time>
      </trkpt>
      <trkpt lat="35.11592022143304" lon="-118.26456421986222">
        <time>2005-06-01T18:48:20-07:00</time>
      </trkpt>
      <trkpt lat="35.115951821208" lon="-118.26460286043584">
        <time>2005-06-01T18:48:25-07:00</time>
      </trkpt>
      <trkpt lat="35.115956431254745" lon="-118.26461442746222">
        <time>2005-06-01T18:48:26-07:00</time>
      </trkpt>
      <trkpt lat="35.11595224030316" lon="-118.26462607830763">
        <time>2005-06-01T18:48:27-07:00</time>
      </trkpt>
      <trkpt lat="35.115944780409336" lon="-118.26462800614536">
        <time>2005-06-01T18:48:28-07:00</time>
      </trkpt>
      <trkpt lat="35.115934470668435" lon="-118.26462750323117">
        <time>2005-06-01T18:48:29-07:00</time>
      </trkpt>
      <trkpt lat="35.11591728776693" lon="-118.2646307721734">
        <time>2005-06-01T18:48:31-07:00</time>
      </trkpt>
      <trkpt lat="35.11590748094022" lon="-118.26463865116239">
        <time>2005-06-01T18:48:32-07:00</time>
      </trkpt>
      <trkpt lat="35.11587554588914" lon="-118.26467662118375">
        <time>2005-06-01T18:48:35-07:00</time>
      </trkpt>
      <trkpt lat="35.1158690918237" lon="-118.26471115462482">
        <time>2005-06-01T18:48:37-07:00</time>
      </trkpt>
      <trkpt lat="35.11586842127144" lon="-118.26480126008391">
        <time>2005-06-01T18:48:44-07:00</time>
      </trkpt>
      <trkpt lat="35.11589013040066" lon="-118.26487233862281">
        <time>2005-06-01T18:48:51-07:00</time>
      </trkpt>
      <trkpt lat="35.11588728055358" lon="-118.26490385457873">
        <time>2005-06-01T18:48:53-07:00</time>
      </trkpt>
      <trkpt lat="35.11587160639465" lon="-118.26498624868691">
        <time>2005-06-01T18:48:59-07:00</time>
      </trkpt>
      <trkpt lat="35.1158688403666" lon="-118.26500770635903">
        <time>2005-06-01T18:49:01-07:00</time>
      </trkpt>
      <trkpt lat="35.115883592516184" lon="-118.26507308520377">
        <time>2005-06-01T18:49:06-07:00</time>
      </trkpt>
      <trkpt lat="35.115890465676785" lon="-118.26508381403983">
        <time>2005-06-01T18:49:07-07:00</time>
      </trkpt>
      <trkpt lat="35.11591385118663" lon="-118.26507719233632">
        <time>2005-06-01T18:49:10-07:00</time>
      </trkpt>
      <trkpt lat="35.11592298746109" lon="-118.26505498029292">
        <time>2005-06-01T18:49:12-07:00</time>
      </trkpt>
      <trkpt lat="35.11593681760132" lon="-118.26501684263349">
        <time>2005-06-01T18:49:15-07:00</time>
      </trkpt>
      <trkpt lat="35.11596271768212" lon="-118.26497359201312">
        <time>2005-06-01T18:49:19-07:00</time>
      </trkpt>
      <trkpt lat="35.116014601662755" lon="-118.26490972191095">
        <time>2005-06-01T18:49:26-07:00</time>
      </trkpt>
      <trkpt lat="35.11611652560532" lon="-118.26485289260745">
        <time>2005-06-01T18:49:34-07:00</time>
      </trkpt>
      <trkpt lat="35.11616421863437" lon="-118.26480469666421">
        <time>2005-06-01T18:49:40-07:00</time>
      </trkpt>
      <trkpt lat="35.11619724333286" lon="-118.26473009772599">
        <time>2005-06-01T18:49:46-07:00</time>
      </trkpt>
      <trkpt lat="35.11620436795056" lon="-118.26472833752632">
        <time>2005-06-01T18:49:47-07:00</time>
      </trkpt>
      <trkpt lat="35.116215432062745" lon="-118.26472850516438">
        <time>2005-06-01T18:49:48-07:00</time>
      </trkpt>
      <trkpt lat="35.11626027524471" lon="-118.26477209106088">
        <time>2005-06-01T18:49:53-07:00</time>
      </trkpt>
      <trkpt lat="35.11632070876658" lon="-118.26479933224618">
        <time>2005-06-01T18:49:58-07:00</time>
      </trkpt>
      <trkpt lat="35.11634602211416" lon="-118.264798829332">
        <time>2005-06-01T18:50:00-07:00</time>
      </trkpt>
      <trkpt lat="35.11635691858828" lon="-118.2647930458188">
        <time>2005-06-01T18:50:01-07:00</time>
      </trkpt>
      <trkpt lat="35.11640218086541" lon="-118.26471207663417">
        <time>2005-06-01T18:50:07-07:00</time>
      </trkpt>
      <trkpt lat="35.116449538618326" lon="-118.26464510522783">
        <time>2005-06-01T18:50:14-07:00</time>
      </trkpt>
      <trkpt lat="35.11647418141365" lon="-118.26455466449261">
        <time>2005-06-01T18:50:21-07:00</time>
      </trkpt>
      <trkpt lat="35.11647845618427" lon="-118.26453697867692">
        <time>2005-06-01T18:50:22-07:00</time>
      </trkpt>
      <trkpt lat="35.11649723164737" lon="-118.26450479216874">
        <time>2005-06-01T18:50:25-07:00</time>
      </trkpt>
      <trkpt lat="35.11652388609946" lon="-118.26445617713034">
        <time>2005-06-01T18:50:29-07:00</time>
      </trkpt>
      <trkpt lat="35.11657577008009" lon="-118.26438928954303">
        <time>2005-06-01T18:50:37-07:00</time>
      </trkpt>
      <trkpt lat="35.11659672483802" lon="-118.26439306139946">
        <time>2005-06-01T18:50:39-07:00</time>
      </trkpt>
      <trkpt lat="35.11661290191114" lon="-118.26441066339612">
        <time>2005-06-01T18:50:42-07:00</time>
      </trkpt>
      <trkpt lat="35.11661969125271" lon="-118.26442675665021">
        <time>2005-06-01T18:50:44-07:00</time>
      </trkpt>
      <trkpt lat="35.1166183501482" lon="-118.26443614438176">
        <time>2005-06-01T18:50:45-07:00</time>
      </trkpt>
      <trkpt lat="35.116606866940856" lon="-118.26445064507425">
        <time>2005-06-01T18:50:47-07:00</time>
      </trkpt>
      <trkpt lat="35.11659630574286" lon="-118.26447553932667">
        <time>2005-06-01T18:50:50-07:00</time>
      </trkpt>
      <trkpt lat="35.116570154204965" lon="-118.2645617891103">
        <time>2005-06-01T18:50:57-07:00</time>
      </trkpt>
      <trkpt lat="35.1165665499866" lon="-118.2645702548325">
        <time>2005-06-01T18:50:58-07:00</time>
      </trkpt>
      <trkpt lat="35.11656487360597" lon="-118.26459238305688">
        <time>2005-06-01T18:51:00-07:00</time>
      </trkpt>
      <trkpt lat="35.11657233349979" lon="-118.26465491205454">
        <time>2005-06-01T18:51:05-07:00</time>
      </trkpt>
      <trkpt lat="35.11658348143101" lon="-118.26472330838442">
        <time>2005-06-01T18:51:12-07:00</time>
      </trkpt>
      <trkpt lat="35.11658934876323" lon="-118.26476379297674">
        <time>2005-06-01T18:51:15-07:00</time>
      </trkpt>
      <trkpt lat="35.116592198610306" lon="-118.26480008661747">
        <time>2005-06-01T18:51:18-07:00</time>
      </trkpt>
      <trkpt lat="35.116595048457384" lon="-118.26482917182148">
        <time>2005-06-01T18:51:20-07:00</time>
      </trkpt>
      <trkpt lat="35.11659127660096" lon="-118.26490234583616">
        <time>2005-06-01T18:51:25-07:00</time>
      </trkpt>
      <trkpt lat="35.11659395880997" lon="-118.26493511907756">
        <time>2005-06-01T18:51:28-07:00</time>
      </trkpt>
      <trkpt lat="35.116596138104796" lon="-118.26495280489326">
        <time>2005-06-01T18:51:31-07:00</time>
      </trkpt>
      <trkpt lat="35.11659446172416" lon="-118.26499798335135">
        <time>2005-06-01T18:51:34-07:00</time>
      </trkpt>
      <trkpt lat="35.116592617705464" lon="-118.26501122675836">
        <time>2005-06-01T18:51:35-07:00</time>
      </trkpt>
      <trkpt lat="35.1165821403265" lon="-118.26506227254868">
        <time>2005-06-01T18:51:39-07:00</time>
      </trkpt>
      <trkpt lat="35.11656856164336" lon="-118.26508733443916">
        <time>2005-06-01T18:51:41-07:00</time>
      </trkpt>
      <trkpt lat="35.11651961132884" lon="-118.26514231972396">
        <time>2005-06-01T18:51:47-07:00</time>
      </trkpt>
      <trkpt lat="35.116507625207305" lon="-118.26515237800777">
        <time>2005-06-01T18:51:48-07:00</time>
      </trkpt>
      <trkpt lat="35.11646177619696" lon="-118.26518381014466">
        <time>2005-06-01T18:51:52-07:00</time>
      </trkpt>
      <trkpt lat="35.116410395130515" lon="-118.26522932387888">
        <time>2005-06-01T18:51:57-07:00</time>
      </trkpt>
      <trkpt lat="35.116417687386274" lon="-118.26525036245584">
        <time>2005-06-01T18:51:59-07:00</time>
      </trkpt>
      <trkpt lat="35.11642472818494" lon="-118.26525656506419">
        <time>2005-06-01T18:52:00-07:00</time>
      </trkpt>
      <trkpt lat="35.11644518002868" lon="-118.26525656506419">
        <time>2005-06-01T18:52:02-07:00</time>
      </trkpt>
      <trkpt lat="35.116502763703465" lon="-118.26525849290192">
        <time>2005-06-01T18:52:07-07:00</time>
      </trkpt>
      <trkpt lat="35.11652656830847" lon="-118.26525530777872">
        <time>2005-06-01T18:52:09-07:00</time>
      </trkpt>
      <trkpt lat="35.11661684140563" lon="-118.26524348929524">
        <time>2005-06-01T18:52:18-07:00</time>
      </trkpt>
      <trkpt lat="35.11668850667775" lon="-118.26521993614733">
        <time>2005-06-01T18:52:25-07:00</time>
      </trkpt>
      <trkpt lat="35.11675254441798" lon="-118.26516905799508">
        <time>2005-06-01T18:52:33-07:00</time>
      </trkpt>
      <trkpt lat="35.11678833514452" lon="-118.26509965583682">
        <time>2005-06-01T18:52:39-07:00</time>
      </trkpt>
      <trkpt lat="35.11679319664836" lon="-118.2650919444859">
        <time>2005-06-01T18:52:40-07:00</time>
      </trkpt>
      <trkpt lat="35.11682932265103" lon="-118.26502765528858">
        <time>2005-06-01T18:52:46-07:00</time>
      </trkpt>
      <trkpt lat="35.11685681529343" lon="-118.26500569470227">
        <time>2005-06-01T18:52:51-07:00</time>
      </trkpt>
      <trkpt lat="35.11686687357724" lon="-118.26500443741679">
        <time>2005-06-01T18:52:52-07:00</time>
      </trkpt>
      <trkpt lat="35.11691682972014" lon="-118.26499898917973">
        <time>2005-06-01T18:52:57-07:00</time>
      </trkpt>
      <trkpt lat="35.11695337481797" lon="-118.26501659117639">
        <time>2005-06-01T18:53:02-07:00</time>
      </trkpt>
      <trkpt lat="35.116967875510454" lon="-118.26502044685185">
        <time>2005-06-01T18:53:04-07:00</time>
      </trkpt>
      <trkpt lat="35.11697583831847" lon="-118.26502363197505">
        <time>2005-06-01T18:53:05-07:00</time>
      </trkpt>
      <trkpt lat="35.11700827628374" lon="-118.26503955759108">
        <time>2005-06-01T18:53:09-07:00</time>
      </trkpt>
      <trkpt lat="35.11702730320394" lon="-118.26505053788424">
        <time>2005-06-01T18:53:11-07:00</time>
      </trkpt>
      <trkpt lat="35.1170345954597" lon="-118.26505154371262">
        <time>2005-06-01T18:53:12-07:00</time>
      </trkpt>
      <trkpt lat="35.11705068871379" lon="-118.26506017707288">
        <time>2005-06-01T18:53:14-07:00</time>
      </trkpt>
      <trkpt lat="35.11710047721863" lon="-118.2650903519243">
        <time>2005-06-01T18:53:20-07:00</time>
      </trkpt>
      <trkpt lat="35.11716124601662" lon="-118.26514223590493">
        <time>2005-06-01T18:53:27-07:00</time>
      </trkpt>
      <trkpt lat="35.11723056435585" lon="-118.2652097940445">
        <time>2005-06-01T18:53:35-07:00</time>
      </trkpt>
      <trkpt lat="35.11726576834917" lon="-118.26524189673364">
        <time>2005-06-01T18:53:39-07:00</time>
      </trkpt>
      <trkpt lat="35.117275742813945" lon="-118.26524483039975">
        <time>2005-06-01T18:53:40-07:00</time>
      </trkpt>
      <trkpt lat="35.11729795485735" lon="-118.26524726115167">
        <time>2005-06-01T18:53:42-07:00</time>
      </trkpt>
      <trkpt lat="35.117310946807265" lon="-118.26524935662746">
        <time>2005-06-01T18:53:43-07:00</time>
      </trkpt>
      <trkpt lat="35.11734598316252" lon="-118.2652544695884">
        <time>2005-06-01T18:53:46-07:00</time>
      </trkpt>
      <trkpt lat="35.117361238226295" lon="-118.26525514014065">
        <time>2005-06-01T18:53:48-07:00</time>
      </trkpt>
      <trkpt lat="35.11736978776753" lon="-118.26525002717972">
        <time>2005-06-01T18:53:51-07:00</time>
      </trkpt>
      <trkpt lat="35.1173990406096" lon="-118.2652579061687">
        <time>2005-06-01T18:53:57-07:00</time>
      </trkpt>
      <trkpt lat="35.117453103885055" lon="-118.2652367837727">
        <time>2005-06-01T18:54:03-07:00</time>
      </trkpt>
      <trkpt lat="35.11746668256819" lon="-118.26521675102413">
        <time>2005-06-01T18:54:06-07:00</time>
      </trkpt>
      <trkpt lat="35.117473220452666" lon="-118.2651921082288">
        <time>2005-06-01T18:54:08-07:00</time>
      </trkpt>
      <trkpt lat="35.11747598648071" lon="-118.2651678007096">
        <time>2005-06-01T18:54:10-07:00</time>
      </trkpt>
      <trkpt lat="35.11746668256819" lon="-118.26514684595168">
        <time>2005-06-01T18:54:13-07:00</time>
      </trkpt>
      <trkpt lat="35.11749249882996" lon="-118.26494660228491">
        <time>2005-06-01T18:54:59-07:00</time>
      </trkpt>
      <trkpt lat="35.11749383993447" lon="-118.26493050903082">
        <time>2005-06-01T18:55:00-07:00</time>
      </trkpt>
      <trkpt lat="35.1175007969141" lon="-118.26484769582748">
        <time>2005-06-01T18:55:06-07:00</time>
      </trkpt>
      <trkpt lat="35.117494678124785" lon="-118.26482221484184">
        <time>2005-06-01T18:55:08-07:00</time>
      </trkpt>
      <trkpt lat="35.117474645376205" lon="-118.26479497365654">
        <time>2005-06-01T18:55:11-07:00</time>
      </trkpt>
      <trkpt lat="35.11746475473046" lon="-118.26478541828692">
        <time>2005-06-01T18:55:12-07:00</time>
      </trkpt>
      <trkpt lat="35.117479003965855" lon="-118.26471442356706">
        <time>2005-06-01T18:55:19-07:00</time>
      </trkpt>
      <trkpt lat="35.11748847551644" lon="-118.26471232809126">
        <time>2005-06-01T18:55:20-07:00</time>
      </trkpt>
      <trkpt lat="35.11749786324799" lon="-118.26471040025353">
        <time>2005-06-01T18:55:21-07:00</time>
      </trkpt>
      <trkpt lat="35.117527870461345" lon="-118.26471165753901">
        <time>2005-06-01T18:55:24-07:00</time>
      </trkpt>
      <trkpt lat="35.11754564009607" lon="-118.26472263783216">
        <time>2005-06-01T18:55:26-07:00</time>
      </trkpt>
      <trkpt lat="35.11755058541894" lon="-118.26473236083984">
        <time>2005-06-01T18:55:27-07:00</time>
      </trkpt>
      <trkpt lat="35.11759056709707" lon="-118.26480410993099">
        <time>2005-06-01T18:55:34-07:00</time>
      </trkpt>
      <trkpt lat="35.1176028046757" lon="-118.26482355594635">
        <time>2005-06-01T18:55:36-07:00</time>
      </trkpt>
      <trkpt lat="35.11761504225433" lon="-118.26487393118441">
        <time>2005-06-01T18:55:40-07:00</time>
      </trkpt>
      <trkpt lat="35.11762015521526" lon="-118.2649003341794">
        <time>2005-06-01T18:55:42-07:00</time>
      </trkpt>
      <trkpt lat="35.11764253489673" lon="-118.26496395282447">
        <time>2005-06-01T18:55:48-07:00</time>
      </trkpt>
      <trkpt lat="35.11764697730541" lon="-118.26496914960444">
        <time>2005-06-01T18:55:49-07:00</time>
      </trkpt>
      <trkpt lat="35.11766575276852" lon="-118.26499597169459">
        <time>2005-06-01T18:55:52-07:00</time>
      </trkpt>
      <trkpt lat="35.117676984518766" lon="-118.26501525007188">
        <time>2005-06-01T18:55:54-07:00</time>
      </trkpt>
      <trkpt lat="35.11768410913646" lon="-118.26502178795636">
        <time>2005-06-01T18:55:55-07:00</time>
      </trkpt>
      <trkpt lat="35.1176889706403" lon="-118.26503234915435">
        <time>2005-06-01T18:55:56-07:00</time>
      </trkpt>
      <trkpt lat="35.117691569030285" lon="-118.2650554832071">
        <time>2005-06-01T18:55:58-07:00</time>
      </trkpt>
      <trkpt lat="35.117691569030285" lon="-118.26506922952831">
        <time>2005-06-01T18:55:59-07:00</time>
      </trkpt>
      <trkpt lat="35.11769483797252" lon="-118.26508817262948">
        <time>2005-06-01T18:56:01-07:00</time>
      </trkpt>
      <trkpt lat="35.117698442190886" lon="-118.26510761864483">
        <time>2005-06-01T18:56:03-07:00</time>
      </trkpt>
      <trkpt lat="35.117723755538464" lon="-118.2651593349874">
        <time>2005-06-01T18:56:08-07:00</time>
      </trkpt>
      <trkpt lat="35.11774747632444" lon="-118.26518959365785">
        <time>2005-06-01T18:56:11-07:00</time>
      </trkpt>
      <trkpt lat="35.11776759289205" lon="-118.26520811766386">
        <time>2005-06-01T18:56:14-07:00</time>
      </trkpt>
      <trkpt lat="35.11777178384364" lon="-118.26519537717104">
        <time>2005-06-01T18:56:15-07:00</time>
      </trkpt>
      <trkpt lat="35.11777622625232" lon="-118.26516754925251">
        <time>2005-06-01T18:56:18-07:00</time>
      </trkpt>
      <trkpt lat="35.11777731589973" lon="-118.26515506021678">
        <time>2005-06-01T18:56:19-07:00</time>
      </trkpt>
      <trkpt lat="35.11777815409005" lon="-118.26514684595168">
        <time>2005-06-01T18:56:20-07:00</time>
      </trkpt>
      <trkpt lat="35.117801036685705" lon="-118.26508582569659">
        <time>2005-06-01T18:56:25-07:00</time>
      </trkpt>
      <trkpt lat="35.11783305555582" lon="-118.26504073105752">
        <time>2005-06-01T18:56:30-07:00</time>
      </trkpt>
      <trkpt lat="35.11785979382694" lon="-118.26497845351696">
        <time>2005-06-01T18:56:35-07:00</time>
      </trkpt>
      <trkpt lat="35.117886113002896" lon="-118.26493956148624">
        <time>2005-06-01T18:56:39-07:00</time>
      </trkpt>
      <trkpt lat="35.117915784940124" lon="-118.26489329338074">
        <time>2005-06-01T18:56:43-07:00</time>
      </trkpt>
      <trkpt lat="35.117938332259655" lon="-118.26483612880111">
        <time>2005-06-01T18:56:48-07:00</time>
      </trkpt>
      <trkpt lat="35.11797898449004" lon="-118.26477644965053">
        <time>2005-06-01T18:56:54-07:00</time>
      </trkpt>
      <trkpt lat="35.11799532920122" lon="-118.26476186513901">
        <time>2005-06-01T18:56:56-07:00</time>
      </trkpt>
      <trkpt lat="35.118028186261654" lon="-118.2647367194295">
        <time>2005-06-01T18:56:59-07:00</time>
      </trkpt>
      <trkpt lat="35.118037573993206" lon="-118.26472825370729">
        <time>2005-06-01T18:57:00-07:00</time>
      </trkpt>
      <trkpt lat="35.11808023788035" lon="-118.26468349434435">
        <time>2005-06-01T18:57:07-07:00</time>
      </trkpt>
      <trkpt lat="35.118118626996875" lon="-118.26460772193968">
        <time>2005-06-01T18:57:14-07:00</time>
      </trkpt>
      <trkpt lat="35.11814268305898" lon="-118.26455349102616">
        <time>2005-06-01T18:57:18-07:00</time>
      </trkpt>
      <trkpt lat="35.11816296726465" lon="-118.2645168621093">
        <time>2005-06-01T18:57:21-07:00</time>
      </trkpt>
      <trkpt lat="35.11821845546365" lon="-118.26444754377007">
        <time>2005-06-01T18:57:28-07:00</time>
      </trkpt>
      <trkpt lat="35.118222646415234" lon="-118.26444251462817">
        <time>2005-06-01T18:57:29-07:00</time>
      </trkpt>
      <trkpt lat="35.118238823488355" lon="-118.26443086378276">
        <time>2005-06-01T18:57:32-07:00</time>
      </trkpt>
      <trkpt lat="35.11825458146632" lon="-118.26440001837909">
        <time>2005-06-01T18:57:35-07:00</time>
      </trkpt>
      <trkpt lat="35.11832834221423" lon="-118.26433824375272">
        <time>2005-06-01T18:57:42-07:00</time>
      </trkpt>
      <trkpt lat="35.118349213153124" lon="-118.26433505862951">
        <time>2005-06-01T18:57:44-07:00</time>
      </trkpt>
      <trkpt lat="35.11839363723993" lon="-118.26434126123786">
        <time>2005-06-01T18:57:49-07:00</time>
      </trkpt>
      <trkpt lat="35.1184350438416" lon="-118.26428786851466">
        <time>2005-06-01T18:57:56-07:00</time>
      </trkpt>
    </trkseg>
  </trk>
</gpx>
