<?xml version="1.0" encoding="UTF-8"?>
<gpx version="1.1" creator="GarminFitSummaryExtractor" xmlns="http://www.topografix.com/GPX/1/1" xmlns:xsi="http://www.w3.org/2001/XMLSchema-instance" xsi:schemaLocation="http://www.topografix.com/GPX/1/1 http://www.topografix.com/GPX/1/1/gpx.xsd">
  <metadata>
    <name>2025-07-18-10-21-24</name>
    <time>2005-07-19T10:21:24-07:00</time>
  </metadata>
  <trk>
    <name>2025-07-18-10-21-24</name>
    <type>HIKING</type>
    <trkseg>
      <trkpt lat="39.870764426887035" lon="-121.17369079962373">
        <time>2005-07-19T10:21:24-07:00</time>
      </trkpt>
      <trkpt lat="39.87077825702727" lon="-121.17371234111488">
        <time>2005-07-19T10:21:27-07:00</time>
      </trkpt>
      <trkpt lat="39.87081463448703" lon="-121.17372449487448">
        <time>2005-07-19T10:21:36-07:00</time>
      </trkpt>
      <trkpt lat="39.870866015553474" lon="-121.17374821566045">
        <time>2005-07-19T10:21:38-07:00</time>
      </trkpt>
      <trkpt lat="39.87095486372709" lon="-121.17378668859601">
        <time>2005-07-19T10:21:42-07:00</time>
      </trkpt>
      <trkpt lat="39.871039520949125" lon="-121.17382700555027">
        <time>2005-07-19T10:21:48-07:00</time>
      </trkpt>
      <trkpt lat="39.87113348208368" lon="-121.17385894060135">
        <time>2005-07-19T10:21:57-07:00</time>
      </trkpt>
      <trkpt lat="39.871205147355795" lon="-121.1738836672157">
        <time>2005-07-19T10:22:06-07:00</time>
      </trkpt>
      <trkpt lat="39.87128695473075" lon="-121.1739235650748">
        <time>2005-07-19T10:22:15-07:00</time>
      </trkpt>
      <trkpt lat="39.871348310261965" lon="-121.1739322822541">
        <time>2005-07-19T10:22:22-07:00</time>
      </trkpt>
      <trkpt lat="39.87138141877949" lon="-121.17394845932722">
        <time>2005-07-19T10:22:30-07:00</time>
      </trkpt>
      <trkpt lat="39.87139759585261" lon="-121.17395164445043">
        <time>2005-07-19T10:22:37-07:00</time>
      </trkpt>
      <trkpt lat="39.871492395177484" lon="-121.17398240603507">
        <time>2005-07-19T10:22:41-07:00</time>
      </trkpt>
      <trkpt lat="39.87157445400953" lon="-121.17401878349483">
        <time>2005-07-19T10:22:42-07:00</time>
      </trkpt>
      <trkpt lat="39.87160571850836" lon="-121.17403278127313">
        <time>2005-07-19T10:22:52-07:00</time>
      </trkpt>
      <trkpt lat="39.87164578400552" lon="-121.17404082790017">
        <time>2005-07-19T10:23:01-07:00</time>
      </trkpt>
      <trkpt lat="39.8717194609344" lon="-121.1740599386394">
        <time>2005-07-19T10:23:04-07:00</time>
      </trkpt>
      <trkpt lat="39.87182264216244" lon="-121.17407309822738">
        <time>2005-07-19T10:23:08-07:00</time>
      </trkpt>
      <trkpt lat="39.871840411797166" lon="-121.17408064194024">
        <time>2005-07-19T10:23:15-07:00</time>
      </trkpt>
      <trkpt lat="39.87188936211169" lon="-121.174093214795">
        <time>2005-07-19T10:23:24-07:00</time>
      </trkpt>
      <trkpt lat="39.87197611480951" lon="-121.17410914041102">
        <time>2005-07-19T10:23:26-07:00</time>
      </trkpt>
      <trkpt lat="39.87201601266861" lon="-121.17411467246711">
        <time>2005-07-19T10:23:31-07:00</time>
      </trkpt>
      <trkpt lat="39.87203202210367" lon="-121.1741151753813">
        <time>2005-07-19T10:23:38-07:00</time>
      </trkpt>
      <trkpt lat="39.872109554708004" lon="-121.17411693558097">
        <time>2005-07-19T10:23:43-07:00</time>
      </trkpt>
      <trkpt lat="39.87215523608029" lon="-121.17412540130317">
        <time>2005-07-19T10:23:45-07:00</time>
      </trkpt>
      <trkpt lat="39.87221969291568" lon="-121.17413244210184">
        <time>2005-07-19T10:23:53-07:00</time>
      </trkpt>
      <trkpt lat="39.87232094630599" lon="-121.17413663305342">
        <time>2005-07-19T10:23:58-07:00</time>
      </trkpt>
      <trkpt lat="39.87234399653971" lon="-121.17414006963372">
        <time>2005-07-19T10:24:04-07:00</time>
      </trkpt>
      <trkpt lat="39.872401244938374" lon="-121.17413470521569">
        <time>2005-07-19T10:24:13-07:00</time>
      </trkpt>
      <trkpt lat="39.87249051220715" lon="-121.17412992753088">
        <time>2005-07-19T10:24:16-07:00</time>
      </trkpt>
      <trkpt lat="39.87257659435272" lon="-121.17413001134992">
        <time>2005-07-19T10:24:22-07:00</time>
      </trkpt>
      <trkpt lat="39.87268405035138" lon="-121.17414199747145">
        <time>2005-07-19T10:24:30-07:00</time>
      </trkpt>
      <trkpt lat="39.87283073365688" lon="-121.1741362977773">
        <time>2005-07-19T10:24:37-07:00</time>
      </trkpt>
      <trkpt lat="39.87290977500379" lon="-121.17414434440434">
        <time>2005-07-19T10:24:48-07:00</time>
      </trkpt>
      <trkpt lat="39.87293106503785" lon="-121.17414434440434">
        <time>2005-07-19T10:25:01-07:00</time>
      </trkpt>
      <trkpt lat="39.873032150790095" lon="-121.17415079846978">
        <time>2005-07-19T10:25:08-07:00</time>
      </trkpt>
      <trkpt lat="39.87313977442682" lon="-121.17416370660067">
        <time>2005-07-19T10:25:10-07:00</time>
      </trkpt>
      <trkpt lat="39.87322015687823" lon="-121.17419807240367">
        <time>2005-07-19T10:25:19-07:00</time>
      </trkpt>
      <trkpt lat="39.873299449682236" lon="-121.17422950454056">
        <time>2005-07-19T10:25:28-07:00</time>
      </trkpt>
      <trkpt lat="39.873383017256856" lon="-121.17427275516093">
        <time>2005-07-19T10:25:36-07:00</time>
      </trkpt>
      <trkpt lat="39.873458705842495" lon="-121.17430921643972">
        <time>2005-07-19T10:25:44-07:00</time>
      </trkpt>
      <trkpt lat="39.87348485738039" lon="-121.17431810125709">
        <time>2005-07-19T10:25:52-07:00</time>
      </trkpt>
      <trkpt lat="39.873561803251505" lon="-121.17436897940934">
        <time>2005-07-19T10:25:59-07:00</time>
      </trkpt>
      <trkpt lat="39.87361812964082" lon="-121.17440728470683">
        <time>2005-07-19T10:26:02-07:00</time>
      </trkpt>
      <trkpt lat="39.87363740801811" lon="-121.17441507987678">
        <time>2005-07-19T10:26:10-07:00</time>
      </trkpt>
      <trkpt lat="39.87373564392328" lon="-121.17447098717093">
        <time>2005-07-19T10:26:16-07:00</time>
      </trkpt>
      <trkpt lat="39.87379305996001" lon="-121.17449487559497">
        <time>2005-07-19T10:26:18-07:00</time>
      </trkpt>
      <trkpt lat="39.87382843159139" lon="-121.17451180703938">
        <time>2005-07-19T10:26:27-07:00</time>
      </trkpt>
      <trkpt lat="39.87389917485416" lon="-121.17454374209046">
        <time>2005-07-19T10:26:32-07:00</time>
      </trkpt>
      <trkpt lat="39.873917950317264" lon="-121.17455136962235">
        <time>2005-07-19T10:26:35-07:00</time>
      </trkpt>
      <trkpt lat="39.87392599694431" lon="-121.17455371655524">
        <time>2005-07-19T10:26:42-07:00</time>
      </trkpt>
      <trkpt lat="39.873977629467845" lon="-121.17457584477961">
        <time>2005-07-19T10:26:44-07:00</time>
      </trkpt>
      <trkpt lat="39.87405885010958" lon="-121.17462060414255">
        <time>2005-07-19T10:26:45-07:00</time>
      </trkpt>
      <trkpt lat="39.87407620064914" lon="-121.17463862523437">
        <time>2005-07-19T10:26:50-07:00</time>
      </trkpt>
      <trkpt lat="39.87414736300707" lon="-121.17468120530248">
        <time>2005-07-19T10:26:58-07:00</time>
      </trkpt>
      <trkpt lat="39.87422992475331" lon="-121.17473669350147">
        <time>2005-07-19T10:27:00-07:00</time>
      </trkpt>
      <trkpt lat="39.87429270520806" lon="-121.17478681728244">
        <time>2005-07-19T10:27:06-07:00</time>
      </trkpt>
      <trkpt lat="39.87435397692025" lon="-121.17482746951282">
        <time>2005-07-19T10:27:13-07:00</time>
      </trkpt>
      <trkpt lat="39.87442790530622" lon="-121.17487910203636">
        <time>2005-07-19T10:27:20-07:00</time>
      </trkpt>
      <trkpt lat="39.874474089592695" lon="-121.17492444813251">
        <time>2005-07-19T10:27:26-07:00</time>
      </trkpt>
      <trkpt lat="39.87449001520872" lon="-121.17494037374854">
        <time>2005-07-19T10:27:34-07:00</time>
      </trkpt>
      <trkpt lat="39.874541983008385" lon="-121.17497767321765">
        <time>2005-07-19T10:27:38-07:00</time>
      </trkpt>
      <trkpt lat="39.87457064911723" lon="-121.17499326355755">
        <time>2005-07-19T10:27:40-07:00</time>
      </trkpt>
      <trkpt lat="39.87462488003075" lon="-121.17503483779728">
        <time>2005-07-19T10:27:46-07:00</time>
      </trkpt>
      <trkpt lat="39.87466377206147" lon="-121.17506216280162">
        <time>2005-07-19T10:27:49-07:00</time>
      </trkpt>
      <trkpt lat="39.874686319381" lon="-121.1750771664083">
        <time>2005-07-19T10:27:55-07:00</time>
      </trkpt>
      <trkpt lat="39.87471129745245" lon="-121.17508546449244">
        <time>2005-07-19T10:27:58-07:00</time>
      </trkpt>
      <trkpt lat="39.87472613342106" lon="-121.17508688941598">
        <time>2005-07-19T10:28:00-07:00</time>
      </trkpt>
      <trkpt lat="39.874810539186" lon="-121.17509393021464">
        <time>2005-07-19T10:28:02-07:00</time>
      </trkpt>
      <trkpt lat="39.87490181811154" lon="-121.17508755996823">
        <time>2005-07-19T10:28:03-07:00</time>
      </trkpt>
      <trkpt lat="39.87498940899968" lon="-121.17505914531648">
        <time>2005-07-19T10:28:09-07:00</time>
      </trkpt>
      <trkpt lat="39.87503198906779" lon="-121.1750462371856">
        <time>2005-07-19T10:28:16-07:00</time>
      </trkpt>
      <trkpt lat="39.875088818371296" lon="-121.17502461187541">
        <time>2005-07-19T10:28:24-07:00</time>
      </trkpt>
      <trkpt lat="39.875180181115866" lon="-121.17498211562634">
        <time>2005-07-19T10:28:28-07:00</time>
      </trkpt>
      <trkpt lat="39.875231981277466" lon="-121.17495437152684">
        <time>2005-07-19T10:28:34-07:00</time>
      </trkpt>
      <trkpt lat="39.87528352998197" lon="-121.17493459023535">
        <time>2005-07-19T10:28:42-07:00</time>
      </trkpt>
      <trkpt lat="39.875408839434385" lon="-121.17489276453853">
        <time>2005-07-19T10:28:47-07:00</time>
      </trkpt>
      <trkpt lat="39.875490898266435" lon="-121.17484113201499">
        <time>2005-07-19T10:28:52-07:00</time>
      </trkpt>
      <trkpt lat="39.875538339838386" lon="-121.17479142732918">
        <time>2005-07-19T10:29:03-07:00</time>
      </trkpt>
      <trkpt lat="39.87555141560733" lon="-121.17477105930448">
        <time>2005-07-19T10:29:12-07:00</time>
      </trkpt>
      <trkpt lat="39.8755566123873" lon="-121.1747666168958">
        <time>2005-07-19T10:29:20-07:00</time>
      </trkpt>
      <trkpt lat="39.875558875501156" lon="-121.17476200684905">
        <time>2005-07-19T10:29:26-07:00</time>
      </trkpt>
      <trkpt lat="39.87555753439665" lon="-121.17476125247777">
        <time>2005-07-19T10:29:27-07:00</time>
      </trkpt>
      <trkpt lat="39.87553515471518" lon="-121.17476586252451">
        <time>2005-07-19T10:29:28-07:00</time>
      </trkpt>
      <trkpt lat="39.875584272667766" lon="-121.1747335921973">
        <time>2005-07-19T10:29:29-07:00</time>
      </trkpt>
      <trkpt lat="39.87563079223037" lon="-121.17470048367977">
        <time>2005-07-19T10:29:35-07:00</time>
      </trkpt>
      <trkpt lat="39.875655518844724" lon="-121.17468170821667">
        <time>2005-07-19T10:29:41-07:00</time>
      </trkpt>
      <trkpt lat="39.87572818994522" lon="-121.1746336799115">
        <time>2005-07-19T10:29:46-07:00</time>
      </trkpt>
      <trkpt lat="39.875803627073765" lon="-121.17457944899797">
        <time>2005-07-19T10:29:48-07:00</time>
      </trkpt>
      <trkpt lat="39.875862803310156" lon="-121.17453401908278">
        <time>2005-07-19T10:29:54-07:00</time>
      </trkpt>
      <trkpt lat="39.875906305387616" lon="-121.17451180703938">
        <time>2005-07-19T10:30:01-07:00</time>
      </trkpt>
      <trkpt lat="39.875950729474425" lon="-121.17447149008512">
        <time>2005-07-19T10:30:07-07:00</time>
      </trkpt>
      <trkpt lat="39.87600454129279" lon="-121.17443167604506">
        <time>2005-07-19T10:30:11-07:00</time>
      </trkpt>
      <trkpt lat="39.87607075832784" lon="-121.17438037879765">
        <time>2005-07-19T10:30:15-07:00</time>
      </trkpt>
      <trkpt lat="39.87611040472984" lon="-121.17433100938797">
        <time>2005-07-19T10:30:21-07:00</time>
      </trkpt>
      <trkpt lat="39.87618634477258" lon="-121.17425071075559">
        <time>2005-07-19T10:30:28-07:00</time>
      </trkpt>
      <trkpt lat="39.87624250352383" lon="-121.17415674962103">
        <time>2005-07-19T10:30:33-07:00</time>
      </trkpt>
      <trkpt lat="39.87628013826907" lon="-121.17406161502004">
        <time>2005-07-19T10:30:41-07:00</time>
      </trkpt>
      <trkpt lat="39.87630880437791" lon="-121.17393907159567">
        <time>2005-07-19T10:30:49-07:00</time>
      </trkpt>
      <trkpt lat="39.87631022930145" lon="-121.17392473854125">
        <time>2005-07-19T10:30:56-07:00</time>
      </trkpt>
      <trkpt lat="39.876317186281085" lon="-121.1738323699683">
        <time>2005-07-19T10:31:04-07:00</time>
      </trkpt>
      <trkpt lat="39.87630293704569" lon="-121.17369968444109">
        <time>2005-07-19T10:31:05-07:00</time>
      </trkpt>
      <trkpt lat="39.876263961195946" lon="-121.17355166003108">
        <time>2005-07-19T10:31:12-07:00</time>
      </trkpt>
      <trkpt lat="39.87624912522733" lon="-121.17339634336531">
        <time>2005-07-19T10:31:21-07:00</time>
      </trkpt>
      <trkpt lat="39.87627242691815" lon="-121.17329970002174">
        <time>2005-07-19T10:31:31-07:00</time>
      </trkpt>
      <trkpt lat="39.87633663229644" lon="-121.17320414632559">
        <time>2005-07-19T10:31:42-07:00</time>
      </trkpt>
      <trkpt lat="39.87639966420829" lon="-121.17314555682242">
        <time>2005-07-19T10:31:50-07:00</time>
      </trkpt>
      <trkpt lat="39.8764665517956" lon="-121.17309057153761">
        <time>2005-07-19T10:31:58-07:00</time>
      </trkpt>
      <trkpt lat="39.87656361423433" lon="-121.17299895733595">
        <time>2005-07-19T10:32:05-07:00</time>
      </trkpt>
      <trkpt lat="39.876605439931154" lon="-121.17295646108687">
        <time>2005-07-19T10:32:12-07:00</time>
      </trkpt>
      <trkpt lat="39.87663846462965" lon="-121.17293190211058">
        <time>2005-07-19T10:32:21-07:00</time>
      </trkpt>
      <trkpt lat="39.87671909853816" lon="-121.17287624627352">
        <time>2005-07-19T10:32:26-07:00</time>
      </trkpt>
      <trkpt lat="39.87679470330477" lon="-121.17283299565315">
        <time>2005-07-19T10:32:29-07:00</time>
      </trkpt>
      <trkpt lat="39.87686946988106" lon="-121.17278086021543">
        <time>2005-07-19T10:32:37-07:00</time>
      </trkpt>
      <trkpt lat="39.87694004550576" lon="-121.17272906005383">
        <time>2005-07-19T10:32:44-07:00</time>
      </trkpt>
      <trkpt lat="39.87702805548906" lon="-121.17267264984548">
        <time>2005-07-19T10:32:51-07:00</time>
      </trkpt>
      <trkpt lat="39.877111203968525" lon="-121.17261632345617">
        <time>2005-07-19T10:32:58-07:00</time>
      </trkpt>
      <trkpt lat="39.877199213951826" lon="-121.17256284691393">
        <time>2005-07-19T10:33:06-07:00</time>
      </trkpt>
      <trkpt lat="39.877239195629954" lon="-121.17253979668021">
        <time>2005-07-19T10:33:15-07:00</time>
      </trkpt>
      <trkpt lat="39.87729024142027" lon="-121.17251180112362">
        <time>2005-07-19T10:33:23-07:00</time>
      </trkpt>
      <trkpt lat="39.877298790961504" lon="-121.17250082083046">
        <time>2005-07-19T10:33:26-07:00</time>
      </trkpt>
      <trkpt lat="39.877361906692386" lon="-121.17244147695601">
        <time>2005-07-19T10:33:31-07:00</time>
      </trkpt>
      <trkpt lat="39.87741630524397" lon="-121.17239805869758">
        <time>2005-07-19T10:33:32-07:00</time>
      </trkpt>
      <trkpt lat="39.87748512066901" lon="-121.17234516888857">
        <time>2005-07-19T10:33:37-07:00</time>
      </trkpt>
      <trkpt lat="39.87751638516784" lon="-121.17232798598707">
        <time>2005-07-19T10:33:43-07:00</time>
      </trkpt>
      <trkpt lat="39.87759031355381" lon="-121.1722693964839">
        <time>2005-07-19T10:33:49-07:00</time>
      </trkpt>
      <trkpt lat="39.87763884477317" lon="-121.17222069762647">
        <time>2005-07-19T10:33:52-07:00</time>
      </trkpt>
      <trkpt lat="39.87765485420823" lon="-121.17219588719308">
        <time>2005-07-19T10:33:59-07:00</time>
      </trkpt>
      <trkpt lat="39.87772224470973" lon="-121.17213293910027">
        <time>2005-07-19T10:34:04-07:00</time>
      </trkpt>
      <trkpt lat="39.87780589610338" lon="-121.17206764407456">
        <time>2005-07-19T10:34:07-07:00</time>
      </trkpt>
      <trkpt lat="39.877873035147786" lon="-121.17199832573533">
        <time>2005-07-19T10:34:14-07:00</time>
      </trkpt>
      <trkpt lat="39.8779153637588" lon="-121.17191928438842">
        <time>2005-07-19T10:34:21-07:00</time>
      </trkpt>
      <trkpt lat="39.87800999544561" lon="-121.17181685753167">
        <time>2005-07-19T10:34:28-07:00</time>
      </trkpt>
      <trkpt lat="39.87805844284594" lon="-121.17175835184753">
        <time>2005-07-19T10:34:35-07:00</time>
      </trkpt>
      <trkpt lat="39.87808534875512" lon="-121.17172071710229">
        <time>2005-07-19T10:34:45-07:00</time>
      </trkpt>
      <trkpt lat="39.87816581502557" lon="-121.1716335453093">
        <time>2005-07-19T10:34:50-07:00</time>
      </trkpt>
      <trkpt lat="39.87824837677181" lon="-121.17153279483318">
        <time>2005-07-19T10:34:53-07:00</time>
      </trkpt>
      <trkpt lat="39.87832188606262" lon="-121.17144327610731">
        <time>2005-07-19T10:35:02-07:00</time>
      </trkpt>
      <trkpt lat="39.878331357613206" lon="-121.17141938768327">
        <time>2005-07-19T10:35:13-07:00</time>
      </trkpt>
      <trkpt lat="39.8783680703491" lon="-121.1713335569948">
        <time>2005-07-19T10:35:22-07:00</time>
      </trkpt>
      <trkpt lat="39.878416769206524" lon="-121.17119500413537">
        <time>2005-07-19T10:35:24-07:00</time>
      </trkpt>
      <trkpt lat="39.8784230556339" lon="-121.17118335328996">
        <time>2005-07-19T10:35:31-07:00</time>
      </trkpt>
      <trkpt lat="39.87846119329333" lon="-121.17110649123788">
        <time>2005-07-19T10:35:41-07:00</time>
      </trkpt>
      <trkpt lat="39.87850536592305" lon="-121.17096500471234">
        <time>2005-07-19T10:35:42-07:00</time>
      </trkpt>
      <trkpt lat="39.87851969897747" lon="-121.17093726061285">
        <time>2005-07-19T10:35:49-07:00</time>
      </trkpt>
      <trkpt lat="39.87855012528598" lon="-121.17083944380283">
        <time>2005-07-19T10:35:59-07:00</time>
      </trkpt>
      <trkpt lat="39.87858943641186" lon="-121.17069301195443">
        <time>2005-07-19T10:36:01-07:00</time>
      </trkpt>
      <trkpt lat="39.87860075198114" lon="-121.17063794285059">
        <time>2005-07-19T10:36:08-07:00</time>
      </trkpt>
      <trkpt lat="39.878608295693994" lon="-121.17054875940084">
        <time>2005-07-19T10:36:18-07:00</time>
      </trkpt>
      <trkpt lat="39.87863888964057" lon="-121.1703956220299">
        <time>2005-07-19T10:36:22-07:00</time>
      </trkpt>
      <trkpt lat="39.87863905727863" lon="-121.17035077884793">
        <time>2005-07-19T10:36:29-07:00</time>
      </trkpt>
      <trkpt lat="39.878654312342405" lon="-121.17020702920854">
        <time>2005-07-19T10:36:40-07:00</time>
      </trkpt>
      <trkpt lat="39.87868524156511" lon="-121.1700607649982">
        <time>2005-07-19T10:36:43-07:00</time>
      </trkpt>
      <trkpt lat="39.87870183773339" lon="-121.16996965371072">
        <time>2005-07-19T10:36:53-07:00</time>
      </trkpt>
      <trkpt lat="39.878708543255925" lon="-121.16987594403327">
        <time>2005-07-19T10:37:03-07:00</time>
      </trkpt>
      <trkpt lat="39.8787269834429" lon="-121.16978055797517">
        <time>2005-07-19T10:37:09-07:00</time>
      </trkpt>
      <trkpt lat="39.87875321879983" lon="-121.1696701683104">
        <time>2005-07-19T10:37:15-07:00</time>
      </trkpt>
      <trkpt lat="39.87876897677779" lon="-121.16952080279589">
        <time>2005-07-19T10:37:22-07:00</time>
      </trkpt>
      <trkpt lat="39.87879429012537" lon="-121.16936976090074">
        <time>2005-07-19T10:37:30-07:00</time>
      </trkpt>
      <trkpt lat="39.878816502168775" lon="-121.1692922282964">
        <time>2005-07-19T10:37:40-07:00</time>
      </trkpt>
      <trkpt lat="39.878837540745735" lon="-121.16921687498689">
        <time>2005-07-19T10:37:50-07:00</time>
      </trkpt>
      <trkpt lat="39.878847850486636" lon="-121.169074466452">
        <time>2005-07-19T10:37:55-07:00</time>
      </trkpt>
      <trkpt lat="39.87887408584356" lon="-121.16895267739892">
        <time>2005-07-19T10:38:00-07:00</time>
      </trkpt>
      <trkpt lat="39.87888028845191" lon="-121.16882275789976">
        <time>2005-07-19T10:38:09-07:00</time>
      </trkpt>
      <trkpt lat="39.87889990210533" lon="-121.16868630051613">
        <time>2005-07-19T10:38:18-07:00</time>
      </trkpt>
      <trkpt lat="39.878913229331374" lon="-121.16853014566004">
        <time>2005-07-19T10:38:27-07:00</time>
      </trkpt>
      <trkpt lat="39.8789325915277" lon="-121.16841380484402">
        <time>2005-07-19T10:38:36-07:00</time>
      </trkpt>
      <trkpt lat="39.87897835671902" lon="-121.16825832054019">
        <time>2005-07-19T10:38:46-07:00</time>
      </trkpt>
      <trkpt lat="39.87902504391968" lon="-121.16808749735355">
        <time>2005-07-19T10:38:54-07:00</time>
      </trkpt>
      <trkpt lat="39.87908128648996" lon="-121.16795053705573">
        <time>2005-07-19T10:39:04-07:00</time>
      </trkpt>
      <trkpt lat="39.87912210635841" lon="-121.16787132807076">
        <time>2005-07-19T10:39:15-07:00</time>
      </trkpt>
      <trkpt lat="39.87913534976542" lon="-121.16785204969347">
        <time>2005-07-19T10:39:24-07:00</time>
      </trkpt>
      <trkpt lat="39.879193687811494" lon="-121.16776663810015">
        <time>2005-07-19T10:39:30-07:00</time>
      </trkpt>
      <trkpt lat="39.879233753308654" lon="-121.16768692620099">
        <time>2005-07-19T10:39:32-07:00</time>
      </trkpt>
      <trkpt lat="39.879278764128685" lon="-121.16759321652353">
        <time>2005-07-19T10:39:38-07:00</time>
      </trkpt>
      <trkpt lat="39.87933123484254" lon="-121.16749866865575">
        <time>2005-07-19T10:39:44-07:00</time>
      </trkpt>
      <trkpt lat="39.87938563339412" lon="-121.16733438335359">
        <time>2005-07-19T10:39:51-07:00</time>
      </trkpt>
      <trkpt lat="39.87940072081983" lon="-121.16729171946645">
        <time>2005-07-19T10:39:58-07:00</time>
      </trkpt>
      <trkpt lat="39.87942175939679" lon="-121.16717143915594">
        <time>2005-07-19T10:40:09-07:00</time>
      </trkpt>
      <trkpt lat="39.8794471565634" lon="-121.16704797372222">
        <time>2005-07-19T10:40:12-07:00</time>
      </trkpt>
      <trkpt lat="39.87945537082851" lon="-121.16702106781304">
        <time>2005-07-19T10:40:20-07:00</time>
      </trkpt>
      <trkpt lat="39.87946811132133" lon="-121.16696298122406">
        <time>2005-07-19T10:40:28-07:00</time>
      </trkpt>
      <trkpt lat="39.879476157948375" lon="-121.16687052883208">
        <time>2005-07-19T10:40:30-07:00</time>
      </trkpt>
      <trkpt lat="39.87948185764253" lon="-121.16670984774828">
        <time>2005-07-19T10:40:34-07:00</time>
      </trkpt>
      <trkpt lat="39.879477163776755" lon="-121.16666408255696">
        <time>2005-07-19T10:40:39-07:00</time>
      </trkpt>
      <trkpt lat="39.8794783372432" lon="-121.16658143699169">
        <time>2005-07-19T10:40:49-07:00</time>
      </trkpt>
      <trkpt lat="39.87947498448193" lon="-121.16640550084412">
        <time>2005-07-19T10:40:52-07:00</time>
      </trkpt>
      <trkpt lat="39.87946081906557" lon="-121.1662664450705">
        <time>2005-07-19T10:40:57-07:00</time>
      </trkpt>
      <trkpt lat="39.87944916822016" lon="-121.16610802710056">
        <time>2005-07-19T10:41:08-07:00</time>
      </trkpt>
      <trkpt lat="39.87944916822016" lon="-121.16600702516735">
        <time>2005-07-19T10:41:16-07:00</time>
      </trkpt>
      <trkpt lat="39.87944799475372" lon="-121.16595891304314">
        <time>2005-07-19T10:41:26-07:00</time>
      </trkpt>
      <trkpt lat="39.87944112159312" lon="-121.16578021086752">
        <time>2005-07-19T10:41:32-07:00</time>
      </trkpt>
      <trkpt lat="39.87942670471966" lon="-121.1656004190445">
        <time>2005-07-19T10:41:35-07:00</time>
      </trkpt>
      <trkpt lat="39.879401391372085" lon="-121.16544962860644">
        <time>2005-07-19T10:41:45-07:00</time>
      </trkpt>
      <trkpt lat="39.87939787097275" lon="-121.16531451232731">
        <time>2005-07-19T10:41:55-07:00</time>
      </trkpt>
      <trkpt lat="39.87939954735339" lon="-121.16528693586588">
        <time>2005-07-19T10:42:05-07:00</time>
      </trkpt>
      <trkpt lat="39.87939242273569" lon="-121.1652251612395">
        <time>2005-07-19T10:42:14-07:00</time>
      </trkpt>
      <trkpt lat="39.87940130755305" lon="-121.16519574075937">
        <time>2005-07-19T10:42:16-07:00</time>
      </trkpt>
      <trkpt lat="39.87939242273569" lon="-121.1651548370719">
        <time>2005-07-19T10:42:23-07:00</time>
      </trkpt>
      <trkpt lat="39.87939443439245" lon="-121.16510848514736">
        <time>2005-07-19T10:42:30-07:00</time>
      </trkpt>
      <trkpt lat="39.8793987929821" lon="-121.16509390063584">
        <time>2005-07-19T10:42:36-07:00</time>
      </trkpt>
      <trkpt lat="39.87939912825823" lon="-121.16505132056773">
        <time>2005-07-19T10:42:42-07:00</time>
      </trkpt>
      <trkpt lat="39.87940323539078" lon="-121.16501519456506">
        <time>2005-07-19T10:42:45-07:00</time>
      </trkpt>
      <trkpt lat="39.87939099781215" lon="-121.16496289148927">
        <time>2005-07-19T10:42:49-07:00</time>
      </trkpt>
      <trkpt lat="39.87938990816474" lon="-121.16495224647224">
        <time>2005-07-19T10:42:52-07:00</time>
      </trkpt>
      <trkpt lat="39.87939233891666" lon="-121.16495174355805">
        <time>2005-07-19T10:42:56-07:00</time>
      </trkpt>
    </trkseg>
  </trk>
</gpx>
