<?xml version="1.0" encoding="UTF-8"?>
<gpx version="1.1" creator="GarminFitSummaryExtractor" xmlns="http://www.topografix.com/GPX/1/1" xmlns:xsi="http://www.w3.org/2001/XMLSchema-instance" xsi:schemaLocation="http://www.topografix.com/GPX/1/1 http://www.topografix.com/GPX/1/1/gpx.xsd">
  <metadata>
    <name>2025-05-31-16-49-18</name>
    <time>2005-06-01T16:49:18-07:00</time>
  </metadata>
  <trk>
    <name>2025-05-31-16-49-18</name>
    <type>HIKING</type>
    <trkseg>
      <trkpt lat="35.09897293522954" lon="-118.2932520378381">
        <time>2005-06-01T16:49:18-07:00</time>
      </trkpt>
      <trkpt lat="35.09900763630867" lon="-118.2931775227189">
        <time>2005-06-01T16:49:19-07:00</time>
      </trkpt>
      <trkpt lat="35.09902808815241" lon="-118.29314910806715">
        <time>2005-06-01T16:49:32-07:00</time>
      </trkpt>
      <trkpt lat="35.09903563186526" lon="-118.29313720576465">
        <time>2005-06-01T16:49:39-07:00</time>
      </trkpt>
      <trkpt lat="35.099056251347065" lon="-118.29310024157166">
        <time>2005-06-01T16:49:43-07:00</time>
      </trkpt>
      <trkpt lat="35.09912598878145" lon="-118.29302379861474">
        <time>2005-06-01T16:49:44-07:00</time>
      </trkpt>
      <trkpt lat="35.09915515780449" lon="-118.29301038756967">
        <time>2005-06-01T16:49:48-07:00</time>
      </trkpt>
      <trkpt lat="35.09921525605023" lon="-118.29298582859337">
        <time>2005-06-01T16:49:57-07:00</time>
      </trkpt>
      <trkpt lat="35.0992254819721" lon="-118.29297015443444">
        <time>2005-06-01T16:50:00-07:00</time>
      </trkpt>
      <trkpt lat="35.09922355413437" lon="-118.29294794239104">
        <time>2005-06-01T16:50:05-07:00</time>
      </trkpt>
      <trkpt lat="35.099317682906985" lon="-118.29293587245047">
        <time>2005-06-01T16:50:07-07:00</time>
      </trkpt>
      <trkpt lat="35.099403178319335" lon="-118.29290561378002">
        <time>2005-06-01T16:50:11-07:00</time>
      </trkpt>
      <trkpt lat="35.099413488060236" lon="-118.29290117137134">
        <time>2005-06-01T16:50:19-07:00</time>
      </trkpt>
      <trkpt lat="35.099445758387446" lon="-118.29289278946817">
        <time>2005-06-01T16:50:26-07:00</time>
      </trkpt>
      <trkpt lat="35.09947098791599" lon="-118.29289203509688">
        <time>2005-06-01T16:50:27-07:00</time>
      </trkpt>
      <trkpt lat="35.09949588216841" lon="-118.29289203509688">
        <time>2005-06-01T16:50:30-07:00</time>
      </trkpt>
      <trkpt lat="35.09951968677342" lon="-118.29288499429822">
        <time>2005-06-01T16:50:32-07:00</time>
      </trkpt>
      <trkpt lat="35.09959504008293" lon="-118.29286705702543">
        <time>2005-06-01T16:50:34-07:00</time>
      </trkpt>
      <trkpt lat="35.099626975134015" lon="-118.29285532236099">
        <time>2005-06-01T16:50:36-07:00</time>
      </trkpt>
      <trkpt lat="35.09965999983251" lon="-118.29285129904747">
        <time>2005-06-01T16:50:43-07:00</time>
      </trkpt>
      <trkpt lat="35.09971263818443" lon="-118.29284057021141">
        <time>2005-06-01T16:50:46-07:00</time>
      </trkpt>
      <trkpt lat="35.09981674142182" lon="-118.29280603677034">
        <time>2005-06-01T16:50:49-07:00</time>
      </trkpt>
      <trkpt lat="35.09987206198275" lon="-118.29278315417469">
        <time>2005-06-01T16:50:54-07:00</time>
      </trkpt>
      <trkpt lat="35.09991682134569" lon="-118.29276622273028">
        <time>2005-06-01T16:51:03-07:00</time>
      </trkpt>
      <trkpt lat="35.100017907097936" lon="-118.29271140508354">
        <time>2005-06-01T16:51:08-07:00</time>
      </trkpt>
      <trkpt lat="35.100075574591756" lon="-118.29265717417002">
        <time>2005-06-01T16:51:12-07:00</time>
      </trkpt>
      <trkpt lat="35.100099043920636" lon="-118.29256178811193">
        <time>2005-06-01T16:51:22-07:00</time>
      </trkpt>
      <trkpt lat="35.10010222904384" lon="-118.29251208342612">
        <time>2005-06-01T16:51:30-07:00</time>
      </trkpt>
      <trkpt lat="35.100115053355694" lon="-118.29243589192629">
        <time>2005-06-01T16:51:37-07:00</time>
      </trkpt>
      <trkpt lat="35.10011161677539" lon="-118.29232349060476">
        <time>2005-06-01T16:51:40-07:00</time>
      </trkpt>
      <trkpt lat="35.10010935366154" lon="-118.2922836765647">
        <time>2005-06-01T16:51:45-07:00</time>
      </trkpt>
      <trkpt lat="35.10012276470661" lon="-118.29218971543014">
        <time>2005-06-01T16:51:53-07:00</time>
      </trkpt>
      <trkpt lat="35.10017557069659" lon="-118.29213405959308">
        <time>2005-06-01T16:51:56-07:00</time>
      </trkpt>
      <trkpt lat="35.10018613189459" lon="-118.29212844371796">
        <time>2005-06-01T16:52:02-07:00</time>
      </trkpt>
      <trkpt lat="35.100264167413116" lon="-118.29206423833966">
        <time>2005-06-01T16:52:08-07:00</time>
      </trkpt>
      <trkpt lat="35.10027405805886" lon="-118.29204336740077">
        <time>2005-06-01T16:52:09-07:00</time>
      </trkpt>
      <trkpt lat="35.1002821046859" lon="-118.29198905266821">
        <time>2005-06-01T16:52:19-07:00</time>
      </trkpt>
      <trkpt lat="35.10028881020844" lon="-118.29191076569259">
        <time>2005-06-01T16:52:21-07:00</time>
      </trkpt>
      <trkpt lat="35.10030012577772" lon="-118.29186617396772">
        <time>2005-06-01T16:52:25-07:00</time>
      </trkpt>
      <trkpt lat="35.10031085461378" lon="-118.29184723086655">
        <time>2005-06-01T16:52:31-07:00</time>
      </trkpt>
      <trkpt lat="35.100311608985066" lon="-118.29184697940946">
        <time>2005-06-01T16:52:34-07:00</time>
      </trkpt>
      <trkpt lat="35.10031320154667" lon="-118.29184731468558">
        <time>2005-06-01T16:52:38-07:00</time>
      </trkpt>
      <trkpt lat="35.10031571611762" lon="-118.29184639267623">
        <time>2005-06-01T16:52:40-07:00</time>
      </trkpt>
      <trkpt lat="35.100320829078555" lon="-118.29185175709426">
        <time>2005-06-01T16:52:41-07:00</time>
      </trkpt>
      <trkpt lat="35.10031957179308" lon="-118.29185293056071">
        <time>2005-06-01T16:52:42-07:00</time>
      </trkpt>
      <trkpt lat="35.100318901240826" lon="-118.29185167327523">
        <time>2005-06-01T16:52:54-07:00</time>
      </trkpt>
      <trkpt lat="35.10031420737505" lon="-118.29184136353433">
        <time>2005-06-01T16:52:55-07:00</time>
      </trkpt>
      <trkpt lat="35.10030942969024" lon="-118.2917908206582">
        <time>2005-06-01T16:52:56-07:00</time>
      </trkpt>
      <trkpt lat="35.10032208636403" lon="-118.29174027778208">
        <time>2005-06-01T16:52:57-07:00</time>
      </trkpt>
      <trkpt lat="35.10032443329692" lon="-118.2917323987931">
        <time>2005-06-01T16:53:00-07:00</time>
      </trkpt>
      <trkpt lat="35.10033172555268" lon="-118.29169635660946">
        <time>2005-06-01T16:53:03-07:00</time>
      </trkpt>
      <trkpt lat="35.100354105234146" lon="-118.2916272059083">
        <time>2005-06-01T16:53:04-07:00</time>
      </trkpt>
      <trkpt lat="35.10035720653832" lon="-118.29160993918777">
        <time>2005-06-01T16:53:06-07:00</time>
      </trkpt>
      <trkpt lat="35.10037321597338" lon="-118.29149862751365">
        <time>2005-06-01T16:53:10-07:00</time>
      </trkpt>
      <trkpt lat="35.10037581436336" lon="-118.29147700220346">
        <time>2005-06-01T16:53:11-07:00</time>
      </trkpt>
      <trkpt lat="35.10039861313999" lon="-118.29140014015138">
        <time>2005-06-01T16:53:18-07:00</time>
      </trkpt>
      <trkpt lat="35.10040221735835" lon="-118.29136937856674">
        <time>2005-06-01T16:53:19-07:00</time>
      </trkpt>
      <trkpt lat="35.100419484078884" lon="-118.29126812517643">
        <time>2005-06-01T16:53:24-07:00</time>
      </trkpt>
      <trkpt lat="35.10042870417237" lon="-118.29118573106825">
        <time>2005-06-01T16:53:26-07:00</time>
      </trkpt>
      <trkpt lat="35.100430296733975" lon="-118.29113652929664">
        <time>2005-06-01T16:53:32-07:00</time>
      </trkpt>
      <trkpt lat="35.1004446297884" lon="-118.29104441218078">
        <time>2005-06-01T16:53:37-07:00</time>
      </trkpt>
      <trkpt lat="35.10044823400676" lon="-118.29102521762252">
        <time>2005-06-01T16:53:40-07:00</time>
      </trkpt>
      <trkpt lat="35.10047363117337" lon="-118.29089873470366">
        <time>2005-06-01T16:53:46-07:00</time>
      </trkpt>
      <trkpt lat="35.10048972442746" lon="-118.29079161398113">
        <time>2005-06-01T16:53:47-07:00</time>
      </trkpt>
      <trkpt lat="35.1005014590919" lon="-118.29071651212871">
        <time>2005-06-01T16:53:55-07:00</time>
      </trkpt>
      <trkpt lat="35.10050271637738" lon="-118.29070058651268">
        <time>2005-06-01T16:54:02-07:00</time>
      </trkpt>
      <trkpt lat="35.100513864308596" lon="-118.2906361296773">
        <time>2005-06-01T16:54:07-07:00</time>
      </trkpt>
      <trkpt lat="35.10051998309791" lon="-118.29057519324124">
        <time>2005-06-01T16:54:08-07:00</time>
      </trkpt>
      <trkpt lat="35.10055577382445" lon="-118.29046480357647">
        <time>2005-06-01T16:54:12-07:00</time>
      </trkpt>
      <trkpt lat="35.100575890392065" lon="-118.29037444666028">
        <time>2005-06-01T16:54:16-07:00</time>
      </trkpt>
      <trkpt lat="35.10057672858238" lon="-118.2903713453561">
        <time>2005-06-01T16:54:23-07:00</time>
      </trkpt>
      <trkpt lat="35.100579326972365" lon="-118.29027445055544">
        <time>2005-06-01T16:54:31-07:00</time>
      </trkpt>
      <trkpt lat="35.100586200132966" lon="-118.29024377278984">
        <time>2005-06-01T16:54:32-07:00</time>
      </trkpt>
      <trkpt lat="35.1006018742919" lon="-118.29021066427231">
        <time>2005-06-01T16:54:39-07:00</time>
      </trkpt>
      <trkpt lat="35.10061386041343" lon="-118.29021837562323">
        <time>2005-06-01T16:54:41-07:00</time>
      </trkpt>
      <trkpt lat="35.10061427950859" lon="-118.29022239893675">
        <time>2005-06-01T16:54:47-07:00</time>
      </trkpt>
      <trkpt lat="35.10061318986118" lon="-118.29022399149835">
        <time>2005-06-01T16:54:55-07:00</time>
      </trkpt>
      <trkpt lat="35.10061092674732" lon="-118.29021544195712">
        <time>2005-06-01T16:54:59-07:00</time>
      </trkpt>
      <trkpt lat="35.1006119325757" lon="-118.2902090717107">
        <time>2005-06-01T16:55:01-07:00</time>
      </trkpt>
      <trkpt lat="35.10064202360809" lon="-118.29011217691004">
        <time>2005-06-01T16:55:04-07:00</time>
      </trkpt>
      <trkpt lat="35.10068074800074" lon="-118.28999281860888">
        <time>2005-06-01T16:55:09-07:00</time>
      </trkpt>
      <trkpt lat="35.10069055482745" lon="-118.28989592380822">
        <time>2005-06-01T16:56:07-07:00</time>
      </trkpt>
      <trkpt lat="35.100693656131625" lon="-118.28987170010805">
        <time>2005-06-01T16:56:15-07:00</time>
      </trkpt>
      <trkpt lat="35.10070119984448" lon="-118.28979366458952">
        <time>2005-06-01T16:56:22-07:00</time>
      </trkpt>
      <trkpt lat="35.10070480406284" lon="-118.28975376673043">
        <time>2005-06-01T16:56:24-07:00</time>
      </trkpt>
      <trkpt lat="35.10071335360408" lon="-118.2897259388119">
        <time>2005-06-01T16:56:30-07:00</time>
      </trkpt>
      <trkpt lat="35.10072944685817" lon="-118.28964027576149">
        <time>2005-06-01T16:56:33-07:00</time>
      </trkpt>
      <trkpt lat="35.10072844102979" lon="-118.28961454331875">
        <time>2005-06-01T16:56:35-07:00</time>
      </trkpt>
      <trkpt lat="35.10075937025249" lon="-118.28947263769805">
        <time>2005-06-01T16:56:41-07:00</time>
      </trkpt>
      <trkpt lat="35.10077219456434" lon="-118.28943642787635">
        <time>2005-06-01T16:56:43-07:00</time>
      </trkpt>
      <trkpt lat="35.10079734027386" lon="-118.28935638070107">
        <time>2005-06-01T16:56:53-07:00</time>
      </trkpt>
      <trkpt lat="35.10080513544381" lon="-118.2893289718777">
        <time>2005-06-01T16:56:56-07:00</time>
      </trkpt>
      <trkpt lat="35.100816786289215" lon="-118.28926258720458">
        <time>2005-06-01T16:57:02-07:00</time>
      </trkpt>
      <trkpt lat="35.10081904940307" lon="-118.28924330882728">
        <time>2005-06-01T16:57:04-07:00</time>
      </trkpt>
      <trkpt lat="35.10082349181175" lon="-118.2891852222383">
        <time>2005-06-01T16:57:09-07:00</time>
      </trkpt>
      <trkpt lat="35.1008503139019" lon="-118.28903283923864">
        <time>2005-06-01T16:57:11-07:00</time>
      </trkpt>
      <trkpt lat="35.10085517540574" lon="-118.28897751867771">
        <time>2005-06-01T16:57:15-07:00</time>
      </trkpt>
      <trkpt lat="35.10087135247886" lon="-118.28890149481595">
        <time>2005-06-01T16:57:26-07:00</time>
      </trkpt>
      <trkpt lat="35.10088442824781" lon="-118.28879621811211">
        <time>2005-06-01T16:57:30-07:00</time>
      </trkpt>
      <trkpt lat="35.10089465416968" lon="-118.28875171020627">
        <time>2005-06-01T16:57:35-07:00</time>
      </trkpt>
      <trkpt lat="35.100919883698225" lon="-118.28867107629776">
        <time>2005-06-01T16:57:42-07:00</time>
      </trkpt>
      <trkpt lat="35.10092156007886" lon="-118.28865573741496">
        <time>2005-06-01T16:57:45-07:00</time>
      </trkpt>
      <trkpt lat="35.10093463584781" lon="-118.28855624422431">
        <time>2005-06-01T16:57:50-07:00</time>
      </trkpt>
      <trkpt lat="35.10095693171024" lon="-118.28843177296221">
        <time>2005-06-01T16:57:51-07:00</time>
      </trkpt>
      <trkpt lat="35.10096992366016" lon="-118.28831107355654">
        <time>2005-06-01T16:57:57-07:00</time>
      </trkpt>
      <trkpt lat="35.10099439881742" lon="-118.28822105191648">
        <time>2005-06-01T16:58:05-07:00</time>
      </trkpt>
      <trkpt lat="35.100999008864164" lon="-118.2882007677108">
        <time>2005-06-01T16:58:13-07:00</time>
      </trkpt>
      <trkpt lat="35.10101778432727" lon="-118.28809892758727">
        <time>2005-06-01T16:58:19-07:00</time>
      </trkpt>
      <trkpt lat="35.10102566331625" lon="-118.28802709467709">
        <time>2005-06-01T16:58:20-07:00</time>
      </trkpt>
      <trkpt lat="35.1010350510478" lon="-118.287960793823">
        <time>2005-06-01T16:58:26-07:00</time>
      </trkpt>
      <trkpt lat="35.10105483233929" lon="-118.28786322847009">
        <time>2005-06-01T16:58:31-07:00</time>
      </trkpt>
      <trkpt lat="35.10108835995197" lon="-118.28773406334221">
        <time>2005-06-01T16:58:36-07:00</time>
      </trkpt>
      <trkpt lat="35.1011130027473" lon="-118.28764546662569">
        <time>2005-06-01T16:58:42-07:00</time>
      </trkpt>
      <trkpt lat="35.10114535689354" lon="-118.28749735839665">
        <time>2005-06-01T16:58:50-07:00</time>
      </trkpt>
      <trkpt lat="35.10116597637534" lon="-118.2873946800828">
        <time>2005-06-01T16:58:56-07:00</time>
      </trkpt>
      <trkpt lat="35.101171592250466" lon="-118.28733751550317">
        <time>2005-06-01T16:59:05-07:00</time>
      </trkpt>
      <trkpt lat="35.10118743404746" lon="-118.28729091212153">
        <time>2005-06-01T16:59:12-07:00</time>
      </trkpt>
      <trkpt lat="35.10120461694896" lon="-118.28722192905843">
        <time>2005-06-01T16:59:16-07:00</time>
      </trkpt>
      <trkpt lat="35.10123252868652" lon="-118.28708974644542">
        <time>2005-06-01T16:59:19-07:00</time>
      </trkpt>
      <trkpt lat="35.10124216787517" lon="-118.28702855855227">
        <time>2005-06-01T16:59:23-07:00</time>
      </trkpt>
      <trkpt lat="35.1012647151947" lon="-118.28688019886613">
        <time>2005-06-01T16:59:31-07:00</time>
      </trkpt>
      <trkpt lat="35.10128022171557" lon="-118.28679654747248">
        <time>2005-06-01T16:59:35-07:00</time>
      </trkpt>
      <trkpt lat="35.101294722408056" lon="-118.28672722913325">
        <time>2005-06-01T16:59:44-07:00</time>
      </trkpt>
      <trkpt lat="35.101318107917905" lon="-118.28660493716598">
        <time>2005-06-01T16:59:49-07:00</time>
      </trkpt>
      <trkpt lat="35.101321544498205" lon="-118.28658792190254">
        <time>2005-06-01T16:59:53-07:00</time>
      </trkpt>
      <trkpt lat="35.10135096497834" lon="-118.28645783476532">
        <time>2005-06-01T17:00:01-07:00</time>
      </trkpt>
      <trkpt lat="35.10136077180505" lon="-118.28635725192726">
        <time>2005-06-01T17:00:02-07:00</time>
      </trkpt>
      <trkpt lat="35.101391868665814" lon="-118.28617469407618">
        <time>2005-06-01T17:00:11-07:00</time>
      </trkpt>
      <trkpt lat="35.10139513760805" lon="-118.28615876846015">
        <time>2005-06-01T17:00:17-07:00</time>
      </trkpt>
      <trkpt lat="35.1014375500381" lon="-118.28599205240607">
        <time>2005-06-01T17:00:28-07:00</time>
      </trkpt>
      <trkpt lat="35.10146051645279" lon="-118.28588845208287">
        <time>2005-06-01T17:00:29-07:00</time>
      </trkpt>
      <trkpt lat="35.10146428830922" lon="-118.2858716044575">
        <time>2005-06-01T17:00:40-07:00</time>
      </trkpt>
      <trkpt lat="35.10148398578167" lon="-118.28576188534498">
        <time>2005-06-01T17:00:47-07:00</time>
      </trkpt>
      <trkpt lat="35.10151826776564" lon="-118.2855867035687">
        <time>2005-06-01T17:00:48-07:00</time>
      </trkpt>
      <trkpt lat="35.10154911316931" lon="-118.28542459756136">
        <time>2005-06-01T17:00:56-07:00</time>
      </trkpt>
      <trkpt lat="35.101583981886506" lon="-118.2852494996041">
        <time>2005-06-01T17:01:08-07:00</time>
      </trkpt>
      <trkpt lat="35.101609379053116" lon="-118.28509493730962">
        <time>2005-06-01T17:01:20-07:00</time>
      </trkpt>
      <trkpt lat="35.10163796134293" lon="-118.28495571389794">
        <time>2005-06-01T17:01:32-07:00</time>
      </trkpt>
      <trkpt lat="35.10166386142373" lon="-118.28481397591531">
        <time>2005-06-01T17:01:43-07:00</time>
      </trkpt>
      <trkpt lat="35.10169168934226" lon="-118.28470802865922">
        <time>2005-06-01T17:01:53-07:00</time>
      </trkpt>
      <trkpt lat="35.10169428773224" lon="-118.28469227068126">
        <time>2005-06-01T17:02:03-07:00</time>
      </trkpt>
      <trkpt lat="35.101700238883495" lon="-118.28465706668794">
        <time>2005-06-01T17:02:10-07:00</time>
      </trkpt>
      <trkpt lat="35.101725636050105" lon="-118.28455505892634">
        <time>2005-06-01T17:02:11-07:00</time>
      </trkpt>
      <trkpt lat="35.101744746789336" lon="-118.28441793099046">
        <time>2005-06-01T17:02:13-07:00</time>
      </trkpt>
      <trkpt lat="35.1017689704895" lon="-118.28430712223053">
        <time>2005-06-01T17:02:19-07:00</time>
      </trkpt>
      <trkpt lat="35.10178757831454" lon="-118.28420226462185">
        <time>2005-06-01T17:02:28-07:00</time>
      </trkpt>
      <trkpt lat="35.10181280784309" lon="-118.28411308117211">
        <time>2005-06-01T17:02:36-07:00</time>
      </trkpt>
      <trkpt lat="35.10181909427047" lon="-118.28408114612103">
        <time>2005-06-01T17:02:44-07:00</time>
      </trkpt>
      <trkpt lat="35.10184415616095" lon="-118.28398282639682">
        <time>2005-06-01T17:02:50-07:00</time>
      </trkpt>
      <trkpt lat="35.10184717364609" lon="-118.2839666493237">
        <time>2005-06-01T17:02:52-07:00</time>
      </trkpt>
      <trkpt lat="35.10187751613557" lon="-118.2838252466172">
        <time>2005-06-01T17:02:58-07:00</time>
      </trkpt>
      <trkpt lat="35.101883886381984" lon="-118.28379792161286">
        <time>2005-06-01T17:02:59-07:00</time>
      </trkpt>
      <trkpt lat="35.10190869681537" lon="-118.28372835181653">
        <time>2005-06-01T17:03:09-07:00</time>
      </trkpt>
      <trkpt lat="35.10191733017564" lon="-118.28367219306529">
        <time>2005-06-01T17:03:11-07:00</time>
      </trkpt>
      <trkpt lat="35.10194926522672" lon="-118.28354210592806">
        <time>2005-06-01T17:03:16-07:00</time>
      </trkpt>
      <trkpt lat="35.101970974355936" lon="-118.28343154862523">
        <time>2005-06-01T17:03:20-07:00</time>
      </trkpt>
      <trkpt lat="35.10200240649283" lon="-118.28330263495445">
        <time>2005-06-01T17:03:28-07:00</time>
      </trkpt>
      <trkpt lat="35.102032916620374" lon="-118.28320305794477">
        <time>2005-06-01T17:03:36-07:00</time>
      </trkpt>
      <trkpt lat="35.10207264684141" lon="-118.28302343375981">
        <time>2005-06-01T17:03:45-07:00</time>
      </trkpt>
      <trkpt lat="35.10210055857897" lon="-118.2829187437892">
        <time>2005-06-01T17:03:52-07:00</time>
      </trkpt>
      <trkpt lat="35.10211145505309" lon="-118.28287733718753">
        <time>2005-06-01T17:04:04-07:00</time>
      </trkpt>
      <trkpt lat="35.102149341255426" lon="-118.28269670717418">
        <time>2005-06-01T17:04:11-07:00</time>
      </trkpt>
      <trkpt lat="35.10217700153589" lon="-118.28259536996484">
        <time>2005-06-01T17:04:14-07:00</time>
      </trkpt>
      <trkpt lat="35.10220030322671" lon="-118.28250953927636">
        <time>2005-06-01T17:04:26-07:00</time>
      </trkpt>
      <trkpt lat="35.1022198330611" lon="-118.28241574577987">
        <time>2005-06-01T17:04:32-07:00</time>
      </trkpt>
      <trkpt lat="35.10224908590317" lon="-118.2822987344116">
        <time>2005-06-01T17:04:38-07:00</time>
      </trkpt>
      <trkpt lat="35.10227280668914" lon="-118.28219027258456">
        <time>2005-06-01T17:04:45-07:00</time>
      </trkpt>
      <trkpt lat="35.1023044064641" lon="-118.28208155930042">
        <time>2005-06-01T17:04:52-07:00</time>
      </trkpt>
      <trkpt lat="35.10232779197395" lon="-118.28198801726103">
        <time>2005-06-01T17:05:00-07:00</time>
      </trkpt>
      <trkpt lat="35.10234002955258" lon="-118.28191601671278">
        <time>2005-06-01T17:05:07-07:00</time>
      </trkpt>
      <trkpt lat="35.102343298494816" lon="-118.28190051019192">
        <time>2005-06-01T17:05:14-07:00</time>
      </trkpt>
      <trkpt lat="35.10237313807011" lon="-118.28177989460528">
        <time>2005-06-01T17:05:19-07:00</time>
      </trkpt>
      <trkpt lat="35.10238654911518" lon="-118.28172717243433">
        <time>2005-06-01T17:05:20-07:00</time>
      </trkpt>
      <trkpt lat="35.10240909643471" lon="-118.28163254074752">
        <time>2005-06-01T17:05:28-07:00</time>
      </trkpt>
      <trkpt lat="35.10242996737361" lon="-118.2815455365926">
        <time>2005-06-01T17:05:32-07:00</time>
      </trkpt>
      <trkpt lat="35.102437091991305" lon="-118.28151678666472">
        <time>2005-06-01T17:05:38-07:00</time>
      </trkpt>
      <trkpt lat="35.102459555491805" lon="-118.28143380582333">
        <time>2005-06-01T17:05:44-07:00</time>
      </trkpt>
      <trkpt lat="35.10247053578496" lon="-118.28136197291315">
        <time>2005-06-01T17:05:46-07:00</time>
      </trkpt>
      <trkpt lat="35.10248243808746" lon="-118.28131838701665">
        <time>2005-06-01T17:05:52-07:00</time>
      </trkpt>
      <trkpt lat="35.102504063397646" lon="-118.28119886107743">
        <time>2005-06-01T17:05:57-07:00</time>
      </trkpt>
      <trkpt lat="35.10253130458295" lon="-118.28105762600899">
        <time>2005-06-01T17:06:00-07:00</time>
      </trkpt>
      <trkpt lat="35.10255410335958" lon="-118.28094363212585">
        <time>2005-06-01T17:06:08-07:00</time>
      </trkpt>
      <trkpt lat="35.102573465555906" lon="-118.28083609230816">
        <time>2005-06-01T17:06:18-07:00</time>
      </trkpt>
      <trkpt lat="35.102606657892466" lon="-118.28072654083371">
        <time>2005-06-01T17:06:25-07:00</time>
      </trkpt>
      <trkpt lat="35.10262501426041" lon="-118.28066828660667">
        <time>2005-06-01T17:06:32-07:00</time>
      </trkpt>
      <trkpt lat="35.10264747776091" lon="-118.28061020001769">
        <time>2005-06-01T17:06:39-07:00</time>
      </trkpt>
      <trkpt lat="35.102698439732194" lon="-118.28052311204374">
        <time>2005-06-01T17:06:43-07:00</time>
      </trkpt>
      <trkpt lat="35.102714197710156" lon="-118.28048606403172">
        <time>2005-06-01T17:06:47-07:00</time>
      </trkpt>
      <trkpt lat="35.1027359906584" lon="-118.28044180758297">
        <time>2005-06-01T17:06:55-07:00</time>
      </trkpt>
      <trkpt lat="35.102768344804645" lon="-118.28035237267613">
        <time>2005-06-01T17:06:59-07:00</time>
      </trkpt>
      <trkpt lat="35.102799190208316" lon="-118.28028263524175">
        <time>2005-06-01T17:07:03-07:00</time>
      </trkpt>
      <trkpt lat="35.102804470807314" lon="-118.28027157112956">
        <time>2005-06-01T17:07:10-07:00</time>
      </trkpt>
      <trkpt lat="35.10283783078194" lon="-118.28018900938332">
        <time>2005-06-01T17:07:16-07:00</time>
      </trkpt>
      <trkpt lat="35.10284344665706" lon="-118.2801707368344">
        <time>2005-06-01T17:07:17-07:00</time>
      </trkpt>
      <trkpt lat="35.10286356322467" lon="-118.28010024502873">
        <time>2005-06-01T17:07:24-07:00</time>
      </trkpt>
      <trkpt lat="35.102874878793955" lon="-118.28005774877965">
        <time>2005-06-01T17:07:25-07:00</time>
      </trkpt>
      <trkpt lat="35.10289549827576" lon="-118.27999253757298">
        <time>2005-06-01T17:07:30-07:00</time>
      </trkpt>
      <trkpt lat="35.102937910705805" lon="-118.27982272021472">
        <time>2005-06-01T17:07:33-07:00</time>
      </trkpt>
      <trkpt lat="35.102977054193616" lon="-118.2796717621386">
        <time>2005-06-01T17:07:38-07:00</time>
      </trkpt>
      <trkpt lat="35.10300404392183" lon="-118.27956707216799">
        <time>2005-06-01T17:07:50-07:00</time>
      </trkpt>
      <trkpt lat="35.10302265174687" lon="-118.27952910214663">
        <time>2005-06-01T17:08:00-07:00</time>
      </trkpt>
      <trkpt lat="35.10303966701031" lon="-118.2794767152518">
        <time>2005-06-01T17:08:08-07:00</time>
      </trkpt>
      <trkpt lat="35.103042013943195" lon="-118.27929181046784">
        <time>2005-06-01T17:08:12-07:00</time>
      </trkpt>
      <trkpt lat="35.10303589515388" lon="-118.27924160286784">
        <time>2005-06-01T17:08:16-07:00</time>
      </trkpt>
      <trkpt lat="35.10303975082934" lon="-118.27917815186083">
        <time>2005-06-01T17:08:28-07:00</time>
      </trkpt>
      <trkpt lat="35.10304067283869" lon="-118.27913548797369">
        <time>2005-06-01T17:08:31-07:00</time>
      </trkpt>
      <trkpt lat="35.10305039584637" lon="-118.27907329425216">
        <time>2005-06-01T17:08:36-07:00</time>
      </trkpt>
      <trkpt lat="35.10305601172149" lon="-118.2790178898722">
        <time>2005-06-01T17:08:39-07:00</time>
      </trkpt>
      <trkpt lat="35.103074703365564" lon="-118.27893566340208">
        <time>2005-06-01T17:08:43-07:00</time>
      </trkpt>
      <trkpt lat="35.103106051683426" lon="-118.27882317826152">
        <time>2005-06-01T17:08:46-07:00</time>
      </trkpt>
      <trkpt lat="35.103110410273075" lon="-118.27880691736937">
        <time>2005-06-01T17:08:51-07:00</time>
      </trkpt>
      <trkpt lat="35.10314838029444" lon="-118.278663251549">
        <time>2005-06-01T17:08:58-07:00</time>
      </trkpt>
      <trkpt lat="35.10317905806005" lon="-118.27853961847723">
        <time>2005-06-01T17:08:59-07:00</time>
      </trkpt>
      <trkpt lat="35.103202778846025" lon="-118.2784338388592">
        <time>2005-06-01T17:09:09-07:00</time>
      </trkpt>
      <trkpt lat="35.10324343107641" lon="-118.27829369343817">
        <time>2005-06-01T17:09:17-07:00</time>
      </trkpt>
      <trkpt lat="35.103281987831" lon="-118.2781555596739">
        <time>2005-06-01T17:09:24-07:00</time>
      </trkpt>
      <trkpt lat="35.10330059565604" lon="-118.27805330045521">
        <time>2005-06-01T17:09:33-07:00</time>
      </trkpt>
      <trkpt lat="35.10331962257624" lon="-118.27794768847525">
        <time>2005-06-01T17:09:42-07:00</time>
      </trkpt>
      <trkpt lat="35.103358095511794" lon="-118.27781450003386">
        <time>2005-06-01T17:09:49-07:00</time>
      </trkpt>
      <trkpt lat="35.10339128784835" lon="-118.27770293690264">
        <time>2005-06-01T17:09:56-07:00</time>
      </trkpt>
      <trkpt lat="35.10341500863433" lon="-118.27759665437043">
        <time>2005-06-01T17:10:05-07:00</time>
      </trkpt>
      <trkpt lat="35.10342196561396" lon="-118.27753026969731">
        <time>2005-06-01T17:10:13-07:00</time>
      </trkpt>
      <trkpt lat="35.103436298668385" lon="-118.2774649746716">
        <time>2005-06-01T17:10:20-07:00</time>
      </trkpt>
      <trkpt lat="35.103468149900436" lon="-118.27734276652336">
        <time>2005-06-01T17:10:24-07:00</time>
      </trkpt>
      <trkpt lat="35.1034992467612" lon="-118.27720371074975">
        <time>2005-06-01T17:10:28-07:00</time>
      </trkpt>
      <trkpt lat="35.103523805737495" lon="-118.2770975958556">
        <time>2005-06-01T17:10:36-07:00</time>
      </trkpt>
      <trkpt lat="35.1035634521395" lon="-118.27695619314909">
        <time>2005-06-01T17:10:45-07:00</time>
      </trkpt>
      <trkpt lat="35.10359102860093" lon="-118.27683457173407">
        <time>2005-06-01T17:10:52-07:00</time>
      </trkpt>
      <trkpt lat="35.103620281443" lon="-118.27669090591371">
        <time>2005-06-01T17:11:01-07:00</time>
      </trkpt>
      <trkpt lat="35.10363779962063" lon="-118.27659962698817">
        <time>2005-06-01T17:11:09-07:00</time>
      </trkpt>
      <trkpt lat="35.10367300361395" lon="-118.27648705802858">
        <time>2005-06-01T17:11:18-07:00</time>
      </trkpt>
      <trkpt lat="35.103707034140825" lon="-118.276371890679">
        <time>2005-06-01T17:11:25-07:00</time>
      </trkpt>
      <trkpt lat="35.1037479378283" lon="-118.27624247409403">
        <time>2005-06-01T17:11:32-07:00</time>
      </trkpt>
      <trkpt lat="35.103781716898084" lon="-118.2761229481548">
        <time>2005-06-01T17:11:40-07:00</time>
      </trkpt>
      <trkpt lat="35.10378548875451" lon="-118.27610559761524">
        <time>2005-06-01T17:11:49-07:00</time>
      </trkpt>
      <trkpt lat="35.103793535381556" lon="-118.27606209553778">
        <time>2005-06-01T17:11:57-07:00</time>
      </trkpt>
      <trkpt lat="35.10380803607404" lon="-118.27600174583495">
        <time>2005-06-01T17:11:58-07:00</time>
      </trkpt>
      <trkpt lat="35.103841815143824" lon="-118.27589051797986">
        <time>2005-06-01T17:12:01-07:00</time>
      </trkpt>
      <trkpt lat="35.103882970288396" lon="-118.27576277777553">
        <time>2005-06-01T17:12:05-07:00</time>
      </trkpt>
      <trkpt lat="35.10388942435384" lon="-118.27573461458087">
        <time>2005-06-01T17:12:13-07:00</time>
      </trkpt>
      <trkpt lat="35.10390853509307" lon="-118.27564895153046">
        <time>2005-06-01T17:12:21-07:00</time>
      </trkpt>
      <trkpt lat="35.10391901247203" lon="-118.27560008503497">
        <time>2005-06-01T17:12:23-07:00</time>
      </trkpt>
      <trkpt lat="35.10393552482128" lon="-118.2755449321121">
        <time>2005-06-01T17:12:30-07:00</time>
      </trkpt>
      <trkpt lat="35.103941559791565" lon="-118.27552632428706">
        <time>2005-06-01T17:12:34-07:00</time>
      </trkpt>
      <trkpt lat="35.1039485167712" lon="-118.27550863847136">
        <time>2005-06-01T17:12:38-07:00</time>
      </trkpt>
      <trkpt lat="35.10398497804999" lon="-118.27540185302496">
        <time>2005-06-01T17:12:39-07:00</time>
      </trkpt>
      <trkpt lat="35.10403367690742" lon="-118.27531493268907">
        <time>2005-06-01T17:12:40-07:00</time>
      </trkpt>
      <trkpt lat="35.10404407046735" lon="-118.27528844587505">
        <time>2005-06-01T17:12:48-07:00</time>
      </trkpt>
      <trkpt lat="35.10407365858555" lon="-118.27521552331746">
        <time>2005-06-01T17:12:55-07:00</time>
      </trkpt>
      <trkpt lat="35.10410651564598" lon="-118.27512281946838">
        <time>2005-06-01T17:12:57-07:00</time>
      </trkpt>
      <trkpt lat="35.10412403382361" lon="-118.27499792911112">
        <time>2005-06-01T17:13:03-07:00</time>
      </trkpt>
      <trkpt lat="35.10416359640658" lon="-118.27483682893217">
        <time>2005-06-01T17:13:09-07:00</time>
      </trkpt>
      <trkpt lat="35.10418941266835" lon="-118.27464387752116">
        <time>2005-06-01T17:13:17-07:00</time>
      </trkpt>
      <trkpt lat="35.10418899357319" lon="-118.27458394691348">
        <time>2005-06-01T17:13:27-07:00</time>
      </trkpt>
      <trkpt lat="35.10418958030641" lon="-118.27445277012885">
        <time>2005-06-01T17:13:39-07:00</time>
      </trkpt>
      <trkpt lat="35.10419083759189" lon="-118.27442167326808">
        <time>2005-06-01T17:13:43-07:00</time>
      </trkpt>
      <trkpt lat="35.10420575737953" lon="-118.2743138819933">
        <time>2005-06-01T17:13:51-07:00</time>
      </trkpt>
      <trkpt lat="35.104212295264006" lon="-118.27428328804672">
        <time>2005-06-01T17:13:53-07:00</time>
      </trkpt>
      <trkpt lat="35.10423400439322" lon="-118.27416778542101">
        <time>2005-06-01T17:13:59-07:00</time>
      </trkpt>
      <trkpt lat="35.10424096137285" lon="-118.2741180807352">
        <time>2005-06-01T17:14:01-07:00</time>
      </trkpt>
      <trkpt lat="35.10424565523863" lon="-118.27407441101968">
        <time>2005-06-01T17:14:09-07:00</time>
      </trkpt>
      <trkpt lat="35.10425663553178" lon="-118.27400148846209">
        <time>2005-06-01T17:14:12-07:00</time>
      </trkpt>
      <trkpt lat="35.10426627472043" lon="-118.273935187608">
        <time>2005-06-01T17:14:15-07:00</time>
      </trkpt>
      <trkpt lat="35.1042749080807" lon="-118.27390409074724">
        <time>2005-06-01T17:14:20-07:00</time>
      </trkpt>
      <trkpt lat="35.10427943430841" lon="-118.2738936971873">
        <time>2005-06-01T17:14:24-07:00</time>
      </trkpt>
      <trkpt lat="35.10429670102894" lon="-118.27381750568748">
        <time>2005-06-01T17:14:26-07:00</time>
      </trkpt>
      <trkpt lat="35.10430105961859" lon="-118.27380132861435">
        <time>2005-06-01T17:14:27-07:00</time>
      </trkpt>
      <trkpt lat="35.10430860333145" lon="-118.27376880683005">
        <time>2005-06-01T17:14:32-07:00</time>
      </trkpt>
      <trkpt lat="35.10433366522193" lon="-118.27366386540234">
        <time>2005-06-01T17:14:33-07:00</time>
      </trkpt>
      <trkpt lat="35.104344142600894" lon="-118.27361181378365">
        <time>2005-06-01T17:14:35-07:00</time>
      </trkpt>
      <trkpt lat="35.10436249896884" lon="-118.2735033519566">
        <time>2005-06-01T17:14:42-07:00</time>
      </trkpt>
      <trkpt lat="35.104389572516084" lon="-118.27339120209217">
        <time>2005-06-01T17:14:46-07:00</time>
      </trkpt>
      <trkpt lat="35.10441429913044" lon="-118.2732633780688">
        <time>2005-06-01T17:14:53-07:00</time>
      </trkpt>
      <trkpt lat="35.10445537045598" lon="-118.27311418019235">
        <time>2005-06-01T17:15:01-07:00</time>
      </trkpt>
      <trkpt lat="35.10446769185364" lon="-118.2730083167553">
        <time>2005-06-01T17:15:09-07:00</time>
      </trkpt>
      <trkpt lat="35.104494178667665" lon="-118.27288661152124">
        <time>2005-06-01T17:15:19-07:00</time>
      </trkpt>
      <trkpt lat="35.10451999492943" lon="-118.27276038005948">
        <time>2005-06-01T17:15:26-07:00</time>
      </trkpt>
      <trkpt lat="35.10454807430506" lon="-118.27263180166483">
        <time>2005-06-01T17:15:34-07:00</time>
      </trkpt>
      <trkpt lat="35.10457422584295" lon="-118.2725141197443">
        <time>2005-06-01T17:15:42-07:00</time>
      </trkpt>
      <trkpt lat="35.10459895245731" lon="-118.27240783721209">
        <time>2005-06-01T17:15:51-07:00</time>
      </trkpt>
      <trkpt lat="35.10463289916515" lon="-118.2722707092762">
        <time>2005-06-01T17:15:59-07:00</time>
      </trkpt>
      <trkpt lat="35.10470598936081" lon="-118.27217783778906">
        <time>2005-06-01T17:16:06-07:00</time>
      </trkpt>
      <trkpt lat="35.10478016920388" lon="-118.27212075702846">
        <time>2005-06-01T17:16:16-07:00</time>
      </trkpt>
      <trkpt lat="35.10476969182491" lon="-118.27200257219374">
        <time>2005-06-01T17:16:25-07:00</time>
      </trkpt>
      <trkpt lat="35.10475007817149" lon="-118.27183610759676">
        <time>2005-06-01T17:16:32-07:00</time>
      </trkpt>
      <trkpt lat="35.10475535877049" lon="-118.27165522612631">
        <time>2005-06-01T17:16:40-07:00</time>
      </trkpt>
      <trkpt lat="35.10476910509169" lon="-118.27154106460512">
        <time>2005-06-01T17:16:51-07:00</time>
      </trkpt>
      <trkpt lat="35.10478561744094" lon="-118.27144383452833">
        <time>2005-06-01T17:17:03-07:00</time>
      </trkpt>
      <trkpt lat="35.10480238124728" lon="-118.2714226283133">
        <time>2005-06-01T17:17:11-07:00</time>
      </trkpt>
      <trkpt lat="35.10485745035112" lon="-118.2713713310659">
        <time>2005-06-01T17:17:18-07:00</time>
      </trkpt>
      <trkpt lat="35.10492551140487" lon="-118.27132564969361">
        <time>2005-06-01T17:17:20-07:00</time>
      </trkpt>
      <trkpt lat="35.10498007759452" lon="-118.27121660113335">
        <time>2005-06-01T17:17:25-07:00</time>
      </trkpt>
      <trkpt lat="35.10494923219085" lon="-118.27116966247559">
        <time>2005-06-01T17:17:31-07:00</time>
      </trkpt>
      <trkpt lat="35.104924673214555" lon="-118.27114225365222">
        <time>2005-06-01T17:17:39-07:00</time>
      </trkpt>
      <trkpt lat="35.10484538041055" lon="-118.27106916345656">
        <time>2005-06-01T17:17:43-07:00</time>
      </trkpt>
      <trkpt lat="35.10482291691005" lon="-118.27100646682084">
        <time>2005-06-01T17:17:45-07:00</time>
      </trkpt>
      <trkpt lat="35.10484881699085" lon="-118.27093245461583">
        <time>2005-06-01T17:17:53-07:00</time>
      </trkpt>
      <trkpt lat="35.10486809536815" lon="-118.27091912738979">
        <time>2005-06-01T17:17:59-07:00</time>
      </trkpt>
      <trkpt lat="35.10487840510905" lon="-118.27091284096241">
        <time>2005-06-01T17:18:04-07:00</time>
      </trkpt>
      <trkpt lat="35.10492735542357" lon="-118.2708890363574">
        <time>2005-06-01T17:18:06-07:00</time>
      </trkpt>
      <trkpt lat="35.10499910451472" lon="-118.27085215598345">
        <time>2005-06-01T17:18:07-07:00</time>
      </trkpt>
      <trkpt lat="35.10507353581488" lon="-118.27080580405891">
        <time>2005-06-01T17:18:12-07:00</time>
      </trkpt>
      <trkpt lat="35.105179315432906" lon="-118.27073380351067">
        <time>2005-06-01T17:18:18-07:00</time>
      </trkpt>
      <trkpt lat="35.10519138537347" lon="-118.27072709798813">
        <time>2005-06-01T17:18:25-07:00</time>
      </trkpt>
      <trkpt lat="35.1052728574723" lon="-118.27063087373972">
        <time>2005-06-01T17:18:35-07:00</time>
      </trkpt>
      <trkpt lat="35.10532499291003" lon="-118.27057924121618">
        <time>2005-06-01T17:18:36-07:00</time>
      </trkpt>
      <trkpt lat="35.10537042282522" lon="-118.27053029090166">
        <time>2005-06-01T17:18:45-07:00</time>
      </trkpt>
      <trkpt lat="35.10540344752371" lon="-118.27048989012837">
        <time>2005-06-01T17:18:50-07:00</time>
      </trkpt>
      <trkpt lat="35.105419708415866" lon="-118.270478323102">
        <time>2005-06-01T17:18:55-07:00</time>
      </trkpt>
      <trkpt lat="35.10546086356044" lon="-118.27042425982654">
        <time>2005-06-01T17:18:59-07:00</time>
      </trkpt>
      <trkpt lat="35.10550495237112" lon="-118.2703694421798">
        <time>2005-06-01T17:19:01-07:00</time>
      </trkpt>
      <trkpt lat="35.105545185506344" lon="-118.27029006555676">
        <time>2005-06-01T17:19:05-07:00</time>
      </trkpt>
      <trkpt lat="35.10555583052337" lon="-118.27026693150401">
        <time>2005-06-01T17:19:11-07:00</time>
      </trkpt>
      <trkpt lat="35.10559329763055" lon="-118.27020079828799">
        <time>2005-06-01T17:19:17-07:00</time>
      </trkpt>
      <trkpt lat="35.10559832677245" lon="-118.27019669115543">
        <time>2005-06-01T17:19:19-07:00</time>
      </trkpt>
      <trkpt lat="35.105629758909345" lon="-118.27014313079417">
        <time>2005-06-01T17:19:24-07:00</time>
      </trkpt>
      <trkpt lat="35.10564954020083" lon="-118.2701104413718">
        <time>2005-06-01T17:19:25-07:00</time>
      </trkpt>
      <trkpt lat="35.10571952909231" lon="-118.27001589350402">
        <time>2005-06-01T17:19:30-07:00</time>
      </trkpt>
      <trkpt lat="35.10576043277979" lon="-118.26994179747999">
        <time>2005-06-01T17:19:33-07:00</time>
      </trkpt>
      <trkpt lat="35.10579479858279" lon="-118.26988572254777">
        <time>2005-06-01T17:19:42-07:00</time>
      </trkpt>
      <trkpt lat="35.10586269199848" lon="-118.26977885328233">
        <time>2005-06-01T17:19:48-07:00</time>
      </trkpt>
      <trkpt lat="35.105898985639215" lon="-118.26972713693976">
        <time>2005-06-01T17:19:53-07:00</time>
      </trkpt>
      <trkpt lat="35.10591474361718" lon="-118.26970249414444">
        <time>2005-06-01T17:20:02-07:00</time>
      </trkpt>
      <trkpt lat="35.105932261794806" lon="-118.26968438923359">
        <time>2005-06-01T17:20:08-07:00</time>
      </trkpt>
      <trkpt lat="35.105973333120346" lon="-118.26962219551206">
        <time>2005-06-01T17:20:11-07:00</time>
      </trkpt>
      <trkpt lat="35.10604089125991" lon="-118.2695160806179">
        <time>2005-06-01T17:20:13-07:00</time>
      </trkpt>
      <trkpt lat="35.10610434226692" lon="-118.26943125575781">
        <time>2005-06-01T17:20:18-07:00</time>
      </trkpt>
      <trkpt lat="35.10611473582685" lon="-118.2694227900356">
        <time>2005-06-01T17:20:28-07:00</time>
      </trkpt>
      <trkpt lat="35.10618447326124" lon="-118.26932061463594">
        <time>2005-06-01T17:20:36-07:00</time>
      </trkpt>
      <trkpt lat="35.10622562840581" lon="-118.26925816945732">
        <time>2005-06-01T17:20:37-07:00</time>
      </trkpt>
      <trkpt lat="35.106241470202804" lon="-118.26922883279622">
        <time>2005-06-01T17:20:46-07:00</time>
      </trkpt>
      <trkpt lat="35.1062866486609" lon="-118.2691534794867">
        <time>2005-06-01T17:20:51-07:00</time>
      </trkpt>
      <trkpt lat="35.10630768723786" lon="-118.26911391690373">
        <time>2005-06-01T17:20:53-07:00</time>
      </trkpt>
      <trkpt lat="35.106313303112984" lon="-118.26910528354347">
        <time>2005-06-01T17:21:00-07:00</time>
      </trkpt>
      <trkpt lat="35.106327468529344" lon="-118.2690842449665">
        <time>2005-06-01T17:21:03-07:00</time>
      </trkpt>
      <trkpt lat="35.1063730660826" lon="-118.26900796964765">
        <time>2005-06-01T17:21:04-07:00</time>
      </trkpt>
      <trkpt lat="35.10638203471899" lon="-118.26899447478354">
        <time>2005-06-01T17:21:06-07:00</time>
      </trkpt>
      <trkpt lat="35.10644959285855" lon="-118.26891308650374">
        <time>2005-06-01T17:21:12-07:00</time>
      </trkpt>
      <trkpt lat="35.10648647323251" lon="-118.26885801739991">
        <time>2005-06-01T17:21:13-07:00</time>
      </trkpt>
      <trkpt lat="35.1065041590482" lon="-118.26882993802428">
        <time>2005-06-01T17:21:21-07:00</time>
      </trkpt>
      <trkpt lat="35.106522012501955" lon="-118.26878936961293">
        <time>2005-06-01T17:21:26-07:00</time>
      </trkpt>
      <trkpt lat="35.10655453428626" lon="-118.26873195357621">
        <time>2005-06-01T17:21:29-07:00</time>
      </trkpt>
      <trkpt lat="35.10663223452866" lon="-118.26862047426403">
        <time>2005-06-01T17:21:32-07:00</time>
      </trkpt>
      <trkpt lat="35.106644639745355" lon="-118.2685960829258">
        <time>2005-06-01T17:21:37-07:00</time>
      </trkpt>
      <trkpt lat="35.10670540854335" lon="-118.26846909709275">
        <time>2005-06-01T17:21:47-07:00</time>
      </trkpt>
      <trkpt lat="35.10676064528525" lon="-118.26835376210511">
        <time>2005-06-01T17:21:49-07:00</time>
      </trkpt>
      <trkpt lat="35.10678897611797" lon="-118.26832199469209">
        <time>2005-06-01T17:21:59-07:00</time>
      </trkpt>
      <trkpt lat="35.10683801025152" lon="-118.26826432719827">
        <time>2005-06-01T17:22:08-07:00</time>
      </trkpt>
      <trkpt lat="35.10688729584217" lon="-118.26820682734251">
        <time>2005-06-01T17:22:11-07:00</time>
      </trkpt>
      <trkpt lat="35.10691646486521" lon="-118.26816122978926">
        <time>2005-06-01T17:22:17-07:00</time>
      </trkpt>
      <trkpt lat="35.10698838159442" lon="-118.26806852594018">
        <time>2005-06-01T17:22:23-07:00</time>
      </trkpt>
      <trkpt lat="35.107063399627805" lon="-118.26799334026873">
        <time>2005-06-01T17:22:27-07:00</time>
      </trkpt>
      <trkpt lat="35.10707060806453" lon="-118.26798328198493">
        <time>2005-06-01T17:22:36-07:00</time>
      </trkpt>
      <trkpt lat="35.10709969326854" lon="-118.26790566556156">
        <time>2005-06-01T17:22:44-07:00</time>
      </trkpt>
      <trkpt lat="35.10711855255067" lon="-118.26784581877291">
        <time>2005-06-01T17:22:45-07:00</time>
      </trkpt>
      <trkpt lat="35.10713783092797" lon="-118.26779871247709">
        <time>2005-06-01T17:22:52-07:00</time>
      </trkpt>
      <trkpt lat="35.107160713523626" lon="-118.26776032336056">
        <time>2005-06-01T17:22:56-07:00</time>
      </trkpt>
      <trkpt lat="35.10717353783548" lon="-118.2677287235856">
        <time>2005-06-01T17:22:59-07:00</time>
      </trkpt>
      <trkpt lat="35.107226679101586" lon="-118.26764264144003">
        <time>2005-06-01T17:23:02-07:00</time>
      </trkpt>
      <trkpt lat="35.107249058783054" lon="-118.26760098338127">
        <time>2005-06-01T17:23:04-07:00</time>
      </trkpt>
      <trkpt lat="35.10729582980275" lon="-118.26753979548812">
        <time>2005-06-01T17:23:12-07:00</time>
      </trkpt>
      <trkpt lat="35.107345785945654" lon="-118.26747282408178">
        <time>2005-06-01T17:23:15-07:00</time>
      </trkpt>
      <trkpt lat="35.107378559187055" lon="-118.267428483814">
        <time>2005-06-01T17:23:21-07:00</time>
      </trkpt>
      <trkpt lat="35.10739440098405" lon="-118.26740677468479">
        <time>2005-06-01T17:23:28-07:00</time>
      </trkpt>
      <trkpt lat="35.10746103711426" lon="-118.26734583824873">
        <time>2005-06-01T17:23:32-07:00</time>
      </trkpt>
      <trkpt lat="35.107533456757665" lon="-118.2672802079469">
        <time>2005-06-01T17:23:34-07:00</time>
      </trkpt>
      <trkpt lat="35.10758207179606" lon="-118.26724383048713">
        <time>2005-06-01T17:23:42-07:00</time>
      </trkpt>
      <trkpt lat="35.107600344344974" lon="-118.26722513884306">
        <time>2005-06-01T17:23:50-07:00</time>
      </trkpt>
      <trkpt lat="35.107606295496225" lon="-118.26721767894924">
        <time>2005-06-01T17:23:55-07:00</time>
      </trkpt>
      <trkpt lat="35.10761434212327" lon="-118.26720133423805">
        <time>2005-06-01T17:23:57-07:00</time>
      </trkpt>
      <trkpt lat="35.10762448422611" lon="-118.26714978553355">
        <time>2005-06-01T17:23:58-07:00</time>
      </trkpt>
      <trkpt lat="35.107632111757994" lon="-118.26712195761502">
        <time>2005-06-01T17:24:00-07:00</time>
      </trkpt>
      <trkpt lat="35.10764669626951" lon="-118.26708063483238">
        <time>2005-06-01T17:24:04-07:00</time>
      </trkpt>
      <trkpt lat="35.10766044259071" lon="-118.26705733314157">
        <time>2005-06-01T17:24:06-07:00</time>
      </trkpt>
      <trkpt lat="35.10770620778203" lon="-118.26694434508681">
        <time>2005-06-01T17:24:09-07:00</time>
      </trkpt>
      <trkpt lat="35.10777720250189" lon="-118.26683823019266">
        <time>2005-06-01T17:24:11-07:00</time>
      </trkpt>
      <trkpt lat="35.107837887480855" lon="-118.26672448776662">
        <time>2005-06-01T17:24:20-07:00</time>
      </trkpt>
      <trkpt lat="35.10784308426082" lon="-118.26671241782606">
        <time>2005-06-01T17:24:29-07:00</time>
      </trkpt>
      <trkpt lat="35.107862781733274" lon="-118.26668224297464">
        <time>2005-06-01T17:24:39-07:00</time>
      </trkpt>
      <trkpt lat="35.107900500297546" lon="-118.26662046834826">
        <time>2005-06-01T17:24:40-07:00</time>
      </trkpt>
      <trkpt lat="35.1079392246902" lon="-118.2665584422648">
        <time>2005-06-01T17:24:43-07:00</time>
      </trkpt>
      <trkpt lat="35.10797400958836" lon="-118.26649222522974">
        <time>2005-06-01T17:24:48-07:00</time>
      </trkpt>
      <trkpt lat="35.107988845556974" lon="-118.26647588051856">
        <time>2005-06-01T17:24:54-07:00</time>
      </trkpt>
      <trkpt lat="35.10804181918502" lon="-118.26641360297799">
        <time>2005-06-01T17:25:00-07:00</time>
      </trkpt>
      <trkpt lat="35.108049698174" lon="-118.2664011977613">
        <time>2005-06-01T17:25:02-07:00</time>
      </trkpt>
      <trkpt lat="35.1080964691937" lon="-118.2663269340992">
        <time>2005-06-01T17:25:09-07:00</time>
      </trkpt>
      <trkpt lat="35.108105605468154" lon="-118.26632014475763">
        <time>2005-06-01T17:25:10-07:00</time>
      </trkpt>
      <trkpt lat="35.108156902715564" lon="-118.26625669375062">
        <time>2005-06-01T17:25:17-07:00</time>
      </trkpt>
      <trkpt lat="35.108205769211054" lon="-118.26618972234428">
        <time>2005-06-01T17:25:18-07:00</time>
      </trkpt>
      <trkpt lat="35.10821155272424" lon="-118.2661781553179">
        <time>2005-06-01T17:25:24-07:00</time>
      </trkpt>
      <trkpt lat="35.10826779529452" lon="-118.26608469709754">
        <time>2005-06-01T17:25:32-07:00</time>
      </trkpt>
      <trkpt lat="35.10827919468284" lon="-118.26606323942542">
        <time>2005-06-01T17:25:33-07:00</time>
      </trkpt>
      <trkpt lat="35.10829746723175" lon="-118.26603960245848">
        <time>2005-06-01T17:25:42-07:00</time>
      </trkpt>
      <trkpt lat="35.10830978862941" lon="-118.266027783975">
        <time>2005-06-01T17:25:44-07:00</time>
      </trkpt>
      <trkpt lat="35.10834180749953" lon="-118.26599241234362">
        <time>2005-06-01T17:25:47-07:00</time>
      </trkpt>
      <trkpt lat="35.10837416164577" lon="-118.2659556157887">
        <time>2005-06-01T17:25:49-07:00</time>
      </trkpt>
      <trkpt lat="35.10838338173926" lon="-118.26594245620072">
        <time>2005-06-01T17:25:53-07:00</time>
      </trkpt>
      <trkpt lat="35.108410622924566" lon="-118.26590205542743">
        <time>2005-06-01T17:25:57-07:00</time>
      </trkpt>
      <trkpt lat="35.108446665108204" lon="-118.26582997106016">
        <time>2005-06-01T17:25:58-07:00</time>
      </trkpt>
      <trkpt lat="35.10845144279301" lon="-118.26581731438637">
        <time>2005-06-01T17:26:03-07:00</time>
      </trkpt>
      <trkpt lat="35.108483880758286" lon="-118.2657619100064">
        <time>2005-06-01T17:26:10-07:00</time>
      </trkpt>
      <trkpt lat="35.108506847172976" lon="-118.26570725999773">
        <time>2005-06-01T17:26:11-07:00</time>
      </trkpt>
      <trkpt lat="35.10851045139134" lon="-118.26569234021008">
        <time>2005-06-01T17:26:17-07:00</time>
      </trkpt>
      <trkpt lat="35.10851623490453" lon="-118.26567297801375">
        <time>2005-06-01T17:26:22-07:00</time>
      </trkpt>
      <trkpt lat="35.10855286382139" lon="-118.26558144763112">
        <time>2005-06-01T17:26:23-07:00</time>
      </trkpt>
      <trkpt lat="35.10857876390219" lon="-118.26565948314965">
        <time>2005-06-01T17:26:25-07:00</time>
      </trkpt>
      <trkpt lat="35.108601143583655" lon="-118.26564179733396">
        <time>2005-06-01T17:48:27-07:00</time>
      </trkpt>
      <trkpt lat="35.10859100148082" lon="-118.26561883091927">
        <time>2005-06-01T17:48:28-07:00</time>
      </trkpt>
      <trkpt lat="35.10860432870686" lon="-118.26558320783079">
        <time>2005-06-01T17:48:32-07:00</time>
      </trkpt>
      <trkpt lat="35.10861019603908" lon="-118.2655602414161">
        <time>2005-06-01T17:48:35-07:00</time>
      </trkpt>
      <trkpt lat="35.108623187989" lon="-118.26554364524782">
        <time>2005-06-01T17:48:36-07:00</time>
      </trkpt>
      <trkpt lat="35.10864933952689" lon="-118.26551271602511">
        <time>2005-06-01T17:48:39-07:00</time>
      </trkpt>
      <trkpt lat="35.10866140946746" lon="-118.26549134217203">
        <time>2005-06-01T17:48:40-07:00</time>
      </trkpt>
      <trkpt lat="35.108695942908525" lon="-118.26545312069356">
        <time>2005-06-01T17:48:42-07:00</time>
      </trkpt>
      <trkpt lat="35.10870918631554" lon="-118.26543828472495">
        <time>2005-06-01T17:48:43-07:00</time>
      </trkpt>
      <trkpt lat="35.108742378652096" lon="-118.26539159752429">
        <time>2005-06-01T17:48:45-07:00</time>
      </trkpt>
      <trkpt lat="35.10875042527914" lon="-118.26537835411727">
        <time>2005-06-01T17:48:47-07:00</time>
      </trkpt>
      <trkpt lat="35.10877238586545" lon="-118.26534809544683">
        <time>2005-06-01T17:48:50-07:00</time>
      </trkpt>
      <trkpt lat="35.10878998786211" lon="-118.26532353647053">
        <time>2005-06-01T17:48:52-07:00</time>
      </trkpt>
      <trkpt lat="35.108807757496834" lon="-118.2653065212071">
        <time>2005-06-01T17:48:57-07:00</time>
      </trkpt>
      <trkpt lat="35.10883449576795" lon="-118.26527081429958">
        <time>2005-06-01T17:48:59-07:00</time>
      </trkpt>
      <trkpt lat="35.10886877775192" lon="-118.2652010768652">
        <time>2005-06-01T17:49:04-07:00</time>
      </trkpt>
      <trkpt lat="35.10887397453189" lon="-118.2651939522475">
        <time>2005-06-01T17:49:06-07:00</time>
      </trkpt>
      <trkpt lat="35.10888671502471" lon="-118.26516377739608">
        <time>2005-06-01T17:49:10-07:00</time>
      </trkpt>
      <trkpt lat="35.108902556821704" lon="-118.26515179127455">
        <time>2005-06-01T17:49:12-07:00</time>
      </trkpt>
      <trkpt lat="35.108931390568614" lon="-118.26508616097271">
        <time>2005-06-01T17:49:14-07:00</time>
      </trkpt>
      <trkpt lat="35.10893474332988" lon="-118.265076354146">
        <time>2005-06-01T17:49:18-07:00</time>
      </trkpt>
      <trkpt lat="35.10894714854658" lon="-118.26506302691996">
        <time>2005-06-01T17:49:25-07:00</time>
      </trkpt>
      <trkpt lat="35.10896869003773" lon="-118.26501617208123">
        <time>2005-06-01T17:49:26-07:00</time>
      </trkpt>
      <trkpt lat="35.1089789159596" lon="-118.26499689370394">
        <time>2005-06-01T17:49:29-07:00</time>
      </trkpt>
      <trkpt lat="35.10902216657996" lon="-118.2649352028966">
        <time>2005-06-01T17:49:31-07:00</time>
      </trkpt>
      <trkpt lat="35.10902644135058" lon="-118.26493092812598">
        <time>2005-06-01T17:49:37-07:00</time>
      </trkpt>
      <trkpt lat="35.10904781520367" lon="-118.26489631086588">
        <time>2005-06-01T17:49:38-07:00</time>
      </trkpt>
      <trkpt lat="35.10905301198363" lon="-118.2648884318769">
        <time>2005-06-01T17:49:40-07:00</time>
      </trkpt>
      <trkpt lat="35.109106320887804" lon="-118.26483462005854">
        <time>2005-06-01T17:49:44-07:00</time>
      </trkpt>
      <trkpt lat="35.10911579243839" lon="-118.2648292556405">
        <time>2005-06-01T17:49:46-07:00</time>
      </trkpt>
      <trkpt lat="35.109160551801324" lon="-118.2647967338562">
        <time>2005-06-01T17:49:53-07:00</time>
      </trkpt>
      <trkpt lat="35.10916491039097" lon="-118.26478868722916">
        <time>2005-06-01T17:49:54-07:00</time>
      </trkpt>
      <trkpt lat="35.109208999201655" lon="-118.26475147157907">
        <time>2005-06-01T17:49:58-07:00</time>
      </trkpt>
      <trkpt lat="35.10923615656793" lon="-118.26472464948893">
        <time>2005-06-01T17:49:59-07:00</time>
      </trkpt>
      <trkpt lat="35.1092672534287" lon="-118.26470042578876">
        <time>2005-06-01T17:50:07-07:00</time>
      </trkpt>
      <trkpt lat="35.10933925397694" lon="-118.26466212049127">
        <time>2005-06-01T17:50:08-07:00</time>
      </trkpt>
      <trkpt lat="35.109398597851396" lon="-118.2646257430315">
        <time>2005-06-01T17:50:13-07:00</time>
      </trkpt>
      <trkpt lat="35.109421061351895" lon="-118.26460763812065">
        <time>2005-06-01T17:50:14-07:00</time>
      </trkpt>
      <trkpt lat="35.10945123620331" lon="-118.26459095813334">
        <time>2005-06-01T17:50:19-07:00</time>
      </trkpt>
      <trkpt lat="35.109516866505146" lon="-118.26454712077975">
        <time>2005-06-01T17:50:22-07:00</time>
      </trkpt>
      <trkpt lat="35.10953958146274" lon="-118.26453546993434">
        <time>2005-06-01T17:50:25-07:00</time>
      </trkpt>
      <trkpt lat="35.1095899567008" lon="-118.26450085267425">
        <time>2005-06-01T17:50:32-07:00</time>
      </trkpt>
      <trkpt lat="35.109626250341535" lon="-118.26448400504887">
        <time>2005-06-01T17:50:39-07:00</time>
      </trkpt>
      <trkpt lat="35.10967427864671" lon="-118.26445760205388">
        <time>2005-06-01T17:50:41-07:00</time>
      </trkpt>
      <trkpt lat="35.1097487937659" lon="-118.2644375693053">
        <time>2005-06-01T17:50:44-07:00</time>
      </trkpt>
      <trkpt lat="35.109757678583264" lon="-118.26443589292467">
        <time>2005-06-01T17:50:51-07:00</time>
      </trkpt>
      <trkpt lat="35.109825655817986" lon="-118.26441493816674">
        <time>2005-06-01T17:50:53-07:00</time>
      </trkpt>
      <trkpt lat="35.109918192029" lon="-118.26435165479779">
        <time>2005-06-01T17:50:58-07:00</time>
      </trkpt>
      <trkpt lat="35.11000854894519" lon="-118.26426674611866">
        <time>2005-06-01T17:51:01-07:00</time>
      </trkpt>
      <trkpt lat="35.10999974794686" lon="-118.2641613855958">
        <time>2005-06-01T17:51:06-07:00</time>
      </trkpt>
      <trkpt lat="35.10998331941664" lon="-118.26410581357777">
        <time>2005-06-01T17:51:13-07:00</time>
      </trkpt>
      <trkpt lat="35.10997300967574" lon="-118.26403741724789">
        <time>2005-06-01T17:51:14-07:00</time>
      </trkpt>
      <trkpt lat="35.109967393800616" lon="-118.26400179415941">
        <time>2005-06-01T17:51:20-07:00</time>
      </trkpt>
      <trkpt lat="35.109965382143855" lon="-118.26392543502152">
        <time>2005-06-01T17:51:28-07:00</time>
      </trkpt>
      <trkpt lat="35.10996856726706" lon="-118.26385888271034">
        <time>2005-06-01T17:51:38-07:00</time>
      </trkpt>
      <trkpt lat="35.10996957309544" lon="-118.26377757824957">
        <time>2005-06-01T17:51:45-07:00</time>
      </trkpt>
      <trkpt lat="35.10996412485838" lon="-118.26375980861485">
        <time>2005-06-01T17:51:49-07:00</time>
      </trkpt>
      <trkpt lat="35.10994803160429" lon="-118.26364112086594">
        <time>2005-06-01T17:51:53-07:00</time>
      </trkpt>
      <trkpt lat="35.10993931442499" lon="-118.26359988190234">
        <time>2005-06-01T17:51:55-07:00</time>
      </trkpt>
      <trkpt lat="35.10993621312082" lon="-118.26355176977813">
        <time>2005-06-01T17:52:00-07:00</time>
      </trkpt>
      <trkpt lat="35.10993872769177" lon="-118.26353995129466">
        <time>2005-06-01T17:52:04-07:00</time>
      </trkpt>
      <trkpt lat="35.10994903743267" lon="-118.26346660964191">
        <time>2005-06-01T17:52:09-07:00</time>
      </trkpt>
      <trkpt lat="35.109944343566895" lon="-118.26335814781487">
        <time>2005-06-01T17:52:10-07:00</time>
      </trkpt>
      <trkpt lat="35.10993084870279" lon="-118.26329276897013">
        <time>2005-06-01T17:52:18-07:00</time>
      </trkpt>
      <trkpt lat="35.10992590337992" lon="-118.26325186528265">
        <time>2005-06-01T17:52:21-07:00</time>
      </trkpt>
      <trkpt lat="35.10991760529578" lon="-118.26323258690536">
        <time>2005-06-01T17:52:24-07:00</time>
      </trkpt>
      <trkpt lat="35.10990545153618" lon="-118.26321439817548">
        <time>2005-06-01T17:52:25-07:00</time>
      </trkpt>
      <trkpt lat="35.10984728112817" lon="-118.26318799518049">
        <time>2005-06-01T17:52:30-07:00</time>
      </trkpt>
      <trkpt lat="35.10975759476423" lon="-118.26315203681588">
        <time>2005-06-01T17:52:38-07:00</time>
      </trkpt>
      <trkpt lat="35.10975860059261" lon="-118.26306603848934">
        <time>2005-06-01T17:52:43-07:00</time>
      </trkpt>
      <trkpt lat="35.109755750745535" lon="-118.26300158165395">
        <time>2005-06-01T17:52:47-07:00</time>
      </trkpt>
      <trkpt lat="35.10975155979395" lon="-118.26294366270304">
        <time>2005-06-01T17:52:49-07:00</time>
      </trkpt>
      <trkpt lat="35.109758265316486" lon="-118.26283159665763">
        <time>2005-06-01T17:52:51-07:00</time>
      </trkpt>
      <trkpt lat="35.10974929668009" lon="-118.26272699050605">
        <time>2005-06-01T17:52:56-07:00</time>
      </trkpt>
      <trkpt lat="35.109745021909475" lon="-118.26270980760455">
        <time>2005-06-01T17:53:03-07:00</time>
      </trkpt>
      <trkpt lat="35.109771927818656" lon="-118.26260536909103">
        <time>2005-06-01T17:53:09-07:00</time>
      </trkpt>
      <trkpt lat="35.10982456617057" lon="-118.26254736632109">
        <time>2005-06-01T17:53:13-07:00</time>
      </trkpt>
      <trkpt lat="35.10984116233885" lon="-118.26252180151641">
        <time>2005-06-01T17:53:17-07:00</time>
      </trkpt>
      <trkpt lat="35.10988709516823" lon="-118.26243362389505">
        <time>2005-06-01T17:53:24-07:00</time>
      </trkpt>
      <trkpt lat="35.109892040491104" lon="-118.26240872964263">
        <time>2005-06-01T17:53:31-07:00</time>
      </trkpt>
      <trkpt lat="35.10989371687174" lon="-118.26228040270507">
        <time>2005-06-01T17:53:32-07:00</time>
      </trkpt>
      <trkpt lat="35.10984166525304" lon="-118.262182418257">
        <time>2005-06-01T17:53:40-07:00</time>
      </trkpt>
      <trkpt lat="35.109809562563896" lon="-118.26210941188037">
        <time>2005-06-01T17:53:45-07:00</time>
      </trkpt>
      <trkpt lat="35.109805539250374" lon="-118.26209658756852">
        <time>2005-06-01T17:53:47-07:00</time>
      </trkpt>
      <trkpt lat="35.10980151593685" lon="-118.26201260089874">
        <time>2005-06-01T17:53:53-07:00</time>
      </trkpt>
      <trkpt lat="35.10980377905071" lon="-118.26199650764465">
        <time>2005-06-01T17:53:55-07:00</time>
      </trkpt>
      <trkpt lat="35.10984694585204" lon="-118.2618922367692">
        <time>2005-06-01T17:54:03-07:00</time>
      </trkpt>
      <trkpt lat="35.109883826225996" lon="-118.26182275079191">
        <time>2005-06-01T17:54:10-07:00</time>
      </trkpt>
      <trkpt lat="35.10990796610713" lon="-118.26178394258022">
        <time>2005-06-01T17:54:16-07:00</time>
      </trkpt>
      <trkpt lat="35.109913079068065" lon="-118.26177245937288">
        <time>2005-06-01T17:54:17-07:00</time>
      </trkpt>
      <trkpt lat="35.109929256141186" lon="-118.26173096895218">
        <time>2005-06-01T17:54:23-07:00</time>
      </trkpt>
      <trkpt lat="35.10994836688042" lon="-118.26164253987372">
        <time>2005-06-01T17:54:24-07:00</time>
      </trkpt>
      <trkpt lat="35.1099044457078" lon="-118.26154824346304">
        <time>2005-06-01T17:54:32-07:00</time>
      </trkpt>
      <trkpt lat="35.109887178987265" lon="-118.26152485795319">
        <time>2005-06-01T17:54:37-07:00</time>
      </trkpt>
      <trkpt lat="35.109857423231006" lon="-118.26145637780428">
        <time>2005-06-01T17:54:40-07:00</time>
      </trkpt>
      <trkpt lat="35.109848622232676" lon="-118.26144070364535">
        <time>2005-06-01T17:54:41-07:00</time>
      </trkpt>
      <trkpt lat="35.10983906686306" lon="-118.26142544858158">
        <time>2005-06-01T17:54:44-07:00</time>
      </trkpt>
      <trkpt lat="35.109763126820326" lon="-118.26130885630846">
        <time>2005-06-01T17:54:49-07:00</time>
      </trkpt>
      <trkpt lat="35.10978005826473" lon="-118.26123241335154">
        <time>2005-06-01T17:54:55-07:00</time>
      </trkpt>
      <trkpt lat="35.109793385490775" lon="-118.26120366342366">
        <time>2005-06-01T17:54:57-07:00</time>
      </trkpt>
      <trkpt lat="35.10980989784002" lon="-118.26115865260363">
        <time>2005-06-01T17:55:02-07:00</time>
      </trkpt>
      <trkpt lat="35.10982196778059" lon="-118.26107986271381">
        <time>2005-06-01T17:55:03-07:00</time>
      </trkpt>
      <trkpt lat="35.109864715486765" lon="-118.26098472811282">
        <time>2005-06-01T17:55:04-07:00</time>
      </trkpt>
      <trkpt lat="35.10988709516823" lon="-118.2609421480447">
        <time>2005-06-01T17:55:13-07:00</time>
      </trkpt>
      <trkpt lat="35.109891621395946" lon="-118.26092379167676">
        <time>2005-06-01T17:55:18-07:00</time>
      </trkpt>
      <trkpt lat="35.109878461807966" lon="-118.26088355854154">
        <time>2005-06-01T17:55:20-07:00</time>
      </trkpt>
      <trkpt lat="35.10986262001097" lon="-118.260866291821">
        <time>2005-06-01T17:55:23-07:00</time>
      </trkpt>
      <trkpt lat="35.10980495251715" lon="-118.26076596044004">
        <time>2005-06-01T17:55:28-07:00</time>
      </trkpt>
      <trkpt lat="35.109807550907135" lon="-118.26074810698628">
        <time>2005-06-01T17:55:35-07:00</time>
      </trkpt>
      <trkpt lat="35.109829092398286" lon="-118.2606849912554">
        <time>2005-06-01T17:55:38-07:00</time>
      </trkpt>
      <trkpt lat="35.10983915068209" lon="-118.26065657660365">
        <time>2005-06-01T17:55:39-07:00</time>
      </trkpt>
      <trkpt lat="35.10984158143401" lon="-118.26064484193921">
        <time>2005-06-01T17:55:42-07:00</time>
      </trkpt>
      <trkpt lat="35.10987661778927" lon="-118.26054845005274">
        <time>2005-06-01T17:55:44-07:00</time>
      </trkpt>
      <trkpt lat="35.10990880429745" lon="-118.26051936484873">
        <time>2005-06-01T17:55:52-07:00</time>
      </trkpt>
      <trkpt lat="35.11002195999026" lon="-118.26048642396927">
        <time>2005-06-01T17:55:53-07:00</time>
      </trkpt>
      <trkpt lat="35.110130505636334" lon="-118.26040838845074">
        <time>2005-06-01T17:55:57-07:00</time>
      </trkpt>
      <trkpt lat="35.110167134553194" lon="-118.26028659939766">
        <time>2005-06-01T17:55:59-07:00</time>
      </trkpt>
      <trkpt lat="35.110230250284076" lon="-118.26013547368348">
        <time>2005-06-01T17:56:00-07:00</time>
      </trkpt>
      <trkpt lat="35.11026168242097" lon="-118.26004444621503">
        <time>2005-06-01T17:56:07-07:00</time>
      </trkpt>
      <trkpt lat="35.1102929469198" lon="-118.2599027082324">
        <time>2005-06-01T17:56:10-07:00</time>
      </trkpt>
      <trkpt lat="35.11024416424334" lon="-118.25981293804944">
        <time>2005-06-01T17:56:19-07:00</time>
      </trkpt>
      <trkpt lat="35.11024307459593" lon="-118.25976926833391">
        <time>2005-06-01T17:56:29-07:00</time>
      </trkpt>
      <trkpt lat="35.110247349366546" lon="-118.25975149869919">
        <time>2005-06-01T17:56:38-07:00</time>
      </trkpt>
      <trkpt lat="35.11025967076421" lon="-118.25970120728016">
        <time>2005-06-01T17:56:48-07:00</time>
      </trkpt>
      <trkpt lat="35.110283978283405" lon="-118.2596354931593">
        <time>2005-06-01T17:56:54-07:00</time>
      </trkpt>
      <trkpt lat="35.110296132043004" lon="-118.25959978625178">
        <time>2005-06-01T17:57:04-07:00</time>
      </trkpt>
      <trkpt lat="35.11030660942197" lon="-118.25957455672324">
        <time>2005-06-01T17:57:10-07:00</time>
      </trkpt>
      <trkpt lat="35.11031993664801" lon="-118.25952066108584">
        <time>2005-06-01T17:57:12-07:00</time>
      </trkpt>
      <trkpt lat="35.110326474532485" lon="-118.2594832777977">
        <time>2005-06-01T17:57:13-07:00</time>
      </trkpt>
      <trkpt lat="35.110333766788244" lon="-118.25945042073727">
        <time>2005-06-01T17:57:16-07:00</time>
      </trkpt>
      <trkpt lat="35.110339717939496" lon="-118.25940448790789">
        <time>2005-06-01T17:57:22-07:00</time>
      </trkpt>
      <trkpt lat="35.11034097522497" lon="-118.2593799289316">
        <time>2005-06-01T17:57:25-07:00</time>
      </trkpt>
      <trkpt lat="35.110350362956524" lon="-118.25929158367217">
        <time>2005-06-01T17:57:27-07:00</time>
      </trkpt>
      <trkpt lat="35.110350865870714" lon="-118.25928160920739">
        <time>2005-06-01T17:57:31-07:00</time>
      </trkpt>
      <trkpt lat="35.11035203933716" lon="-118.25925788842142">
        <time>2005-06-01T17:57:34-07:00</time>
      </trkpt>
      <trkpt lat="35.11035958305001" lon="-118.25917675159872">
        <time>2005-06-01T17:57:36-07:00</time>
      </trkpt>
      <trkpt lat="35.11036075651646" lon="-118.25916769914329">
        <time>2005-06-01T17:57:39-07:00</time>
      </trkpt>
      <trkpt lat="35.11036494746804" lon="-118.25909460894763">
        <time>2005-06-01T17:57:41-07:00</time>
      </trkpt>
      <trkpt lat="35.11036888696253" lon="-118.25906443409622">
        <time>2005-06-01T17:57:47-07:00</time>
      </trkpt>
      <trkpt lat="35.11037358082831" lon="-118.25900450348854">
        <time>2005-06-01T17:57:48-07:00</time>
      </trkpt>
      <trkpt lat="35.110374838113785" lon="-118.25898866169155">
        <time>2005-06-01T17:57:50-07:00</time>
      </trkpt>
      <trkpt lat="35.11037835851312" lon="-118.25893275439739">
        <time>2005-06-01T17:57:56-07:00</time>
      </trkpt>
      <trkpt lat="35.11038397438824" lon="-118.25889662839472">
        <time>2005-06-01T17:57:57-07:00</time>
      </trkpt>
      <trkpt lat="35.1103896740824" lon="-118.25883141718805">
        <time>2005-06-01T17:58:04-07:00</time>
      </trkpt>
      <trkpt lat="35.110397804528475" lon="-118.2588027510792">
        <time>2005-06-01T17:58:06-07:00</time>
      </trkpt>
      <trkpt lat="35.11040132492781" lon="-118.25876092538238">
        <time>2005-06-01T17:58:10-07:00</time>
      </trkpt>
      <trkpt lat="35.11040652170777" lon="-118.25870744884014">
        <time>2005-06-01T17:58:12-07:00</time>
      </trkpt>
      <trkpt lat="35.110401660203934" lon="-118.25865816324949">
        <time>2005-06-01T17:58:17-07:00</time>
      </trkpt>
      <trkpt lat="35.11040199548006" lon="-118.25861541554332">
        <time>2005-06-01T17:58:20-07:00</time>
      </trkpt>
      <trkpt lat="35.110399732366204" lon="-118.25853478163481">
        <time>2005-06-01T17:58:24-07:00</time>
      </trkpt>
      <trkpt lat="35.110401744022965" lon="-118.25852296315134">
        <time>2005-06-01T17:58:27-07:00</time>
      </trkpt>
      <trkpt lat="35.110419346019626" lon="-118.25843269005418">
        <time>2005-06-01T17:58:30-07:00</time>
      </trkpt>
      <trkpt lat="35.110426135361195" lon="-118.25839145109057">
        <time>2005-06-01T17:58:34-07:00</time>
      </trkpt>
      <trkpt lat="35.11043258942664" lon="-118.25834828428924">
        <time>2005-06-01T17:58:37-07:00</time>
      </trkpt>
      <trkpt lat="35.110446754843" lon="-118.25829405337572">
        <time>2005-06-01T17:58:40-07:00</time>
      </trkpt>
      <trkpt lat="35.11044692248106" lon="-118.25825457461178">
        <time>2005-06-01T17:58:46-07:00</time>
      </trkpt>
      <trkpt lat="35.110442228615284" lon="-118.25818257406354">
        <time>2005-06-01T17:58:47-07:00</time>
      </trkpt>
      <trkpt lat="35.11044248007238" lon="-118.25815281830728">
        <time>2005-06-01T17:58:54-07:00</time>
      </trkpt>
      <trkpt lat="35.11040920391679" lon="-118.25802541337907">
        <time>2005-06-01T17:58:57-07:00</time>
      </trkpt>
      <trkpt lat="35.11040015146136" lon="-118.25801007449627">
        <time>2005-06-01T17:59:00-07:00</time>
      </trkpt>
      <trkpt lat="35.11032178066671" lon="-118.25798526406288">
        <time>2005-06-01T17:59:04-07:00</time>
      </trkpt>
      <trkpt lat="35.11019906960428" lon="-118.2579982560128">
        <time>2005-06-01T17:59:07-07:00</time>
      </trkpt>
      <trkpt lat="35.11015925556421" lon="-118.25799381360412">
        <time>2005-06-01T17:59:12-07:00</time>
      </trkpt>
      <trkpt lat="35.11010443791747" lon="-118.2579686678946">
        <time>2005-06-01T17:59:14-07:00</time>
      </trkpt>
      <trkpt lat="35.1100492849946" lon="-118.25791292823851">
        <time>2005-06-01T17:59:22-07:00</time>
      </trkpt>
      <trkpt lat="35.110043501481414" lon="-118.25790110975504">
        <time>2005-06-01T17:59:23-07:00</time>
      </trkpt>
      <trkpt lat="35.110042579472065" lon="-118.25782919302583">
        <time>2005-06-01T17:59:29-07:00</time>
      </trkpt>
      <trkpt lat="35.110040148720145" lon="-118.25781402178109">
        <time>2005-06-01T17:59:39-07:00</time>
      </trkpt>
      <trkpt lat="35.11003000661731" lon="-118.2577250059694">
        <time>2005-06-01T17:59:42-07:00</time>
      </trkpt>
      <trkpt lat="35.11002874933183" lon="-118.25770748779178">
        <time>2005-06-01T17:59:47-07:00</time>
      </trkpt>
      <trkpt lat="35.11001097969711" lon="-118.25763347558677">
        <time>2005-06-01T17:59:52-07:00</time>
      </trkpt>
      <trkpt lat="35.11000284925103" lon="-118.25760279782116">
        <time>2005-06-01T17:59:53-07:00</time>
      </trkpt>
      <trkpt lat="35.10999941267073" lon="-118.25758896768093">
        <time>2005-06-01T17:59:59-07:00</time>
      </trkpt>
      <trkpt lat="35.10997736826539" lon="-118.25755527243018">
        <time>2005-06-01T18:00:00-07:00</time>
      </trkpt>
      <trkpt lat="35.10994166135788" lon="-118.25752551667392">
        <time>2005-06-01T18:00:06-07:00</time>
      </trkpt>
      <trkpt lat="35.10985901579261" lon="-118.25750540010631">
        <time>2005-06-01T18:00:07-07:00</time>
      </trkpt>
      <trkpt lat="35.10981283150613" lon="-118.25748796574771">
        <time>2005-06-01T18:00:12-07:00</time>
      </trkpt>
      <trkpt lat="35.109778130427" lon="-118.25745921581984">
        <time>2005-06-01T18:00:14-07:00</time>
      </trkpt>
      <trkpt lat="35.10977067053318" lon="-118.25744488276541">
        <time>2005-06-01T18:00:15-07:00</time>
      </trkpt>
      <trkpt lat="35.10975290089846" lon="-118.2573727145791">
        <time>2005-06-01T18:00:18-07:00</time>
      </trkpt>
      <trkpt lat="35.10975642129779" lon="-118.25735092163086">
        <time>2005-06-01T18:00:22-07:00</time>
      </trkpt>
      <trkpt lat="35.10981819592416" lon="-118.25729920528829">
        <time>2005-06-01T18:00:29-07:00</time>
      </trkpt>
      <trkpt lat="35.10992255061865" lon="-118.25723013840616">
        <time>2005-06-01T18:00:33-07:00</time>
      </trkpt>
      <trkpt lat="35.1100011728704" lon="-118.25716509483755">
        <time>2005-06-01T18:00:36-07:00</time>
      </trkpt>
      <trkpt lat="35.110026989132166" lon="-118.25716836377978">
        <time>2005-06-01T18:00:37-07:00</time>
      </trkpt>
      <trkpt lat="35.11009496636689" lon="-118.25720817781985">
        <time>2005-06-01T18:00:42-07:00</time>
      </trkpt>
      <trkpt lat="35.11014986783266" lon="-118.25725075788796">
        <time>2005-06-01T18:00:44-07:00</time>
      </trkpt>
      <trkpt lat="35.110185239464045" lon="-118.25722594745457">
        <time>2005-06-01T18:00:50-07:00</time>
      </trkpt>
      <trkpt lat="35.1102065294981" lon="-118.25717741623521">
        <time>2005-06-01T18:00:59-07:00</time>
      </trkpt>
      <trkpt lat="35.11024014092982" lon="-118.25707633048296">
        <time>2005-06-01T18:01:06-07:00</time>
      </trkpt>
      <trkpt lat="35.110270231962204" lon="-118.25695504434407">
        <time>2005-06-01T18:01:08-07:00</time>
      </trkpt>
      <trkpt lat="35.11028967797756" lon="-118.25687692500651">
        <time>2005-06-01T18:01:13-07:00</time>
      </trkpt>
      <trkpt lat="35.110301496461034" lon="-118.25684423558414">
        <time>2005-06-01T18:01:19-07:00</time>
      </trkpt>
      <trkpt lat="35.11031943373382" lon="-118.25680878013372">
        <time>2005-06-01T18:01:22-07:00</time>
      </trkpt>
      <trkpt lat="35.110325971618295" lon="-118.25679344125092">
        <time>2005-06-01T18:01:25-07:00</time>
      </trkpt>
      <trkpt lat="35.11034935712814" lon="-118.25675019063056">
        <time>2005-06-01T18:01:32-07:00</time>
      </trkpt>
      <trkpt lat="35.1103637740016" lon="-118.25670149177313">
        <time>2005-06-01T18:01:41-07:00</time>
      </trkpt>
      <trkpt lat="35.110356817021966" lon="-118.25657609850168">
        <time>2005-06-01T18:01:47-07:00</time>
      </trkpt>
      <trkpt lat="35.11034625582397" lon="-118.25645028613508">
        <time>2005-06-01T18:01:50-07:00</time>
      </trkpt>
      <trkpt lat="35.11032287031412" lon="-118.25635481625795">
        <time>2005-06-01T18:01:53-07:00</time>
      </trkpt>
      <trkpt lat="35.110300071537495" lon="-118.25632371939719">
        <time>2005-06-01T18:01:54-07:00</time>
      </trkpt>
      <trkpt lat="35.11032706126571" lon="-118.25629480183125">
        <time>2005-06-01T18:01:58-07:00</time>
      </trkpt>
      <trkpt lat="35.110423285514116" lon="-118.25627233833075">
        <time>2005-06-01T18:02:01-07:00</time>
      </trkpt>
      <trkpt lat="35.110508278012276" lon="-118.25621886178851">
        <time>2005-06-01T18:02:09-07:00</time>
      </trkpt>
      <trkpt lat="35.11051959358156" lon="-118.25621559284627">
        <time>2005-06-01T18:02:17-07:00</time>
      </trkpt>
      <trkpt lat="35.11054214090109" lon="-118.2562108989805">
        <time>2005-06-01T18:02:25-07:00</time>
      </trkpt>
      <trkpt lat="35.11056921444833" lon="-118.25620427727699">
        <time>2005-06-01T18:02:28-07:00</time>
      </trkpt>
      <trkpt lat="35.11059218086302" lon="-118.25620327144861">
        <time>2005-06-01T18:02:31-07:00</time>
      </trkpt>
      <trkpt lat="35.110629480332136" lon="-118.25620897114277">
        <time>2005-06-01T18:02:39-07:00</time>
      </trkpt>
      <trkpt lat="35.11066049337387" lon="-118.25622523203492">
        <time>2005-06-01T18:02:48-07:00</time>
      </trkpt>
      <trkpt lat="35.110666612163186" lon="-118.25622866861522">
        <time>2005-06-01T18:02:49-07:00</time>
      </trkpt>
      <trkpt lat="35.11070751585066" lon="-118.25626144185662">
        <time>2005-06-01T18:02:52-07:00</time>
      </trkpt>
      <trkpt lat="35.1107142213732" lon="-118.25627166777849">
        <time>2005-06-01T18:02:55-07:00</time>
      </trkpt>
      <trkpt lat="35.110733499750495" lon="-118.25631349347532">
        <time>2005-06-01T18:02:57-07:00</time>
      </trkpt>
      <trkpt lat="35.11074548587203" lon="-118.25633394531906">
        <time>2005-06-01T18:03:01-07:00</time>
      </trkpt>
      <trkpt lat="35.11077934876084" lon="-118.25638214126229">
        <time>2005-06-01T18:03:05-07:00</time>
      </trkpt>
      <trkpt lat="35.11079468764365" lon="-118.25640108436346">
        <time>2005-06-01T18:03:06-07:00</time>
      </trkpt>
      <trkpt lat="35.11082771234214" lon="-118.25643578544259">
        <time>2005-06-01T18:03:11-07:00</time>
      </trkpt>
      <trkpt lat="35.110840536653996" lon="-118.25645187869668">
        <time>2005-06-01T18:03:12-07:00</time>
      </trkpt>
      <trkpt lat="35.110877165570855" lon="-118.25649085454643">
        <time>2005-06-01T18:03:16-07:00</time>
      </trkpt>
      <trkpt lat="35.110884960740805" lon="-118.25649940408766">
        <time>2005-06-01T18:03:18-07:00</time>
      </trkpt>
      <trkpt lat="35.11091387830675" lon="-118.25652823783457">
        <time>2005-06-01T18:03:23-07:00</time>
      </trkpt>
      <trkpt lat="35.11091714724898" lon="-118.25654508545995">
        <time>2005-06-01T18:03:26-07:00</time>
      </trkpt>
      <trkpt lat="35.11091144755483" lon="-118.25655304826796">
        <time>2005-06-01T18:03:30-07:00</time>
      </trkpt>
      <trkpt lat="35.11090273037553" lon="-118.25655883178115">
        <time>2005-06-01T18:03:32-07:00</time>
      </trkpt>
      <trkpt lat="35.11088470928371" lon="-118.25655279681087">
        <time>2005-06-01T18:03:37-07:00</time>
      </trkpt>
      <trkpt lat="35.110864005982876" lon="-118.25654533691704">
        <time>2005-06-01T18:03:38-07:00</time>
      </trkpt>
      <trkpt lat="35.110789742320776" lon="-118.25649512931705">
        <time>2005-06-01T18:03:43-07:00</time>
      </trkpt>
      <trkpt lat="35.11070257052779" lon="-118.25645011849701">
        <time>2005-06-01T18:03:45-07:00</time>
      </trkpt>
      <trkpt lat="35.11070139706135" lon="-118.25646881014109">
        <time>2005-06-01T18:03:46-07:00</time>
      </trkpt>
      <trkpt lat="35.11071564629674" lon="-118.25648104771972">
        <time>2005-06-01T18:03:48-07:00</time>
      </trkpt>
      <trkpt lat="35.110746156424284" lon="-118.25650694780052">
        <time>2005-06-01T18:03:50-07:00</time>
      </trkpt>
      <trkpt lat="35.11076501570642" lon="-118.25653150677681">
        <time>2005-06-01T18:03:52-07:00</time>
      </trkpt>
      <trkpt lat="35.110799465328455" lon="-118.25656964443624">
        <time>2005-06-01T18:04:00-07:00</time>
      </trkpt>
      <trkpt lat="35.11082519777119" lon="-118.25658716261387">
        <time>2005-06-01T18:04:07-07:00</time>
      </trkpt>
      <trkpt lat="35.11087926104665" lon="-118.25663954950869">
        <time>2005-06-01T18:04:10-07:00</time>
      </trkpt>
      <trkpt lat="35.11088806204498" lon="-118.25664944015443">
        <time>2005-06-01T18:04:12-07:00</time>
      </trkpt>
      <trkpt lat="35.110932821407914" lon="-118.25668958947062">
        <time>2005-06-01T18:04:16-07:00</time>
      </trkpt>
      <trkpt lat="35.11094279587269" lon="-118.2566940318793">
        <time>2005-06-01T18:04:19-07:00</time>
      </trkpt>
      <trkpt lat="35.11097615584731" lon="-118.25670903548598">
        <time>2005-06-01T18:04:24-07:00</time>
      </trkpt>
      <trkpt lat="35.11099920608103" lon="-118.25671322643757">
        <time>2005-06-01T18:04:27-07:00</time>
      </trkpt>
      <trkpt lat="35.111057041212916" lon="-118.25672454200685">
        <time>2005-06-01T18:04:34-07:00</time>
      </trkpt>
      <trkpt lat="35.11107615195215" lon="-118.2567341811955">
        <time>2005-06-01T18:04:35-07:00</time>
      </trkpt>
      <trkpt lat="35.11114614084363" lon="-118.25670006684959">
        <time>2005-06-01T18:04:41-07:00</time>
      </trkpt>
      <trkpt lat="35.11119928210974" lon="-118.2566491048783">
        <time>2005-06-01T18:04:42-07:00</time>
      </trkpt>
      <trkpt lat="35.11126642115414" lon="-118.25664156116545">
        <time>2005-06-01T18:04:46-07:00</time>
      </trkpt>
      <trkpt lat="35.11133339256048" lon="-118.25663167051971">
        <time>2005-06-01T18:04:48-07:00</time>
      </trkpt>
      <trkpt lat="35.11133540421724" lon="-118.25664189644158">
        <time>2005-06-01T18:04:53-07:00</time>
      </trkpt>
      <trkpt lat="35.11132685467601" lon="-118.25665262527764">
        <time>2005-06-01T18:04:55-07:00</time>
      </trkpt>
      <trkpt lat="35.111305145546794" lon="-118.25666737742722">
        <time>2005-06-01T18:05:02-07:00</time>
      </trkpt>
      <trkpt lat="35.11127111501992" lon="-118.25669185258448">
        <time>2005-06-01T18:05:09-07:00</time>
      </trkpt>
      <trkpt lat="35.11120338924229" lon="-118.25674398802221">
        <time>2005-06-01T18:05:15-07:00</time>
      </trkpt>
      <trkpt lat="35.11114798486233" lon="-118.25683023780584">
        <time>2005-06-01T18:05:22-07:00</time>
      </trkpt>
      <trkpt lat="35.111081432551146" lon="-118.25687642209232">
        <time>2005-06-01T18:05:23-07:00</time>
      </trkpt>
      <trkpt lat="35.111034493893385" lon="-118.25690450146794">
        <time>2005-06-01T18:05:24-07:00</time>
      </trkpt>
      <trkpt lat="35.11100850999355" lon="-118.2569186668843">
        <time>2005-06-01T18:05:26-07:00</time>
      </trkpt>
      <trkpt lat="35.11096157133579" lon="-118.25693568214774">
        <time>2005-06-01T18:05:29-07:00</time>
      </trkpt>
      <trkpt lat="35.11092586442828" lon="-118.25696166604757">
        <time>2005-06-01T18:05:36-07:00</time>
      </trkpt>
      <trkpt lat="35.110921086743474" lon="-118.25699217617512">
        <time>2005-06-01T18:05:44-07:00</time>
      </trkpt>
      <trkpt lat="35.11094380170107" lon="-118.25702100992203">
        <time>2005-06-01T18:05:51-07:00</time>
      </trkpt>
      <trkpt lat="35.11101856827736" lon="-118.25708295218647">
        <time>2005-06-01T18:05:55-07:00</time>
      </trkpt>
      <trkpt lat="35.111081348732114" lon="-118.25712301768363">
        <time>2005-06-01T18:05:57-07:00</time>
      </trkpt>
      <trkpt lat="35.11115393601358" lon="-118.25716174207628">
        <time>2005-06-01T18:06:01-07:00</time>
      </trkpt>
      <trkpt lat="35.111199701204896" lon="-118.25718462467194">
        <time>2005-06-01T18:06:04-07:00</time>
      </trkpt>
      <trkpt lat="35.11123104952276" lon="-118.25720775872469">
        <time>2005-06-01T18:06:06-07:00</time>
      </trkpt>
      <trkpt lat="35.11125351302326" lon="-118.25723458081484">
        <time>2005-06-01T18:06:09-07:00</time>
      </trkpt>
      <trkpt lat="35.111278742551804" lon="-118.25725612230599">
        <time>2005-06-01T18:06:17-07:00</time>
      </trkpt>
      <trkpt lat="35.11128938756883" lon="-118.25727724470198">
        <time>2005-06-01T18:06:23-07:00</time>
      </trkpt>
      <trkpt lat="35.11132266372442" lon="-118.25732074677944">
        <time>2005-06-01T18:06:30-07:00</time>
      </trkpt>
      <trkpt lat="35.111330626532435" lon="-118.25733005069196">
        <time>2005-06-01T18:06:34-07:00</time>
      </trkpt>
      <trkpt lat="35.111391646787524" lon="-118.25735108926892">
        <time>2005-06-01T18:06:37-07:00</time>
      </trkpt>
      <trkpt lat="35.1114153675735" lon="-118.25732552446425">
        <time>2005-06-01T18:06:40-07:00</time>
      </trkpt>
      <trkpt lat="35.11142500676215" lon="-118.25729266740382">
        <time>2005-06-01T18:06:43-07:00</time>
      </trkpt>
      <trkpt lat="35.111455181613564" lon="-118.25722804293036">
        <time>2005-06-01T18:06:45-07:00</time>
      </trkpt>
      <trkpt lat="35.111470352858305" lon="-118.2572003826499">
        <time>2005-06-01T18:06:50-07:00</time>
      </trkpt>
      <trkpt lat="35.111529026180506" lon="-118.25711388140917">
        <time>2005-06-01T18:06:51-07:00</time>
      </trkpt>
      <trkpt lat="35.11156062595546" lon="-118.25706979259849">
        <time>2005-06-01T18:06:57-07:00</time>
      </trkpt>
      <trkpt lat="35.111583257094026" lon="-118.25704012066126">
        <time>2005-06-01T18:07:00-07:00</time>
      </trkpt>
      <trkpt lat="35.11163732036948" lon="-118.25697138905525">
        <time>2005-06-01T18:07:02-07:00</time>
      </trkpt>
      <trkpt lat="35.111702447757125" lon="-118.25690609402955">
        <time>2005-06-01T18:07:07-07:00</time>
      </trkpt>
      <trkpt lat="35.11171108111739" lon="-118.25689787976444">
        <time>2005-06-01T18:07:09-07:00</time>
      </trkpt>
      <trkpt lat="35.11180487461388" lon="-118.25684666633606">
        <time>2005-06-01T18:07:17-07:00</time>
      </trkpt>
      <trkpt lat="35.11184452101588" lon="-118.25684733688831">
        <time>2005-06-01T18:07:21-07:00</time>
      </trkpt>
      <trkpt lat="35.11188249103725" lon="-118.25685907155275">
        <time>2005-06-01T18:07:24-07:00</time>
      </trkpt>
      <trkpt lat="35.111890034750104" lon="-118.25686301104724">
        <time>2005-06-01T18:07:32-07:00</time>
      </trkpt>
      <trkpt lat="35.11195683851838" lon="-118.2568909227848">
        <time>2005-06-01T18:07:40-07:00</time>
      </trkpt>
      <trkpt lat="35.11202615685761" lon="-118.25692269019783">
        <time>2005-06-01T18:07:41-07:00</time>
      </trkpt>
      <trkpt lat="35.11203931644559" lon="-118.25692629441619">
        <time>2005-06-01T18:07:49-07:00</time>
      </trkpt>
      <trkpt lat="35.11210628785193" lon="-118.25690927915275">
        <time>2005-06-01T18:07:53-07:00</time>
      </trkpt>
      <trkpt lat="35.11213964782655" lon="-118.25687105767429">
        <time>2005-06-01T18:07:57-07:00</time>
      </trkpt>
      <trkpt lat="35.11214962229133" lon="-118.25684532523155">
        <time>2005-06-01T18:07:58-07:00</time>
      </trkpt>
      <trkpt lat="35.11218457482755" lon="-118.25676921755075">
        <time>2005-06-01T18:08:04-07:00</time>
      </trkpt>
      <trkpt lat="35.11223830282688" lon="-118.25666427612305">
        <time>2005-06-01T18:08:10-07:00</time>
      </trkpt>
      <trkpt lat="35.112282894551754" lon="-118.25659353286028">
        <time>2005-06-01T18:08:11-07:00</time>
      </trkpt>
      <trkpt lat="35.11235933750868" lon="-118.25657358393073">
        <time>2005-06-01T18:08:17-07:00</time>
      </trkpt>
      <trkpt lat="35.112428991124034" lon="-118.25656813569367">
        <time>2005-06-01T18:08:21-07:00</time>
      </trkpt>
      <trkpt lat="35.11243904940784" lon="-118.25656939297915">
        <time>2005-06-01T18:08:23-07:00</time>
      </trkpt>
      <trkpt lat="35.11253032833338" lon="-118.25655304826796">
        <time>2005-06-01T18:08:29-07:00</time>
      </trkpt>
      <trkpt lat="35.11256452649832" lon="-118.25650652870536">
        <time>2005-06-01T18:08:37-07:00</time>
      </trkpt>
      <trkpt lat="35.11256620287895" lon="-118.25649152509868">
        <time>2005-06-01T18:08:44-07:00</time>
      </trkpt>
      <trkpt lat="35.112576177343726" lon="-118.25646285898983">
        <time>2005-06-01T18:08:51-07:00</time>
      </trkpt>
      <trkpt lat="35.11258807964623" lon="-118.2564405631274">
        <time>2005-06-01T18:08:56-07:00</time>
      </trkpt>
      <trkpt lat="35.11261297389865" lon="-118.25641340576112">
        <time>2005-06-01T18:08:57-07:00</time>
      </trkpt>
      <trkpt lat="35.11262387037277" lon="-118.25640795752406">
        <time>2005-06-01T18:09:04-07:00</time>
      </trkpt>
      <trkpt lat="35.11271204799414" lon="-118.25638733804226">
        <time>2005-06-01T18:09:09-07:00</time>
      </trkpt>
      <trkpt lat="35.11273660697043" lon="-118.25638021342456">
        <time>2005-06-01T18:09:10-07:00</time>
      </trkpt>
      <trkpt lat="35.11279276572168" lon="-118.25634635053575">
        <time>2005-06-01T18:09:12-07:00</time>
      </trkpt>
      <trkpt lat="35.1128073502332" lon="-118.25632841326296">
        <time>2005-06-01T18:09:14-07:00</time>
      </trkpt>
      <trkpt lat="35.11283006519079" lon="-118.25628801248968">
        <time>2005-06-01T18:09:17-07:00</time>
      </trkpt>
      <trkpt lat="35.112834172323346" lon="-118.25627870857716">
        <time>2005-06-01T18:09:18-07:00</time>
      </trkpt>
      <trkpt lat="35.11284037493169" lon="-118.25624861754477">
        <time>2005-06-01T18:09:25-07:00</time>
      </trkpt>
      <trkpt lat="35.112844314426184" lon="-118.25619304552674">
        <time>2005-06-01T18:09:27-07:00</time>
      </trkpt>
      <trkpt lat="35.112859066575766" lon="-118.25617209076881">
        <time>2005-06-01T18:09:32-07:00</time>
      </trkpt>
      <trkpt lat="35.11292226612568" lon="-118.25615247711539">
        <time>2005-06-01T18:09:34-07:00</time>
      </trkpt>
      <trkpt lat="35.11293559335172" lon="-118.25615331530571">
        <time>2005-06-01T18:09:38-07:00</time>
      </trkpt>
      <trkpt lat="35.11301354505122" lon="-118.25616471469402">
        <time>2005-06-01T18:09:39-07:00</time>
      </trkpt>
      <trkpt lat="35.1130732242018" lon="-118.25619447045028">
        <time>2005-06-01T18:09:41-07:00</time>
      </trkpt>
      <trkpt lat="35.11311681009829" lon="-118.25622414238751">
        <time>2005-06-01T18:09:45-07:00</time>
      </trkpt>
      <trkpt lat="35.113136507570744" lon="-118.2562349550426">
        <time>2005-06-01T18:09:47-07:00</time>
      </trkpt>
      <trkpt lat="35.113190822303295" lon="-118.25624920427799">
        <time>2005-06-01T18:09:53-07:00</time>
      </trkpt>
      <trkpt lat="35.11320037767291" lon="-118.25624677352607">
        <time>2005-06-01T18:09:54-07:00</time>
      </trkpt>
      <trkpt lat="35.113274808973074" lon="-118.2562590111047">
        <time>2005-06-01T18:10:01-07:00</time>
      </trkpt>
      <trkpt lat="35.11328109540045" lon="-118.25626278296113">
        <time>2005-06-01T18:10:07-07:00</time>
      </trkpt>
      <trkpt lat="35.11332208290696" lon="-118.25627150014043">
        <time>2005-06-01T18:10:12-07:00</time>
      </trkpt>
      <trkpt lat="35.113345719873905" lon="-118.25626697391272">
        <time>2005-06-01T18:10:14-07:00</time>
      </trkpt>
      <trkpt lat="35.11337229050696" lon="-118.25623805634677">
        <time>2005-06-01T18:10:19-07:00</time>
      </trkpt>
      <trkpt lat="35.1133805885911" lon="-118.25622640550137">
        <time>2005-06-01T18:10:20-07:00</time>
      </trkpt>
      <trkpt lat="35.11340112425387" lon="-118.25617896392941">
        <time>2005-06-01T18:10:27-07:00</time>
      </trkpt>
      <trkpt lat="35.11340405791998" lon="-118.25616488233209">
        <time>2005-06-01T18:10:28-07:00</time>
      </trkpt>
      <trkpt lat="35.11343490332365" lon="-118.25611534528434">
        <time>2005-06-01T18:10:32-07:00</time>
      </trkpt>
      <trkpt lat="35.11346139013767" lon="-118.2561070472002">
        <time>2005-06-01T18:10:34-07:00</time>
      </trkpt>
      <trkpt lat="35.1134773157537" lon="-118.2561125792563">
        <time>2005-06-01T18:10:38-07:00</time>
      </trkpt>
      <trkpt lat="35.11353473179042" lon="-118.25613026507199">
        <time>2005-06-01T18:10:39-07:00</time>
      </trkpt>
      <trkpt lat="35.11354688555002" lon="-118.25613412074745">
        <time>2005-06-01T18:10:44-07:00</time>
      </trkpt>
      <trkpt lat="35.113630536943674" lon="-118.25614476576447">
        <time>2005-06-01T18:10:45-07:00</time>
      </trkpt>
      <trkpt lat="35.11368853971362" lon="-118.25615599751472">
        <time>2005-06-01T18:10:50-07:00</time>
      </trkpt>
      <trkpt lat="35.113702872768044" lon="-118.25615650042892">
        <time>2005-06-01T18:10:53-07:00</time>
      </trkpt>
      <trkpt lat="35.11374805122614" lon="-118.25615633279085">
        <time>2005-06-01T18:10:55-07:00</time>
      </trkpt>
      <trkpt lat="35.11377101764083" lon="-118.25616119429469">
        <time>2005-06-01T18:11:01-07:00</time>
      </trkpt>
      <trkpt lat="35.11379306204617" lon="-118.25616261921823">
        <time>2005-06-01T18:11:02-07:00</time>
      </trkpt>
      <trkpt lat="35.11379834264517" lon="-118.25615507550538">
        <time>2005-06-01T18:11:09-07:00</time>
      </trkpt>
      <trkpt lat="35.113830361515284" lon="-118.25620343908668">
        <time>2005-06-01T18:11:15-07:00</time>
      </trkpt>
      <trkpt lat="35.11384628713131" lon="-118.25622481293976">
        <time>2005-06-01T18:11:16-07:00</time>
      </trkpt>
      <trkpt lat="35.11387059465051" lon="-118.25626756064594">
        <time>2005-06-01T18:11:21-07:00</time>
      </trkpt>
      <trkpt lat="35.11387503705919" lon="-118.25627611018717">
        <time>2005-06-01T18:11:23-07:00</time>
      </trkpt>
      <trkpt lat="35.113905128091574" lon="-118.25633218511939">
        <time>2005-06-01T18:11:28-07:00</time>
      </trkpt>
      <trkpt lat="35.11392784304917" lon="-118.25638482347131">
        <time>2005-06-01T18:11:39-07:00</time>
      </trkpt>
      <trkpt lat="35.113945696502924" lon="-118.25640862807631">
        <time>2005-06-01T18:11:45-07:00</time>
      </trkpt>
      <trkpt lat="35.11397235095501" lon="-118.2564471848309">
        <time>2005-06-01T18:11:47-07:00</time>
      </trkpt>
      <trkpt lat="35.11398760601878" lon="-118.25647509656847">
        <time>2005-06-01T18:11:52-07:00</time>
      </trkpt>
      <trkpt lat="35.114006800577044" lon="-118.25651750899851">
        <time>2005-06-01T18:11:53-07:00</time>
      </trkpt>
      <trkpt lat="35.114014092832804" lon="-118.25655204243958">
        <time>2005-06-01T18:11:59-07:00</time>
      </trkpt>
      <trkpt lat="35.11401576921344" lon="-118.25659202411771">
        <time>2005-06-01T18:12:04-07:00</time>
      </trkpt>
      <trkpt lat="35.11401233263314" lon="-118.25660157948732">
        <time>2005-06-01T18:12:06-07:00</time>
      </trkpt>
      <trkpt lat="35.114006381481886" lon="-118.25664055533707">
        <time>2005-06-01T18:12:10-07:00</time>
      </trkpt>
      <trkpt lat="35.11400302872062" lon="-118.25666645541787">
        <time>2005-06-01T18:12:12-07:00</time>
      </trkpt>
      <trkpt lat="35.11399841867387" lon="-118.25672454200685">
        <time>2005-06-01T18:12:16-07:00</time>
      </trkpt>
      <trkpt lat="35.11399590410292" lon="-118.25677131302655">
        <time>2005-06-01T18:12:19-07:00</time>
      </trkpt>
      <trkpt lat="35.11399573646486" lon="-118.25682512484491">
        <time>2005-06-01T18:12:23-07:00</time>
      </trkpt>
      <trkpt lat="35.11399104259908" lon="-118.25690383091569">
        <time>2005-06-01T18:12:24-07:00</time>
      </trkpt>
      <trkpt lat="35.11399053968489" lon="-118.25695387087762">
        <time>2005-06-01T18:12:27-07:00</time>
      </trkpt>
      <trkpt lat="35.11398224160075" lon="-118.2570204231888">
        <time>2005-06-01T18:12:29-07:00</time>
      </trkpt>
      <trkpt lat="35.1139831636101" lon="-118.25703710317612">
        <time>2005-06-01T18:12:35-07:00</time>
      </trkpt>
      <trkpt lat="35.114005375653505" lon="-118.25713693164289">
        <time>2005-06-01T18:12:38-07:00</time>
      </trkpt>
      <trkpt lat="35.114010237157345" lon="-118.25714439153671">
        <time>2005-06-01T18:12:42-07:00</time>
      </trkpt>
      <trkpt lat="35.11403035372496" lon="-118.25721957720816">
        <time>2005-06-01T18:12:47-07:00</time>
      </trkpt>
      <trkpt lat="35.11403010226786" lon="-118.25723525136709">
        <time>2005-06-01T18:12:51-07:00</time>
      </trkpt>
      <trkpt lat="35.114028844982386" lon="-118.2573092635721">
        <time>2005-06-01T18:12:57-07:00</time>
      </trkpt>
      <trkpt lat="35.1140280906111" lon="-118.25731923803687">
        <time>2005-06-01T18:12:58-07:00</time>
      </trkpt>
      <trkpt lat="35.114025827497244" lon="-118.25737573206425">
        <time>2005-06-01T18:13:06-07:00</time>
      </trkpt>
      <trkpt lat="35.11402498930693" lon="-118.257404146716">
        <time>2005-06-01T18:13:07-07:00</time>
      </trkpt>
      <trkpt lat="35.11404192075133" lon="-118.25748570263386">
        <time>2005-06-01T18:13:13-07:00</time>
      </trkpt>
      <trkpt lat="35.114036640152335" lon="-118.25748603790998">
        <time>2005-06-01T18:13:14-07:00</time>
      </trkpt>
      <trkpt lat="35.114022474735975" lon="-118.2574850320816">
        <time>2005-06-01T18:13:21-07:00</time>
      </trkpt>
      <trkpt lat="35.11398810893297" lon="-118.25750724412501">
        <time>2005-06-01T18:13:22-07:00</time>
      </trkpt>
      <trkpt lat="35.11398358270526" lon="-118.25751470401883">
        <time>2005-06-01T18:13:27-07:00</time>
      </trkpt>
    </trkseg>
  </trk>
</gpx>
