<?xml version="1.0" encoding="UTF-8"?>
<gpx version="1.1" creator="GarminFitSummaryExtractor" xmlns="http://www.topografix.com/GPX/1/1" xmlns:xsi="http://www.w3.org/2001/XMLSchema-instance" xsi:schemaLocation="http://www.topografix.com/GPX/1/1 http://www.topografix.com/GPX/1/1/gpx.xsd">
  <metadata>
    <name>2025-05-11-05-57-50</name>
    <time>2005-05-12T05:57:50-07:00</time>
  </metadata>
  <trk>
    <name>2025-05-11-05-57-50</name>
    <type>HIKING</type>
    <trkseg>
      <trkpt lat="33.94787619821727" lon="-116.69201902113855">
        <time>2005-05-12T05:57:50-07:00</time>
      </trkpt>
      <trkpt lat="33.947851806879044" lon="-116.69205732643604">
        <time>2005-05-12T05:57:51-07:00</time>
      </trkpt>
      <trkpt lat="33.94784887321293" lon="-116.69203536584973">
        <time>2005-05-12T05:57:57-07:00</time>
      </trkpt>
      <trkpt lat="33.94785884767771" lon="-116.69203301891685">
        <time>2005-05-12T05:58:00-07:00</time>
      </trkpt>
      <trkpt lat="33.947877706959844" lon="-116.69199027121067">
        <time>2005-05-12T05:58:03-07:00</time>
      </trkpt>
      <trkpt lat="33.947902265936136" lon="-116.69196227565408">
        <time>2005-05-12T05:58:05-07:00</time>
      </trkpt>
      <trkpt lat="33.9479058701545" lon="-116.6919372137636">
        <time>2005-05-12T05:58:08-07:00</time>
      </trkpt>
      <trkpt lat="33.94791081547737" lon="-116.69191164895892">
        <time>2005-05-12T05:58:09-07:00</time>
      </trkpt>
      <trkpt lat="33.947911066934466" lon="-116.6919089667499">
        <time>2005-05-12T05:58:13-07:00</time>
      </trkpt>
      <trkpt lat="33.94792187958956" lon="-116.69183738529682">
        <time>2005-05-12T05:58:18-07:00</time>
      </trkpt>
      <trkpt lat="33.947973009198904" lon="-116.69176295399666">
        <time>2005-05-12T05:58:24-07:00</time>
      </trkpt>
      <trkpt lat="33.947999412193894" lon="-116.69169958680868">
        <time>2005-05-12T05:58:29-07:00</time>
      </trkpt>
      <trkpt lat="33.94798952154815" lon="-116.69164912775159">
        <time>2005-05-12T05:58:30-07:00</time>
      </trkpt>
      <trkpt lat="33.94798155874014" lon="-116.6916348785162">
        <time>2005-05-12T05:58:36-07:00</time>
      </trkpt>
      <trkpt lat="33.947949120774865" lon="-116.6915952321142">
        <time>2005-05-12T05:58:43-07:00</time>
      </trkpt>
      <trkpt lat="33.94792942330241" lon="-116.69158006086946">
        <time>2005-05-12T05:58:49-07:00</time>
      </trkpt>
      <trkpt lat="33.94791450351477" lon="-116.69155977666378">
        <time>2005-05-12T05:58:52-07:00</time>
      </trkpt>
      <trkpt lat="33.947874773293734" lon="-116.69153689406812">
        <time>2005-05-12T05:58:53-07:00</time>
      </trkpt>
      <trkpt lat="33.94786907359958" lon="-116.69153387658298">
        <time>2005-05-12T05:58:57-07:00</time>
      </trkpt>
      <trkpt lat="33.94786672666669" lon="-116.69152222573757">
        <time>2005-05-12T05:58:59-07:00</time>
      </trkpt>
      <trkpt lat="33.947874857112765" lon="-116.69148802757263">
        <time>2005-05-12T05:59:02-07:00</time>
      </trkpt>
      <trkpt lat="33.94790603779256" lon="-116.69145039282739">
        <time>2005-05-12T05:59:06-07:00</time>
      </trkpt>
      <trkpt lat="33.94790670834482" lon="-116.69143832288682">
        <time>2005-05-12T05:59:07-07:00</time>
      </trkpt>
      <trkpt lat="33.94792632199824" lon="-116.69138509780169">
        <time>2005-05-12T05:59:08-07:00</time>
      </trkpt>
      <trkpt lat="33.94793470390141" lon="-116.69132868759334">
        <time>2005-05-12T05:59:11-07:00</time>
      </trkpt>
      <trkpt lat="33.94794157706201" lon="-116.69129960238934">
        <time>2005-05-12T05:59:17-07:00</time>
      </trkpt>
      <trkpt lat="33.94797334447503" lon="-116.69120253995061">
        <time>2005-05-12T05:59:18-07:00</time>
      </trkpt>
      <trkpt lat="33.94799295812845" lon="-116.69110497459769">
        <time>2005-05-12T05:59:23-07:00</time>
      </trkpt>
      <trkpt lat="33.94800150766969" lon="-116.69101981446147">
        <time>2005-05-12T05:59:28-07:00</time>
      </trkpt>
      <trkpt lat="33.948013661429286" lon="-116.69093976728618">
        <time>2005-05-12T05:59:30-07:00</time>
      </trkpt>
      <trkpt lat="33.94801533780992" lon="-116.69090489856899">
        <time>2005-05-12T05:59:38-07:00</time>
      </trkpt>
      <trkpt lat="33.948018522933125" lon="-116.69085008092225">
        <time>2005-05-12T05:59:45-07:00</time>
      </trkpt>
      <trkpt lat="33.948025815188885" lon="-116.69080574065447">
        <time>2005-05-12T05:59:51-07:00</time>
      </trkpt>
      <trkpt lat="33.94803386181593" lon="-116.69074933044612">
        <time>2005-05-12T05:59:57-07:00</time>
      </trkpt>
      <trkpt lat="33.948045428842306" lon="-116.69067330658436">
        <time>2005-05-12T06:00:00-07:00</time>
      </trkpt>
      <trkpt lat="33.94805397838354" lon="-116.69057079590857">
        <time>2005-05-12T06:00:04-07:00</time>
      </trkpt>
      <trkpt lat="33.94806236028671" lon="-116.69054003432393">
        <time>2005-05-12T06:00:08-07:00</time>
      </trkpt>
      <trkpt lat="33.94806554540992" lon="-116.69048521667719">
        <time>2005-05-12T06:00:12-07:00</time>
      </trkpt>
      <trkpt lat="33.94807334057987" lon="-116.6904017329216">
        <time>2005-05-12T06:00:18-07:00</time>
      </trkpt>
      <trkpt lat="33.948087422177196" lon="-116.69032285921276">
        <time>2005-05-12T06:00:25-07:00</time>
      </trkpt>
      <trkpt lat="33.948094295337796" lon="-116.69029327109456">
        <time>2005-05-12T06:00:27-07:00</time>
      </trkpt>
      <trkpt lat="33.9481077902019" lon="-116.69024826027453">
        <time>2005-05-12T06:00:31-07:00</time>
      </trkpt>
      <trkpt lat="33.948142575100064" lon="-116.69016142375767">
        <time>2005-05-12T06:00:38-07:00</time>
      </trkpt>
      <trkpt lat="33.948162607848644" lon="-116.69008204713464">
        <time>2005-05-12T06:00:44-07:00</time>
      </trkpt>
      <trkpt lat="33.94816839136183" lon="-116.69003653340042">
        <time>2005-05-12T06:00:46-07:00</time>
      </trkpt>
      <trkpt lat="33.94816730171442" lon="-116.69001256115735">
        <time>2005-05-12T06:00:49-07:00</time>
      </trkpt>
      <trkpt lat="33.94817903637886" lon="-116.68997786007822">
        <time>2005-05-12T06:00:56-07:00</time>
      </trkpt>
      <trkpt lat="33.94818825647235" lon="-116.68994760140777">
        <time>2005-05-12T06:01:01-07:00</time>
      </trkpt>
      <trkpt lat="33.94819353707135" lon="-116.68993611820042">
        <time>2005-05-12T06:01:04-07:00</time>
      </trkpt>
      <trkpt lat="33.94819370470941" lon="-116.68991885147989">
        <time>2005-05-12T06:01:06-07:00</time>
      </trkpt>
      <trkpt lat="33.948196889832616" lon="-116.68983939103782">
        <time>2005-05-12T06:01:09-07:00</time>
      </trkpt>
      <trkpt lat="33.948192447423935" lon="-116.68979513458908">
        <time>2005-05-12T06:01:12-07:00</time>
      </trkpt>
      <trkpt lat="33.94819110631943" lon="-116.68979253619909">
        <time>2005-05-12T06:01:13-07:00</time>
      </trkpt>
      <trkpt lat="33.94819177687168" lon="-116.68974693864584">
        <time>2005-05-12T06:01:14-07:00</time>
      </trkpt>
      <trkpt lat="33.94818289205432" lon="-116.68966102413833">
        <time>2005-05-12T06:01:20-07:00</time>
      </trkpt>
      <trkpt lat="33.948192028328776" lon="-116.68964325450361">
        <time>2005-05-12T06:01:26-07:00</time>
      </trkpt>
      <trkpt lat="33.94819747656584" lon="-116.68960461392999">
        <time>2005-05-12T06:01:32-07:00</time>
      </trkpt>
      <trkpt lat="33.94819714128971" lon="-116.68959338217974">
        <time>2005-05-12T06:01:36-07:00</time>
      </trkpt>
      <trkpt lat="33.9482010807842" lon="-116.68955977074802">
        <time>2005-05-12T06:01:44-07:00</time>
      </trkpt>
      <trkpt lat="33.94820577464998" lon="-116.68955457396805">
        <time>2005-05-12T06:01:46-07:00</time>
      </trkpt>
      <trkpt lat="33.948221784085035" lon="-116.68953613378108">
        <time>2005-05-12T06:01:50-07:00</time>
      </trkpt>
      <trkpt lat="33.94824584014714" lon="-116.68950361199677">
        <time>2005-05-12T06:01:51-07:00</time>
      </trkpt>
      <trkpt lat="33.94825757481158" lon="-116.68948584236205">
        <time>2005-05-12T06:01:55-07:00</time>
      </trkpt>
      <trkpt lat="33.948265705257654" lon="-116.68947217985988">
        <time>2005-05-12T06:01:56-07:00</time>
      </trkpt>
      <trkpt lat="33.94828716292977" lon="-116.68944192118943">
        <time>2005-05-12T06:01:58-07:00</time>
      </trkpt>
      <trkpt lat="33.94830551929772" lon="-116.68941761367023">
        <time>2005-05-12T06:02:02-07:00</time>
      </trkpt>
      <trkpt lat="33.948322953656316" lon="-116.68939649127424">
        <time>2005-05-12T06:02:04-07:00</time>
      </trkpt>
      <trkpt lat="33.948327815160155" lon="-116.68938048183918">
        <time>2005-05-12T06:02:05-07:00</time>
      </trkpt>
      <trkpt lat="33.94834214821458" lon="-116.68936874717474">
        <time>2005-05-12T06:02:08-07:00</time>
      </trkpt>
      <trkpt lat="33.94838799722493" lon="-116.68934770859778">
        <time>2005-05-12T06:02:11-07:00</time>
      </trkpt>
      <trkpt lat="33.94840585067868" lon="-116.68932985514402">
        <time>2005-05-12T06:02:13-07:00</time>
      </trkpt>
      <trkpt lat="33.94842286594212" lon="-116.68930579908192">
        <time>2005-05-12T06:02:15-07:00</time>
      </trkpt>
      <trkpt lat="33.94843837246299" lon="-116.68929188512266">
        <time>2005-05-12T06:02:17-07:00</time>
      </trkpt>
      <trkpt lat="33.94848153926432" lon="-116.68925584293902">
        <time>2005-05-12T06:02:21-07:00</time>
      </trkpt>
      <trkpt lat="33.94851414486766" lon="-116.68920077383518">
        <time>2005-05-12T06:02:23-07:00</time>
      </trkpt>
      <trkpt lat="33.94851867109537" lon="-116.68918870389462">
        <time>2005-05-12T06:02:25-07:00</time>
      </trkpt>
      <trkpt lat="33.94856099970639" lon="-116.68912977911532">
        <time>2005-05-12T06:02:27-07:00</time>
      </trkpt>
      <trkpt lat="33.94861481152475" lon="-116.68908191844821">
        <time>2005-05-12T06:02:32-07:00</time>
      </trkpt>
      <trkpt lat="33.94867197610438" lon="-116.68904202058911">
        <time>2005-05-12T06:02:37-07:00</time>
      </trkpt>
      <trkpt lat="33.948727045208216" lon="-116.68898007832468">
        <time>2005-05-12T06:02:38-07:00</time>
      </trkpt>
      <trkpt lat="33.94874255172908" lon="-116.68894168920815">
        <time>2005-05-12T06:02:44-07:00</time>
      </trkpt>
      <trkpt lat="33.948746072128415" lon="-116.68889466673136">
        <time>2005-05-12T06:02:50-07:00</time>
      </trkpt>
      <trkpt lat="33.94876392558217" lon="-116.68882451020181">
        <time>2005-05-12T06:02:55-07:00</time>
      </trkpt>
      <trkpt lat="33.948810528963804" lon="-116.68879684992135">
        <time>2005-05-12T06:03:01-07:00</time>
      </trkpt>
      <trkpt lat="33.94882318563759" lon="-116.68878804892302">
        <time>2005-05-12T06:03:04-07:00</time>
      </trkpt>
      <trkpt lat="33.94886157475412" lon="-116.68873935006559">
        <time>2005-05-12T06:03:07-07:00</time>
      </trkpt>
      <trkpt lat="33.94887037575245" lon="-116.68866416439414">
        <time>2005-05-12T06:03:13-07:00</time>
      </trkpt>
      <trkpt lat="33.948879009112716" lon="-116.68859920464456">
        <time>2005-05-12T06:03:17-07:00</time>
      </trkpt>
      <trkpt lat="33.94888110458851" lon="-116.68858436867595">
        <time>2005-05-12T06:03:18-07:00</time>
      </trkpt>
      <trkpt lat="33.94888152368367" lon="-116.68852200731635">
        <time>2005-05-12T06:03:23-07:00</time>
      </trkpt>
      <trkpt lat="33.94889677874744" lon="-116.6884386073798">
        <time>2005-05-12T06:03:29-07:00</time>
      </trkpt>
      <trkpt lat="33.94889686256647" lon="-116.68834866955876">
        <time>2005-05-12T06:03:34-07:00</time>
      </trkpt>
      <trkpt lat="33.94890499301255" lon="-116.68826032429934">
        <time>2005-05-12T06:03:35-07:00</time>
      </trkpt>
      <trkpt lat="33.94892619922757" lon="-116.68818455189466">
        <time>2005-05-12T06:03:40-07:00</time>
      </trkpt>
      <trkpt lat="33.948956122621894" lon="-116.68812151998281">
        <time>2005-05-12T06:03:46-07:00</time>
      </trkpt>
      <trkpt lat="33.94899493083358" lon="-116.68804633431137">
        <time>2005-05-12T06:03:52-07:00</time>
      </trkpt>
      <trkpt lat="33.9490195736289" lon="-116.6879877448082">
        <time>2005-05-12T06:03:58-07:00</time>
      </trkpt>
      <trkpt lat="33.94903021864593" lon="-116.68793560937047">
        <time>2005-05-12T06:04:04-07:00</time>
      </trkpt>
      <trkpt lat="33.949036337435246" lon="-116.68791867792606">
        <time>2005-05-12T06:04:09-07:00</time>
      </trkpt>
      <trkpt lat="33.94904622808099" lon="-116.68788800016046">
        <time>2005-05-12T06:04:15-07:00</time>
      </trkpt>
      <trkpt lat="33.94906181842089" lon="-116.6878460906446">
        <time>2005-05-12T06:04:20-07:00</time>
      </trkpt>
      <trkpt lat="33.94908310845494" lon="-116.68777903541923">
        <time>2005-05-12T06:04:24-07:00</time>
      </trkpt>
      <trkpt lat="33.9491094276309" lon="-116.68771055527031">
        <time>2005-05-12T06:04:25-07:00</time>
      </trkpt>
      <trkpt lat="33.94913851283491" lon="-116.68763008899987">
        <time>2005-05-12T06:04:28-07:00</time>
      </trkpt>
      <trkpt lat="33.949161898344755" lon="-116.68757686391473">
        <time>2005-05-12T06:04:31-07:00</time>
      </trkpt>
      <trkpt lat="33.94918913953006" lon="-116.68750603683293">
        <time>2005-05-12T06:04:36-07:00</time>
      </trkpt>
      <trkpt lat="33.949223505333066" lon="-116.68744627386332">
        <time>2005-05-12T06:04:41-07:00</time>
      </trkpt>
      <trkpt lat="33.949255272746086" lon="-116.68742129579186">
        <time>2005-05-12T06:04:47-07:00</time>
      </trkpt>
      <trkpt lat="33.94926088862121" lon="-116.68741702102125">
        <time>2005-05-12T06:04:52-07:00</time>
      </trkpt>
      <trkpt lat="33.94927706569433" lon="-116.68734837323427">
        <time>2005-05-12T06:04:57-07:00</time>
      </trkpt>
      <trkpt lat="33.949290895834565" lon="-116.68726488947868">
        <time>2005-05-12T06:05:03-07:00</time>
      </trkpt>
      <trkpt lat="33.9493081625551" lon="-116.68718165718019">
        <time>2005-05-12T06:05:08-07:00</time>
      </trkpt>
      <trkpt lat="33.94931914284825" lon="-116.68713815510273">
        <time>2005-05-12T06:05:09-07:00</time>
      </trkpt>
      <trkpt lat="33.9493338111788" lon="-116.68709381483495">
        <time>2005-05-12T06:05:14-07:00</time>
      </trkpt>
      <trkpt lat="33.94935208372772" lon="-116.68706665746868">
        <time>2005-05-12T06:05:21-07:00</time>
      </trkpt>
      <trkpt lat="33.949369098991156" lon="-116.68705576099455">
        <time>2005-05-12T06:05:27-07:00</time>
      </trkpt>
      <trkpt lat="33.94939516671002" lon="-116.68699817731977">
        <time>2005-05-12T06:05:30-07:00</time>
      </trkpt>
      <trkpt lat="33.94941922277212" lon="-116.68694101274014">
        <time>2005-05-12T06:05:34-07:00</time>
      </trkpt>
      <trkpt lat="33.949436070397496" lon="-116.68689524754882">
        <time>2005-05-12T06:05:37-07:00</time>
      </trkpt>
      <trkpt lat="33.94944076426327" lon="-116.68686842545867">
        <time>2005-05-12T06:05:39-07:00</time>
      </trkpt>
      <trkpt lat="33.949450235813856" lon="-116.68683632276952">
        <time>2005-05-12T06:05:44-07:00</time>
      </trkpt>
      <trkpt lat="33.949467251077294" lon="-116.68676616623998">
        <time>2005-05-12T06:05:49-07:00</time>
      </trkpt>
      <trkpt lat="33.94947110675275" lon="-116.6867250110954">
        <time>2005-05-12T06:05:53-07:00</time>
      </trkpt>
      <trkpt lat="33.94947781227529" lon="-116.686686957255">
        <time>2005-05-12T06:05:55-07:00</time>
      </trkpt>
      <trkpt lat="33.949479991570115" lon="-116.68661730363965">
        <time>2005-05-12T06:05:57-07:00</time>
      </trkpt>
      <trkpt lat="33.94947663880885" lon="-116.68658880516887">
        <time>2005-05-12T06:06:02-07:00</time>
      </trkpt>
      <trkpt lat="33.94946104846895" lon="-116.68649467639625">
        <time>2005-05-12T06:06:05-07:00</time>
      </trkpt>
      <trkpt lat="33.949454594403505" lon="-116.68638546019793">
        <time>2005-05-12T06:06:08-07:00</time>
      </trkpt>
      <trkpt lat="33.94945249892771" lon="-116.68630935251713">
        <time>2005-05-12T06:06:13-07:00</time>
      </trkpt>
      <trkpt lat="33.94945375621319" lon="-116.68619074858725">
        <time>2005-05-12T06:06:15-07:00</time>
      </trkpt>
      <trkpt lat="33.94945694133639" lon="-116.68617339804769">
        <time>2005-05-12T06:06:21-07:00</time>
      </trkpt>
      <trkpt lat="33.949462892487645" lon="-116.68611707165837">
        <time>2005-05-12T06:06:28-07:00</time>
      </trkpt>
      <trkpt lat="33.94947496242821" lon="-116.6860481724143">
        <time>2005-05-12T06:06:33-07:00</time>
      </trkpt>
      <trkpt lat="33.94949600100517" lon="-116.68597474694252">
        <time>2005-05-12T06:06:41-07:00</time>
      </trkpt>
      <trkpt lat="33.949498515576124" lon="-116.68595999479294">
        <time>2005-05-12T06:06:42-07:00</time>
      </trkpt>
      <trkpt lat="33.94951494410634" lon="-116.68589218519628">
        <time>2005-05-12T06:06:46-07:00</time>
      </trkpt>
      <trkpt lat="33.94951796159148" lon="-116.68582211248577">
        <time>2005-05-12T06:06:51-07:00</time>
      </trkpt>
      <trkpt lat="33.949522487819195" lon="-116.68574600480497">
        <time>2005-05-12T06:06:56-07:00</time>
      </trkpt>
      <trkpt lat="33.94953355193138" lon="-116.685701161623">
        <time>2005-05-12T06:06:57-07:00</time>
      </trkpt>
      <trkpt lat="33.94953447394073" lon="-116.68566646054387">
        <time>2005-05-12T06:07:02-07:00</time>
      </trkpt>
      <trkpt lat="33.94953506067395" lon="-116.68558959849179">
        <time>2005-05-12T06:07:07-07:00</time>
      </trkpt>
      <trkpt lat="33.94954562187195" lon="-116.68555271811783">
        <time>2005-05-12T06:07:12-07:00</time>
      </trkpt>
      <trkpt lat="33.949548890814185" lon="-116.68554567731917">
        <time>2005-05-12T06:07:15-07:00</time>
      </trkpt>
      <trkpt lat="33.94956339150667" lon="-116.68551935814321">
        <time>2005-05-12T06:07:18-07:00</time>
      </trkpt>
      <trkpt lat="33.94957797601819" lon="-116.6854971460998">
        <time>2005-05-12T06:07:23-07:00</time>
      </trkpt>
      <trkpt lat="33.949588034301996" lon="-116.6854815557599">
        <time>2005-05-12T06:07:26-07:00</time>
      </trkpt>
      <trkpt lat="33.94958183169365" lon="-116.6854165121913">
        <time>2005-05-12T06:07:27-07:00</time>
      </trkpt>
      <trkpt lat="33.94955048337579" lon="-116.68535641394556">
        <time>2005-05-12T06:07:30-07:00</time>
      </trkpt>
      <trkpt lat="33.94955249503255" lon="-116.6852933820337">
        <time>2005-05-12T06:07:33-07:00</time>
      </trkpt>
      <trkpt lat="33.94954922609031" lon="-116.68528215028346">
        <time>2005-05-12T06:07:35-07:00</time>
      </trkpt>
      <trkpt lat="33.94954822026193" lon="-116.68525407090783">
        <time>2005-05-12T06:07:39-07:00</time>
      </trkpt>
      <trkpt lat="33.949547465890646" lon="-116.68519891798496">
        <time>2005-05-12T06:07:43-07:00</time>
      </trkpt>
      <trkpt lat="33.94954679533839" lon="-116.68509598821402">
        <time>2005-05-12T06:07:48-07:00</time>
      </trkpt>
      <trkpt lat="33.94957160577178" lon="-116.6850190423429">
        <time>2005-05-12T06:07:49-07:00</time>
      </trkpt>
      <trkpt lat="33.94958132877946" lon="-116.6849397495389">
        <time>2005-05-12T06:07:51-07:00</time>
      </trkpt>
      <trkpt lat="33.94958577118814" lon="-116.68492591939867">
        <time>2005-05-12T06:07:54-07:00</time>
      </trkpt>
      <trkpt lat="33.9495949074626" lon="-116.68490303680301">
        <time>2005-05-12T06:08:00-07:00</time>
      </trkpt>
      <trkpt lat="33.94959365017712" lon="-116.6849051322788">
        <time>2005-05-12T06:08:06-07:00</time>
      </trkpt>
      <trkpt lat="33.94959365017712" lon="-116.6849051322788">
        <time>2005-05-12T06:08:11-07:00</time>
      </trkpt>
      <trkpt lat="33.94959365017712" lon="-116.6849051322788">
        <time>2005-05-12T06:08:12-07:00</time>
      </trkpt>
      <trkpt lat="33.949584010988474" lon="-116.68489281088114">
        <time>2005-05-12T06:08:18-07:00</time>
      </trkpt>
      <trkpt lat="33.949584010988474" lon="-116.68489281088114">
        <time>2005-05-12T06:08:22-07:00</time>
      </trkpt>
      <trkpt lat="33.949584010988474" lon="-116.68489281088114">
        <time>2005-05-12T06:08:28-07:00</time>
      </trkpt>
      <trkpt lat="33.949584010988474" lon="-116.68489281088114">
        <time>2005-05-12T06:08:33-07:00</time>
      </trkpt>
      <trkpt lat="33.949584010988474" lon="-116.68489281088114">
        <time>2005-05-12T06:08:44-07:00</time>
      </trkpt>
      <trkpt lat="33.94958836957812" lon="-116.68490127660334">
        <time>2005-05-12T06:08:51-07:00</time>
      </trkpt>
      <trkpt lat="33.949591889977455" lon="-116.6849072277546">
        <time>2005-05-12T06:08:55-07:00</time>
      </trkpt>
      <trkpt lat="33.949591889977455" lon="-116.6849072277546">
        <time>2005-05-12T06:08:57-07:00</time>
      </trkpt>
      <trkpt lat="33.94959105178714" lon="-116.68490613810718">
        <time>2005-05-12T06:08:58-07:00</time>
      </trkpt>
      <trkpt lat="33.94959080033004" lon="-116.68490571901202">
        <time>2005-05-12T06:09:06-07:00</time>
      </trkpt>
      <trkpt lat="33.94959373399615" lon="-116.68489918112755">
        <time>2005-05-12T06:09:12-07:00</time>
      </trkpt>
      <trkpt lat="33.94958040677011" lon="-116.68492449447513">
        <time>2005-05-12T06:09:21-07:00</time>
      </trkpt>
      <trkpt lat="33.949550399556756" lon="-116.68504259549081">
        <time>2005-05-12T06:09:29-07:00</time>
      </trkpt>
      <trkpt lat="33.94954604096711" lon="-116.68518232181668">
        <time>2005-05-12T06:09:36-07:00</time>
      </trkpt>
      <trkpt lat="33.94954511895776" lon="-116.68521442450583">
        <time>2005-05-12T06:09:39-07:00</time>
      </trkpt>
      <trkpt lat="33.94955199211836" lon="-116.68527267873287">
        <time>2005-05-12T06:09:43-07:00</time>
      </trkpt>
      <trkpt lat="33.94954260438681" lon="-116.68532498180866">
        <time>2005-05-12T06:09:49-07:00</time>
      </trkpt>
      <trkpt lat="33.94956096075475" lon="-116.68537309393287">
        <time>2005-05-12T06:09:53-07:00</time>
      </trkpt>
      <trkpt lat="33.949585100635886" lon="-116.6854355391115">
        <time>2005-05-12T06:09:54-07:00</time>
      </trkpt>
      <trkpt lat="33.94955350086093" lon="-116.68551835231483">
        <time>2005-05-12T06:09:56-07:00</time>
      </trkpt>
      <trkpt lat="33.94953145645559" lon="-116.68557216413319">
        <time>2005-05-12T06:09:58-07:00</time>
      </trkpt>
      <trkpt lat="33.9495341386646" lon="-116.68561222963035">
        <time>2005-05-12T06:10:00-07:00</time>
      </trkpt>
      <trkpt lat="33.949531288817525" lon="-116.68564726598561">
        <time>2005-05-12T06:10:02-07:00</time>
      </trkpt>
      <trkpt lat="33.94951846450567" lon="-116.6857360303402">
        <time>2005-05-12T06:10:05-07:00</time>
      </trkpt>
      <trkpt lat="33.949504466727376" lon="-116.68585228733718">
        <time>2005-05-12T06:10:07-07:00</time>
      </trkpt>
      <trkpt lat="33.949495162814856" lon="-116.68587575666606">
        <time>2005-05-12T06:10:08-07:00</time>
      </trkpt>
      <trkpt lat="33.94947110675275" lon="-116.685999808833">
        <time>2005-05-12T06:10:09-07:00</time>
      </trkpt>
      <trkpt lat="33.949453169479966" lon="-116.68608689680696">
        <time>2005-05-12T06:10:12-07:00</time>
      </trkpt>
      <trkpt lat="33.9494566898793" lon="-116.68615328148007">
        <time>2005-05-12T06:10:16-07:00</time>
      </trkpt>
      <trkpt lat="33.949442859739065" lon="-116.68629912659526">
        <time>2005-05-12T06:10:17-07:00</time>
      </trkpt>
      <trkpt lat="33.94945132546127" lon="-116.68641395866871">
        <time>2005-05-12T06:10:21-07:00</time>
      </trkpt>
      <trkpt lat="33.949460964649916" lon="-116.68651957064867">
        <time>2005-05-12T06:10:24-07:00</time>
      </trkpt>
      <trkpt lat="33.94948133267462" lon="-116.68665728531778">
        <time>2005-05-12T06:10:26-07:00</time>
      </trkpt>
      <trkpt lat="33.949457444250584" lon="-116.68680313043296">
        <time>2005-05-12T06:10:31-07:00</time>
      </trkpt>
      <trkpt lat="33.949428191408515" lon="-116.68692223727703">
        <time>2005-05-12T06:10:35-07:00</time>
      </trkpt>
      <trkpt lat="33.94942441955209" lon="-116.6869549266994">
        <time>2005-05-12T06:10:39-07:00</time>
      </trkpt>
      <trkpt lat="33.94938896410167" lon="-116.68700060807168">
        <time>2005-05-12T06:10:44-07:00</time>
      </trkpt>
      <trkpt lat="33.94936381839216" lon="-116.68704679235816">
        <time>2005-05-12T06:10:49-07:00</time>
      </trkpt>
      <trkpt lat="33.949326099827886" lon="-116.68708819895983">
        <time>2005-05-12T06:10:53-07:00</time>
      </trkpt>
      <trkpt lat="33.94929802045226" lon="-116.68713555671275">
        <time>2005-05-12T06:10:54-07:00</time>
      </trkpt>
      <trkpt lat="33.94928217865527" lon="-116.68722415342927">
        <time>2005-05-12T06:10:56-07:00</time>
      </trkpt>
      <trkpt lat="33.94928175956011" lon="-116.68725466355681">
        <time>2005-05-12T06:10:58-07:00</time>
      </trkpt>
      <trkpt lat="33.949252758175135" lon="-116.68739480897784">
        <time>2005-05-12T06:11:00-07:00</time>
      </trkpt>
      <trkpt lat="33.94918469712138" lon="-116.68748022057116">
        <time>2005-05-12T06:11:02-07:00</time>
      </trkpt>
      <trkpt lat="33.94915418699384" lon="-116.6875593457371">
        <time>2005-05-12T06:11:05-07:00</time>
      </trkpt>
      <trkpt lat="33.94911571405828" lon="-116.68766805902123">
        <time>2005-05-12T06:11:06-07:00</time>
      </trkpt>
      <trkpt lat="33.94909174181521" lon="-116.68775145895779">
        <time>2005-05-12T06:11:11-07:00</time>
      </trkpt>
      <trkpt lat="33.949077911674976" lon="-116.68780929408967">
        <time>2005-05-12T06:11:15-07:00</time>
      </trkpt>
      <trkpt lat="33.94903122447431" lon="-116.68793468736112">
        <time>2005-05-12T06:11:20-07:00</time>
      </trkpt>
      <trkpt lat="33.94902837462723" lon="-116.68795782141387">
        <time>2005-05-12T06:11:25-07:00</time>
      </trkpt>
      <trkpt lat="33.94898663274944" lon="-116.68804381974041">
        <time>2005-05-12T06:11:28-07:00</time>
      </trkpt>
      <trkpt lat="33.948928881436586" lon="-116.68816460296512">
        <time>2005-05-12T06:11:30-07:00</time>
      </trkpt>
      <trkpt lat="33.94890449009836" lon="-116.68824230320752">
        <time>2005-05-12T06:11:35-07:00</time>
      </trkpt>
      <trkpt lat="33.94890172407031" lon="-116.6882676165551">
        <time>2005-05-12T06:11:36-07:00</time>
      </trkpt>
      <trkpt lat="33.94888638518751" lon="-116.68843768537045">
        <time>2005-05-12T06:11:41-07:00</time>
      </trkpt>
      <trkpt lat="33.94887230359018" lon="-116.688526365906">
        <time>2005-05-12T06:11:46-07:00</time>
      </trkpt>
      <trkpt lat="33.94886048510671" lon="-116.68865963816643">
        <time>2005-05-12T06:11:49-07:00</time>
      </trkpt>
      <trkpt lat="33.94881463609636" lon="-116.68877773918211">
        <time>2005-05-12T06:11:50-07:00</time>
      </trkpt>
      <trkpt lat="33.94876719452441" lon="-116.68881570920348">
        <time>2005-05-12T06:11:56-07:00</time>
      </trkpt>
      <trkpt lat="33.9487314876169" lon="-116.68883934617043">
        <time>2005-05-12T06:11:59-07:00</time>
      </trkpt>
      <trkpt lat="33.94873207435012" lon="-116.68886885046959">
        <time>2005-05-12T06:12:03-07:00</time>
      </trkpt>
      <trkpt lat="33.948720172047615" lon="-116.68893037363887">
        <time>2005-05-12T06:12:07-07:00</time>
      </trkpt>
      <trkpt lat="33.948699636384845" lon="-116.68899541720748">
        <time>2005-05-12T06:12:09-07:00</time>
      </trkpt>
      <trkpt lat="33.94867926836014" lon="-116.6890271846205">
        <time>2005-05-12T06:12:11-07:00</time>
      </trkpt>
      <trkpt lat="33.948660576716065" lon="-116.6890546772629">
        <time>2005-05-12T06:12:12-07:00</time>
      </trkpt>
      <trkpt lat="33.94864037632942" lon="-116.68906247243285">
        <time>2005-05-12T06:12:14-07:00</time>
      </trkpt>
      <trkpt lat="33.94859779626131" lon="-116.68909356929362">
        <time>2005-05-12T06:12:16-07:00</time>
      </trkpt>
      <trkpt lat="33.94855923950672" lon="-116.68912634253502">
        <time>2005-05-12T06:12:17-07:00</time>
      </trkpt>
      <trkpt lat="33.948531579226255" lon="-116.68917990289629">
        <time>2005-05-12T06:12:18-07:00</time>
      </trkpt>
      <trkpt lat="33.94846142269671" lon="-116.68927143327892">
        <time>2005-05-12T06:12:19-07:00</time>
      </trkpt>
      <trkpt lat="33.9484185911715" lon="-116.68930663727224">
        <time>2005-05-12T06:12:21-07:00</time>
      </trkpt>
      <trkpt lat="33.94837944768369" lon="-116.68934569694102">
        <time>2005-05-12T06:12:23-07:00</time>
      </trkpt>
      <trkpt lat="33.94827861338854" lon="-116.68942767195404">
        <time>2005-05-12T06:12:25-07:00</time>
      </trkpt>
      <trkpt lat="33.948256401345134" lon="-116.68948701582849">
        <time>2005-05-12T06:12:29-07:00</time>
      </trkpt>
      <trkpt lat="33.94822681322694" lon="-116.68952188454568">
        <time>2005-05-12T06:12:31-07:00</time>
      </trkpt>
      <trkpt lat="33.94820309244096" lon="-116.68954325839877">
        <time>2005-05-12T06:12:33-07:00</time>
      </trkpt>
      <trkpt lat="33.948187502101064" lon="-116.6895832400769">
        <time>2005-05-12T06:12:38-07:00</time>
      </trkpt>
      <trkpt lat="33.94819018431008" lon="-116.68960746377707">
        <time>2005-05-12T06:12:40-07:00</time>
      </trkpt>
      <trkpt lat="33.94817903637886" lon="-116.68965666554868">
        <time>2005-05-12T06:12:42-07:00</time>
      </trkpt>
      <trkpt lat="33.948173420503736" lon="-116.68967904523015">
        <time>2005-05-12T06:12:43-07:00</time>
      </trkpt>
      <trkpt lat="33.948179204016924" lon="-116.68971232138574">
        <time>2005-05-12T06:12:45-07:00</time>
      </trkpt>
      <trkpt lat="33.94818842411041" lon="-116.68981240130961">
        <time>2005-05-12T06:12:46-07:00</time>
      </trkpt>
      <trkpt lat="33.948188005015254" lon="-116.68986805714667">
        <time>2005-05-12T06:12:48-07:00</time>
      </trkpt>
      <trkpt lat="33.948188507929444" lon="-116.68993670493364">
        <time>2005-05-12T06:12:49-07:00</time>
      </trkpt>
      <trkpt lat="33.948161685839295" lon="-116.69005539268255">
        <time>2005-05-12T06:12:50-07:00</time>
      </trkpt>
      <trkpt lat="33.94814525730908" lon="-116.69010182842612">
        <time>2005-05-12T06:12:53-07:00</time>
      </trkpt>
      <trkpt lat="33.94813846796751" lon="-116.69013451784849">
        <time>2005-05-12T06:12:55-07:00</time>
      </trkpt>
      <trkpt lat="33.94813117571175" lon="-116.69017081148922">
        <time>2005-05-12T06:12:57-07:00</time>
      </trkpt>
      <trkpt lat="33.94810661673546" lon="-116.69022923335433">
        <time>2005-05-12T06:13:01-07:00</time>
      </trkpt>
      <trkpt lat="33.94808239303529" lon="-116.69034188613296">
        <time>2005-05-12T06:13:03-07:00</time>
      </trkpt>
      <trkpt lat="33.94806370139122" lon="-116.69049913063645">
        <time>2005-05-12T06:13:05-07:00</time>
      </trkpt>
      <trkpt lat="33.94803989678621" lon="-116.69061387889087">
        <time>2005-05-12T06:13:07-07:00</time>
      </trkpt>
      <trkpt lat="33.948019444942474" lon="-116.69072326272726">
        <time>2005-05-12T06:13:10-07:00</time>
      </trkpt>
      <trkpt lat="33.94801248796284" lon="-116.69080406427383">
        <time>2005-05-12T06:13:14-07:00</time>
      </trkpt>
      <trkpt lat="33.9480025973171" lon="-116.69091696850955">
        <time>2005-05-12T06:13:19-07:00</time>
      </trkpt>
      <trkpt lat="33.94800033420324" lon="-116.69097505509853">
        <time>2005-05-12T06:13:22-07:00</time>
      </trkpt>
      <trkpt lat="33.947991197928786" lon="-116.69105703011155">
        <time>2005-05-12T06:13:26-07:00</time>
      </trkpt>
      <trkpt lat="33.947976445779204" lon="-116.69118468649685">
        <time>2005-05-12T06:13:31-07:00</time>
      </trkpt>
      <trkpt lat="33.94797175191343" lon="-116.69120455160737">
        <time>2005-05-12T06:13:37-07:00</time>
      </trkpt>
      <trkpt lat="33.94794601947069" lon="-116.69127722270787">
        <time>2005-05-12T06:13:39-07:00</time>
      </trkpt>
      <trkpt lat="33.94793478772044" lon="-116.69129943475127">
        <time>2005-05-12T06:13:42-07:00</time>
      </trkpt>
      <trkpt lat="33.94792431034148" lon="-116.69134905561805">
        <time>2005-05-12T06:13:47-07:00</time>
      </trkpt>
      <trkpt lat="33.94792246632278" lon="-116.69138786382973">
        <time>2005-05-12T06:13:48-07:00</time>
      </trkpt>
      <trkpt lat="33.9479180239141" lon="-116.69142549857497">
        <time>2005-05-12T06:13:53-07:00</time>
      </trkpt>
      <trkpt lat="33.947897739708424" lon="-116.69147570617497">
        <time>2005-05-12T06:13:55-07:00</time>
      </trkpt>
      <trkpt lat="33.94785197451711" lon="-116.6915307752788">
        <time>2005-05-12T06:13:58-07:00</time>
      </trkpt>
      <trkpt lat="33.94784141331911" lon="-116.69153681024909">
        <time>2005-05-12T06:14:00-07:00</time>
      </trkpt>
      <trkpt lat="33.94784778356552" lon="-116.69154971837997">
        <time>2005-05-12T06:14:02-07:00</time>
      </trkpt>
      <trkpt lat="33.94788969308138" lon="-116.69158341363072">
        <time>2005-05-12T06:14:05-07:00</time>
      </trkpt>
      <trkpt lat="33.94795515574515" lon="-116.69165935367346">
        <time>2005-05-12T06:14:09-07:00</time>
      </trkpt>
      <trkpt lat="33.94797585904598" lon="-116.69167662039399">
        <time>2005-05-12T06:14:10-07:00</time>
      </trkpt>
      <trkpt lat="33.947984743863344" lon="-116.69172984547913">
        <time>2005-05-12T06:14:11-07:00</time>
      </trkpt>
      <trkpt lat="33.94797636196017" lon="-116.69176563620567">
        <time>2005-05-12T06:14:14-07:00</time>
      </trkpt>
      <trkpt lat="33.94796311855316" lon="-116.69179606251419">
        <time>2005-05-12T06:14:18-07:00</time>
      </trkpt>
      <trkpt lat="33.94791794009507" lon="-116.69188289903104">
        <time>2005-05-12T06:14:19-07:00</time>
      </trkpt>
      <trkpt lat="33.94791064783931" lon="-116.69191810302436">
        <time>2005-05-12T06:14:21-07:00</time>
      </trkpt>
      <trkpt lat="33.947903690859675" lon="-116.69192028231919">
        <time>2005-05-12T06:14:22-07:00</time>
      </trkpt>
      <trkpt lat="33.947900757193565" lon="-116.69192908331752">
        <time>2005-05-12T06:14:23-07:00</time>
      </trkpt>
      <trkpt lat="33.94788533449173" lon="-116.69197359122336">
        <time>2005-05-12T06:14:27-07:00</time>
      </trkpt>
      <trkpt lat="33.94785490818322" lon="-116.69200820848346">
        <time>2005-05-12T06:14:30-07:00</time>
      </trkpt>
      <trkpt lat="33.94786270335317" lon="-116.69201516546309">
        <time>2005-05-12T06:14:31-07:00</time>
      </trkpt>
      <trkpt lat="33.94785884767771" lon="-116.69201424345374">
        <time>2005-05-12T06:14:32-07:00</time>
      </trkpt>
      <trkpt lat="33.947882652282715" lon="-116.69204626232386">
        <time>2005-05-12T06:14:36-07:00</time>
      </trkpt>
      <trkpt lat="33.94788592122495" lon="-116.6920564044267">
        <time>2005-05-12T06:14:41-07:00</time>
      </trkpt>
      <trkpt lat="33.947927663102746" lon="-116.69209990650415">
        <time>2005-05-12T06:14:45-07:00</time>
      </trkpt>
      <trkpt lat="33.947971584275365" lon="-116.69212589040399">
        <time>2005-05-12T06:14:49-07:00</time>
      </trkpt>
      <trkpt lat="33.947984324768186" lon="-116.69212681241333">
        <time>2005-05-12T06:14:52-07:00</time>
      </trkpt>
      <trkpt lat="33.947992119938135" lon="-116.6921317577362">
        <time>2005-05-12T06:14:53-07:00</time>
      </trkpt>
      <trkpt lat="33.94796253181994" lon="-116.69212806969881">
        <time>2005-05-12T06:14:58-07:00</time>
      </trkpt>
    </trkseg>
  </trk>
</gpx>
