<?xml version="1.0" encoding="UTF-8"?>
<gpx version="1.1" creator="GarminFitSummaryExtractor" xmlns="http://www.topografix.com/GPX/1/1" xmlns:xsi="http://www.w3.org/2001/XMLSchema-instance" xsi:schemaLocation="http://www.topografix.com/GPX/1/1 http://www.topografix.com/GPX/1/1/gpx.xsd">
  <metadata>
    <name>2025-06-08-16-27-18</name>
    <time>2005-06-09T16:27:18-07:00</time>
  </metadata>
  <trk>
    <name>2025-06-08-16-27-18</name>
    <type>HIKING</type>
    <trkseg>
      <trkpt lat="36.018751775845885" lon="-118.12372092157602">
        <time>2005-06-09T16:27:18-07:00</time>
      </trkpt>
      <trkpt lat="36.018720511347055" lon="-118.12374925240874">
        <time>2005-06-09T16:27:21-07:00</time>
      </trkpt>
      <trkpt lat="36.018704837188125" lon="-118.12374983914196">
        <time>2005-06-09T16:27:22-07:00</time>
      </trkpt>
      <trkpt lat="36.01868572644889" lon="-118.12376090325415">
        <time>2005-06-09T16:27:24-07:00</time>
      </trkpt>
      <trkpt lat="36.01862747222185" lon="-118.12378261238337">
        <time>2005-06-09T16:27:31-07:00</time>
      </trkpt>
      <trkpt lat="36.018571900203824" lon="-118.12382251024246">
        <time>2005-06-09T16:27:37-07:00</time>
      </trkpt>
      <trkpt lat="36.01855027489364" lon="-118.12383550219238">
        <time>2005-06-09T16:27:39-07:00</time>
      </trkpt>
      <trkpt lat="36.018535858020186" lon="-118.12385980971158">
        <time>2005-06-09T16:27:41-07:00</time>
      </trkpt>
      <trkpt lat="36.01850769482553" lon="-118.12392988242209">
        <time>2005-06-09T16:27:46-07:00</time>
      </trkpt>
      <trkpt lat="36.018483052030206" lon="-118.1240551918745">
        <time>2005-06-09T16:27:55-07:00</time>
      </trkpt>
      <trkpt lat="36.018477100878954" lon="-118.12408125959337">
        <time>2005-06-09T16:27:57-07:00</time>
      </trkpt>
      <trkpt lat="36.01846042089164" lon="-118.12414387241006">
        <time>2005-06-09T16:28:01-07:00</time>
      </trkpt>
      <trkpt lat="36.01844918914139" lon="-118.12420648522675">
        <time>2005-06-09T16:28:05-07:00</time>
      </trkpt>
      <trkpt lat="36.018446926027536" lon="-118.1242214050144">
        <time>2005-06-09T16:28:06-07:00</time>
      </trkpt>
      <trkpt lat="36.01842228323221" lon="-118.12435199506581">
        <time>2005-06-09T16:28:15-07:00</time>
      </trkpt>
      <trkpt lat="36.01840149611235" lon="-118.12449976801872">
        <time>2005-06-09T16:28:25-07:00</time>
      </trkpt>
      <trkpt lat="36.01838003844023" lon="-118.12465265393257">
        <time>2005-06-09T16:28:35-07:00</time>
      </trkpt>
      <trkpt lat="36.018378026783466" lon="-118.12466589733958">
        <time>2005-06-09T16:28:36-07:00</time>
      </trkpt>
      <trkpt lat="36.01836662739515" lon="-118.1248186994344">
        <time>2005-06-09T16:28:46-07:00</time>
      </trkpt>
      <trkpt lat="36.018360843881965" lon="-118.12496144324541">
        <time>2005-06-09T16:28:56-07:00</time>
      </trkpt>
      <trkpt lat="36.018379367887974" lon="-118.12504668720067">
        <time>2005-06-09T16:29:03-07:00</time>
      </trkpt>
      <trkpt lat="36.01839764043689" lon="-118.12520166859031">
        <time>2005-06-09T16:29:13-07:00</time>
      </trkpt>
      <trkpt lat="36.01840107701719" lon="-118.12521642073989">
        <time>2005-06-09T16:29:14-07:00</time>
      </trkpt>
      <trkpt lat="36.01842370815575" lon="-118.12530149705708">
        <time>2005-06-09T16:29:20-07:00</time>
      </trkpt>
      <trkpt lat="36.01844742894173" lon="-118.12536771409214">
        <time>2005-06-09T16:29:25-07:00</time>
      </trkpt>
      <trkpt lat="36.018481040373445" lon="-118.12544457614422">
        <time>2005-06-09T16:29:31-07:00</time>
      </trkpt>
      <trkpt lat="36.01850727573037" lon="-118.12550576403737">
        <time>2005-06-09T16:29:36-07:00</time>
      </trkpt>
      <trkpt lat="36.01857651025057" lon="-118.12564708292484">
        <time>2005-06-09T16:29:47-07:00</time>
      </trkpt>
      <trkpt lat="36.018652534112334" lon="-118.12576451338828">
        <time>2005-06-09T16:29:56-07:00</time>
      </trkpt>
      <trkpt lat="36.018698047846556" lon="-118.12583047896624">
        <time>2005-06-09T16:30:03-07:00</time>
      </trkpt>
      <trkpt lat="36.018725372850895" lon="-118.12586702406406">
        <time>2005-06-09T16:30:07-07:00</time>
      </trkpt>
      <trkpt lat="36.018817657604814" lon="-118.12600675038993">
        <time>2005-06-09T16:30:19-07:00</time>
      </trkpt>
      <trkpt lat="36.018899800255895" lon="-118.12611982226372">
        <time>2005-06-09T16:30:30-07:00</time>
      </trkpt>
      <trkpt lat="36.018975069746375" lon="-118.1262413598597">
        <time>2005-06-09T16:30:41-07:00</time>
      </trkpt>
      <trkpt lat="36.018981439992785" lon="-118.12625619582832">
        <time>2005-06-09T16:30:42-07:00</time>
      </trkpt>
      <trkpt lat="36.019075736403465" lon="-118.12637739814818">
        <time>2005-06-09T16:30:53-07:00</time>
      </trkpt>
      <trkpt lat="36.01908336393535" lon="-118.12638703733683">
        <time>2005-06-09T16:30:54-07:00</time>
      </trkpt>
      <trkpt lat="36.01916743442416" lon="-118.12650924548507">
        <time>2005-06-09T16:31:05-07:00</time>
      </trkpt>
      <trkpt lat="36.019219402223825" lon="-118.12658644281328">
        <time>2005-06-09T16:31:12-07:00</time>
      </trkpt>
      <trkpt lat="36.01924957707524" lon="-118.12663053162396">
        <time>2005-06-09T16:31:16-07:00</time>
      </trkpt>
      <trkpt lat="36.019339598715305" lon="-118.12677084468305">
        <time>2005-06-09T16:31:28-07:00</time>
      </trkpt>
      <trkpt lat="36.019407492130995" lon="-118.12684904783964">
        <time>2005-06-09T16:31:37-07:00</time>
      </trkpt>
      <trkpt lat="36.01942744106054" lon="-118.12687184661627">
        <time>2005-06-09T16:31:39-07:00</time>
      </trkpt>
      <trkpt lat="36.01949290372431" lon="-118.12697251327336">
        <time>2005-06-09T16:31:49-07:00</time>
      </trkpt>
      <trkpt lat="36.0195798240602" lon="-118.12710050493479">
        <time>2005-06-09T16:32:00-07:00</time>
      </trkpt>
      <trkpt lat="36.019626427441835" lon="-118.12716906890273">
        <time>2005-06-09T16:32:06-07:00</time>
      </trkpt>
      <trkpt lat="36.01969658397138" lon="-118.12727401033044">
        <time>2005-06-09T16:32:15-07:00</time>
      </trkpt>
      <trkpt lat="36.01977948099375" lon="-118.12738557346165">
        <time>2005-06-09T16:32:26-07:00</time>
      </trkpt>
      <trkpt lat="36.01987327449024" lon="-118.12751348130405">
        <time>2005-06-09T16:32:38-07:00</time>
      </trkpt>
      <trkpt lat="36.01991442963481" lon="-118.12757944688201">
        <time>2005-06-09T16:32:44-07:00</time>
      </trkpt>
      <trkpt lat="36.01992926560342" lon="-118.12760543078184">
        <time>2005-06-09T16:32:46-07:00</time>
      </trkpt>
      <trkpt lat="36.019943514838815" lon="-118.12763133086264">
        <time>2005-06-09T16:32:48-07:00</time>
      </trkpt>
      <trkpt lat="36.01997058838606" lon="-118.12768044881523">
        <time>2005-06-09T16:32:52-07:00</time>
      </trkpt>
      <trkpt lat="36.02001610212028" lon="-118.1277541257441">
        <time>2005-06-09T16:32:59-07:00</time>
      </trkpt>
      <trkpt lat="36.020109225064516" lon="-118.12789485789835">
        <time>2005-06-09T16:33:12-07:00</time>
      </trkpt>
      <trkpt lat="36.02015633136034" lon="-118.12795889563859">
        <time>2005-06-09T16:33:18-07:00</time>
      </trkpt>
      <trkpt lat="36.020200084894896" lon="-118.1280239392072">
        <time>2005-06-09T16:33:24-07:00</time>
      </trkpt>
      <trkpt lat="36.02029027417302" lon="-118.12816450372338">
        <time>2005-06-09T16:33:36-07:00</time>
      </trkpt>
      <trkpt lat="36.02038465440273" lon="-118.12830766662955">
        <time>2005-06-09T16:33:48-07:00</time>
      </trkpt>
      <trkpt lat="36.02044550701976" lon="-118.12837539240718">
        <time>2005-06-09T16:33:55-07:00</time>
      </trkpt>
      <trkpt lat="36.020474173128605" lon="-118.12843054533005">
        <time>2005-06-09T16:33:59-07:00</time>
      </trkpt>
      <trkpt lat="36.02049311622977" lon="-118.1284690182656">
        <time>2005-06-09T16:34:02-07:00</time>
      </trkpt>
      <trkpt lat="36.02055958472192" lon="-118.12859985977411">
        <time>2005-06-09T16:34:12-07:00</time>
      </trkpt>
      <trkpt lat="36.020636949688196" lon="-118.12873288057745">
        <time>2005-06-09T16:34:24-07:00</time>
      </trkpt>
      <trkpt lat="36.02070786058903" lon="-118.12888626940548">
        <time>2005-06-09T16:34:36-07:00</time>
      </trkpt>
      <trkpt lat="36.02073325775564" lon="-118.12893806956708">
        <time>2005-06-09T16:34:40-07:00</time>
      </trkpt>
      <trkpt lat="36.02074507623911" lon="-118.12896489165723">
        <time>2005-06-09T16:34:42-07:00</time>
      </trkpt>
      <trkpt lat="36.020777681842446" lon="-118.12903110869229">
        <time>2005-06-09T16:34:47-07:00</time>
      </trkpt>
      <trkpt lat="36.02085362188518" lon="-118.129204781726">
        <time>2005-06-09T16:35:00-07:00</time>
      </trkpt>
      <trkpt lat="36.02089955471456" lon="-118.12931139953434">
        <time>2005-06-09T16:35:08-07:00</time>
      </trkpt>
      <trkpt lat="36.02092897519469" lon="-118.12937409617007">
        <time>2005-06-09T16:35:13-07:00</time>
      </trkpt>
      <trkpt lat="36.02094599045813" lon="-118.12941893935204">
        <time>2005-06-09T16:35:21-07:00</time>
      </trkpt>
      <trkpt lat="36.02093802765012" lon="-118.12943092547357">
        <time>2005-06-09T16:35:30-07:00</time>
      </trkpt>
      <trkpt lat="36.02093584835529" lon="-118.12943067401648">
        <time>2005-06-09T16:35:37-07:00</time>
      </trkpt>
      <trkpt lat="36.020945655182004" lon="-118.12941399402916">
        <time>2005-06-09T16:35:41-07:00</time>
      </trkpt>
      <trkpt lat="36.02096443064511" lon="-118.12939178198576">
        <time>2005-06-09T16:35:49-07:00</time>
      </trkpt>
      <trkpt lat="36.020968621596694" lon="-118.12939387746155">
        <time>2005-06-09T16:35:55-07:00</time>
      </trkpt>
      <trkpt lat="36.020968621596694" lon="-118.12939387746155">
        <time>2005-06-09T16:35:56-07:00</time>
      </trkpt>
      <trkpt lat="36.020968621596694" lon="-118.12939387746155">
        <time>2005-06-09T16:35:57-07:00</time>
      </trkpt>
      <trkpt lat="36.020968621596694" lon="-118.12939387746155">
        <time>2005-06-09T16:35:58-07:00</time>
      </trkpt>
      <trkpt lat="36.020968621596694" lon="-118.12939387746155">
        <time>2005-06-09T16:35:59-07:00</time>
      </trkpt>
      <trkpt lat="36.020968621596694" lon="-118.12939387746155">
        <time>2005-06-09T16:36:00-07:00</time>
      </trkpt>
      <trkpt lat="36.020968621596694" lon="-118.12939387746155">
        <time>2005-06-09T16:36:05-07:00</time>
      </trkpt>
      <trkpt lat="36.020968621596694" lon="-118.12939387746155">
        <time>2005-06-09T16:36:11-07:00</time>
      </trkpt>
      <trkpt lat="36.02096845395863" lon="-118.12939605675638">
        <time>2005-06-09T16:36:19-07:00</time>
      </trkpt>
      <trkpt lat="36.020968621596694" lon="-118.12939387746155">
        <time>2005-06-09T16:36:35-07:00</time>
      </trkpt>
      <trkpt lat="36.020968621596694" lon="-118.12939387746155">
        <time>2005-06-09T16:36:46-07:00</time>
      </trkpt>
      <trkpt lat="36.020968621596694" lon="-118.12939387746155">
        <time>2005-06-09T16:37:01-07:00</time>
      </trkpt>
      <trkpt lat="36.020954539999366" lon="-118.12941005453467">
        <time>2005-06-09T16:37:14-07:00</time>
      </trkpt>
      <trkpt lat="36.020952528342605" lon="-118.12940712086856">
        <time>2005-06-09T16:37:16-07:00</time>
      </trkpt>
      <trkpt lat="36.02095294743776" lon="-118.12940418720245">
        <time>2005-06-09T16:37:19-07:00</time>
      </trkpt>
      <trkpt lat="36.02095420472324" lon="-118.1294037681073">
        <time>2005-06-09T16:37:22-07:00</time>
      </trkpt>
      <trkpt lat="36.020950600504875" lon="-118.12940628267825">
        <time>2005-06-09T16:37:34-07:00</time>
      </trkpt>
      <trkpt lat="36.02094305679202" lon="-118.12939085997641">
        <time>2005-06-09T16:37:42-07:00</time>
      </trkpt>
      <trkpt lat="36.02093970403075" lon="-118.12938272953033">
        <time>2005-06-09T16:37:46-07:00</time>
      </trkpt>
      <trkpt lat="36.02094045840204" lon="-118.12938231043518">
        <time>2005-06-09T16:37:47-07:00</time>
      </trkpt>
      <trkpt lat="36.02094448171556" lon="-118.12938306480646">
        <time>2005-06-09T16:37:51-07:00</time>
      </trkpt>
      <trkpt lat="36.020946744829416" lon="-118.12938591465354">
        <time>2005-06-09T16:37:54-07:00</time>
      </trkpt>
      <trkpt lat="36.02094741538167" lon="-118.12940527684987">
        <time>2005-06-09T16:38:03-07:00</time>
      </trkpt>
      <trkpt lat="36.02095143869519" lon="-118.12944232486188">
        <time>2005-06-09T16:38:13-07:00</time>
      </trkpt>
      <trkpt lat="36.02095236070454" lon="-118.1294365413487">
        <time>2005-06-09T16:38:26-07:00</time>
      </trkpt>
      <trkpt lat="36.02095571346581" lon="-118.12943964265287">
        <time>2005-06-09T16:38:27-07:00</time>
      </trkpt>
      <trkpt lat="36.02096208371222" lon="-118.12946344725788">
        <time>2005-06-09T16:38:29-07:00</time>
      </trkpt>
      <trkpt lat="36.02097817696631" lon="-118.12949513085186">
        <time>2005-06-09T16:38:32-07:00</time>
      </trkpt>
      <trkpt lat="36.0209942702204" lon="-118.12953628599644">
        <time>2005-06-09T16:38:35-07:00</time>
      </trkpt>
      <trkpt lat="36.02100064046681" lon="-118.1295486073941">
        <time>2005-06-09T16:38:36-07:00</time>
      </trkpt>
      <trkpt lat="36.02100701071322" lon="-118.1295621022582">
        <time>2005-06-09T16:38:37-07:00</time>
      </trkpt>
      <trkpt lat="36.02105193771422" lon="-118.1296696420759">
        <time>2005-06-09T16:38:44-07:00</time>
      </trkpt>
      <trkpt lat="36.02105780504644" lon="-118.12969319522381">
        <time>2005-06-09T16:38:46-07:00</time>
      </trkpt>
      <trkpt lat="36.02111807093024" lon="-118.12981431372464">
        <time>2005-06-09T16:38:56-07:00</time>
      </trkpt>
      <trkpt lat="36.021176828071475" lon="-118.12997507862747">
        <time>2005-06-09T16:39:08-07:00</time>
      </trkpt>
      <trkpt lat="36.02123667486012" lon="-118.13011748716235">
        <time>2005-06-09T16:39:18-07:00</time>
      </trkpt>
      <trkpt lat="36.02126073092222" lon="-118.13015939667821">
        <time>2005-06-09T16:39:22-07:00</time>
      </trkpt>
      <trkpt lat="36.021315632387996" lon="-118.13025067560375">
        <time>2005-06-09T16:39:29-07:00</time>
      </trkpt>
      <trkpt lat="36.02140439674258" lon="-118.13038922846317">
        <time>2005-06-09T16:39:40-07:00</time>
      </trkpt>
      <trkpt lat="36.02141160517931" lon="-118.13040180131793">
        <time>2005-06-09T16:39:41-07:00</time>
      </trkpt>
      <trkpt lat="36.0214882157743" lon="-118.13051017932594">
        <time>2005-06-09T16:39:50-07:00</time>
      </trkpt>
      <trkpt lat="36.021501710638404" lon="-118.13053448684514">
        <time>2005-06-09T16:39:52-07:00</time>
      </trkpt>
      <trkpt lat="36.0215622279793" lon="-118.13061939552426">
        <time>2005-06-09T16:39:59-07:00</time>
      </trkpt>
      <trkpt lat="36.0215778183192" lon="-118.13064286485314">
        <time>2005-06-09T16:40:01-07:00</time>
      </trkpt>
      <trkpt lat="36.021673204377294" lon="-118.13078477047384">
        <time>2005-06-09T16:40:13-07:00</time>
      </trkpt>
      <trkpt lat="36.02173564955592" lon="-118.13086599111557">
        <time>2005-06-09T16:40:20-07:00</time>
      </trkpt>
      <trkpt lat="36.02175903506577" lon="-118.1309038773179">
        <time>2005-06-09T16:40:23-07:00</time>
      </trkpt>
      <trkpt lat="36.021820306777954" lon="-118.13098459504545">
        <time>2005-06-09T16:40:30-07:00</time>
      </trkpt>
      <trkpt lat="36.021867999807" lon="-118.13103932887316">
        <time>2005-06-09T16:40:35-07:00</time>
      </trkpt>
      <trkpt lat="36.021974282339215" lon="-118.131147287786">
        <time>2005-06-09T16:40:46-07:00</time>
      </trkpt>
      <trkpt lat="36.0220630466938" lon="-118.13121945597231">
        <time>2005-06-09T16:40:55-07:00</time>
      </trkpt>
      <trkpt lat="36.02217343635857" lon="-118.13133261166513">
        <time>2005-06-09T16:41:06-07:00</time>
      </trkpt>
      <trkpt lat="36.02223688736558" lon="-118.1313896086067">
        <time>2005-06-09T16:41:12-07:00</time>
      </trkpt>
      <trkpt lat="36.022306960076094" lon="-118.13145238906145">
        <time>2005-06-09T16:41:20-07:00</time>
      </trkpt>
      <trkpt lat="36.022350965067744" lon="-118.13149170018733">
        <time>2005-06-09T16:41:24-07:00</time>
      </trkpt>
      <trkpt lat="36.02243218570948" lon="-118.13154861330986">
        <time>2005-06-09T16:41:31-07:00</time>
      </trkpt>
      <trkpt lat="36.022451715543866" lon="-118.13156152144074">
        <time>2005-06-09T16:41:33-07:00</time>
      </trkpt>
      <trkpt lat="36.022556740790606" lon="-118.1316481065005">
        <time>2005-06-09T16:41:43-07:00</time>
      </trkpt>
      <trkpt lat="36.022669561207294" lon="-118.131715497002">
        <time>2005-06-09T16:41:53-07:00</time>
      </trkpt>
      <trkpt lat="36.02268213406205" lon="-118.13172530382872">
        <time>2005-06-09T16:41:54-07:00</time>
      </trkpt>
      <trkpt lat="36.02278950624168" lon="-118.13181348145008">
        <time>2005-06-09T16:42:04-07:00</time>
      </trkpt>
      <trkpt lat="36.02285010740161" lon="-118.13185161910951">
        <time>2005-06-09T16:42:10-07:00</time>
      </trkpt>
      <trkpt lat="36.02291020564735" lon="-118.13190400600433">
        <time>2005-06-09T16:42:16-07:00</time>
      </trkpt>
      <trkpt lat="36.023021433502436" lon="-118.13201665878296">
        <time>2005-06-09T16:42:28-07:00</time>
      </trkpt>
      <trkpt lat="36.023084968328476" lon="-118.1320955324918">
        <time>2005-06-09T16:42:35-07:00</time>
      </trkpt>
      <trkpt lat="36.023140121251345" lon="-118.13215227797627">
        <time>2005-06-09T16:42:41-07:00</time>
      </trkpt>
      <trkpt lat="36.02321262471378" lon="-118.13224481418729">
        <time>2005-06-09T16:42:50-07:00</time>
      </trkpt>
      <trkpt lat="36.02326073683798" lon="-118.13232209533453">
        <time>2005-06-09T16:42:58-07:00</time>
      </trkpt>
      <trkpt lat="36.02326752617955" lon="-118.13233190216124">
        <time>2005-06-09T16:42:59-07:00</time>
      </trkpt>
      <trkpt lat="36.02335109375417" lon="-118.13247380778193">
        <time>2005-06-09T16:43:10-07:00</time>
      </trkpt>
      <trkpt lat="36.02339359000325" lon="-118.13255930319428">
        <time>2005-06-09T16:43:17-07:00</time>
      </trkpt>
      <trkpt lat="36.023417646065354" lon="-118.13261948525906">
        <time>2005-06-09T16:43:22-07:00</time>
      </trkpt>
      <trkpt lat="36.02346810512245" lon="-118.13275711610913">
        <time>2005-06-09T16:43:32-07:00</time>
      </trkpt>
      <trkpt lat="36.023479253053665" lon="-118.13278276473284">
        <time>2005-06-09T16:43:34-07:00</time>
      </trkpt>
      <trkpt lat="36.02351772598922" lon="-118.13291234895587">
        <time>2005-06-09T16:43:43-07:00</time>
      </trkpt>
      <trkpt lat="36.02356290444732" lon="-118.13308308832347">
        <time>2005-06-09T16:43:55-07:00</time>
      </trkpt>
      <trkpt lat="36.023587211966515" lon="-118.13318987376988">
        <time>2005-06-09T16:44:02-07:00</time>
      </trkpt>
      <trkpt lat="36.023591570556164" lon="-118.13321460038424">
        <time>2005-06-09T16:44:04-07:00</time>
      </trkpt>
      <trkpt lat="36.023609759286046" lon="-118.13334502279758">
        <time>2005-06-09T16:44:13-07:00</time>
      </trkpt>
      <trkpt lat="36.02362467907369" lon="-118.13345717266202">
        <time>2005-06-09T16:44:20-07:00</time>
      </trkpt>
      <trkpt lat="36.02363205514848" lon="-118.13351542688906">
        <time>2005-06-09T16:44:24-07:00</time>
      </trkpt>
      <trkpt lat="36.02363700047135" lon="-118.13358600251377">
        <time>2005-06-09T16:44:29-07:00</time>
      </trkpt>
      <trkpt lat="36.02363599464297" lon="-118.13376428559422">
        <time>2005-06-09T16:44:40-07:00</time>
      </trkpt>
      <trkpt lat="36.023635072633624" lon="-118.13391180709004">
        <time>2005-06-09T16:44:50-07:00</time>
      </trkpt>
      <trkpt lat="36.02363239042461" lon="-118.1339748390019">
        <time>2005-06-09T16:44:54-07:00</time>
      </trkpt>
      <trkpt lat="36.02363113313913" lon="-118.13403971493244">
        <time>2005-06-09T16:44:58-07:00</time>
      </trkpt>
      <trkpt lat="36.02362937293947" lon="-118.13408422283828">
        <time>2005-06-09T16:45:01-07:00</time>
      </trkpt>
      <trkpt lat="36.02362752892077" lon="-118.13411246985197">
        <time>2005-06-09T16:45:03-07:00</time>
      </trkpt>
      <trkpt lat="36.02361772209406" lon="-118.1341833807528">
        <time>2005-06-09T16:45:09-07:00</time>
      </trkpt>
      <trkpt lat="36.02362476289272" lon="-118.13418237492442">
        <time>2005-06-09T16:45:10-07:00</time>
      </trkpt>
      <trkpt lat="36.02367656305432" lon="-118.13414750620723">
        <time>2005-06-09T16:45:15-07:00</time>
      </trkpt>
      <trkpt lat="36.02375686168671" lon="-118.13408916816115">
        <time>2005-06-09T16:45:23-07:00</time>
      </trkpt>
      <trkpt lat="36.023810589686036" lon="-118.13404373824596">
        <time>2005-06-09T16:45:29-07:00</time>
      </trkpt>
      <trkpt lat="36.02383950725198" lon="-118.13400970771909">
        <time>2005-06-09T16:45:32-07:00</time>
      </trkpt>
      <trkpt lat="36.02388761937618" lon="-118.13397098332644">
        <time>2005-06-09T16:45:37-07:00</time>
      </trkpt>
      <trkpt lat="36.023917542770505" lon="-118.13393737189472">
        <time>2005-06-09T16:45:40-07:00</time>
      </trkpt>
      <trkpt lat="36.02399457246065" lon="-118.1338279042393">
        <time>2005-06-09T16:45:50-07:00</time>
      </trkpt>
      <trkpt lat="36.02407864294946" lon="-118.13371282070875">
        <time>2005-06-09T16:46:01-07:00</time>
      </trkpt>
      <trkpt lat="36.02416950277984" lon="-118.13360368832946">
        <time>2005-06-09T16:46:12-07:00</time>
      </trkpt>
      <trkpt lat="36.02421183139086" lon="-118.13355901278555">
        <time>2005-06-09T16:46:17-07:00</time>
      </trkpt>
      <trkpt lat="36.02425399236381" lon="-118.133515259251">
        <time>2005-06-09T16:46:22-07:00</time>
      </trkpt>
      <trkpt lat="36.02431006729603" lon="-118.1334481202066">
        <time>2005-06-09T16:46:29-07:00</time>
      </trkpt>
      <trkpt lat="36.02431803010404" lon="-118.13343856483698">
        <time>2005-06-09T16:46:30-07:00</time>
      </trkpt>
      <trkpt lat="36.02432666346431" lon="-118.13342867419124">
        <time>2005-06-09T16:46:31-07:00</time>
      </trkpt>
      <trkpt lat="36.02442758157849" lon="-118.13333244994283">
        <time>2005-06-09T16:46:41-07:00</time>
      </trkpt>
      <trkpt lat="36.02444518357515" lon="-118.13331979326904">
        <time>2005-06-09T16:46:43-07:00</time>
      </trkpt>
      <trkpt lat="36.024458929896355" lon="-118.13330043107271">
        <time>2005-06-09T16:46:45-07:00</time>
      </trkpt>
      <trkpt lat="36.024521961808205" lon="-118.13324452377856">
        <time>2005-06-09T16:46:52-07:00</time>
      </trkpt>
      <trkpt lat="36.024604607373476" lon="-118.13319138251245">
        <time>2005-06-09T16:47:01-07:00</time>
      </trkpt>
      <trkpt lat="36.024613827466965" lon="-118.13318593427539">
        <time>2005-06-09T16:47:02-07:00</time>
      </trkpt>
      <trkpt lat="36.02471558377147" lon="-118.13310806639493">
        <time>2005-06-09T16:47:12-07:00</time>
      </trkpt>
      <trkpt lat="36.02476319298148" lon="-118.13306372612715">
        <time>2005-06-09T16:47:17-07:00</time>
      </trkpt>
      <trkpt lat="36.02481356821954" lon="-118.13303338363767">
        <time>2005-06-09T16:47:22-07:00</time>
      </trkpt>
      <trkpt lat="36.024919683113694" lon="-118.13294797204435">
        <time>2005-06-09T16:47:33-07:00</time>
      </trkpt>
      <trkpt lat="36.025024289265275" lon="-118.1328846886754">
        <time>2005-06-09T16:47:43-07:00</time>
      </trkpt>
      <trkpt lat="36.02509553544223" lon="-118.13286876305938">
        <time>2005-06-09T16:47:49-07:00</time>
      </trkpt>
      <trkpt lat="36.02514280937612" lon="-118.13285836949944">
        <time>2005-06-09T16:47:53-07:00</time>
      </trkpt>
      <trkpt lat="36.02526543661952" lon="-118.13285124488175">
        <time>2005-06-09T16:48:03-07:00</time>
      </trkpt>
      <trkpt lat="36.02537297643721" lon="-118.13287739641964">
        <time>2005-06-09T16:48:12-07:00</time>
      </trkpt>
      <trkpt lat="36.02545587345958" lon="-118.13293003477156">
        <time>2005-06-09T16:48:20-07:00</time>
      </trkpt>
      <trkpt lat="36.025466434657574" lon="-118.13293414190412">
        <time>2005-06-09T16:48:21-07:00</time>
      </trkpt>
      <trkpt lat="36.02557313628495" lon="-118.13297647051513">
        <time>2005-06-09T16:48:31-07:00</time>
      </trkpt>
      <trkpt lat="36.025678077712655" lon="-118.13302416354418">
        <time>2005-06-09T16:48:40-07:00</time>
      </trkpt>
      <trkpt lat="36.02577262558043" lon="-118.133087111637">
        <time>2005-06-09T16:48:50-07:00</time>
      </trkpt>
      <trkpt lat="36.02581704966724" lon="-118.13313832506537">
        <time>2005-06-09T16:48:56-07:00</time>
      </trkpt>
      <trkpt lat="36.02582350373268" lon="-118.13315022736788">
        <time>2005-06-09T16:48:57-07:00</time>
      </trkpt>
      <trkpt lat="36.02588167414069" lon="-118.13323840498924">
        <time>2005-06-09T16:49:05-07:00</time>
      </trkpt>
      <trkpt lat="36.02593330666423" lon="-118.13332591205835">
        <time>2005-06-09T16:49:12-07:00</time>
      </trkpt>
      <trkpt lat="36.02595769800246" lon="-118.13335625454783">
        <time>2005-06-09T16:49:15-07:00</time>
      </trkpt>
      <trkpt lat="36.02605065330863" lon="-118.13344409689307">
        <time>2005-06-09T16:49:25-07:00</time>
      </trkpt>
      <trkpt lat="36.026132963597775" lon="-118.13343009911478">
        <time>2005-06-09T16:49:32-07:00</time>
      </trkpt>
      <trkpt lat="36.026176968589425" lon="-118.13341392204165">
        <time>2005-06-09T16:49:36-07:00</time>
      </trkpt>
      <trkpt lat="36.026225332170725" lon="-118.13339221291244">
        <time>2005-06-09T16:49:40-07:00</time>
      </trkpt>
      <trkpt lat="36.02625198662281" lon="-118.13338240608573">
        <time>2005-06-09T16:49:42-07:00</time>
      </trkpt>
      <trkpt lat="36.0262836702168" lon="-118.13337117433548">
        <time>2005-06-09T16:49:45-07:00</time>
      </trkpt>
      <trkpt lat="36.026387019082904" lon="-118.13332264311612">
        <time>2005-06-09T16:49:54-07:00</time>
      </trkpt>
      <trkpt lat="36.02650369517505" lon="-118.13327536918223">
        <time>2005-06-09T16:50:04-07:00</time>
      </trkpt>
      <trkpt lat="36.02651693858206" lon="-118.13327327370644">
        <time>2005-06-09T16:50:05-07:00</time>
      </trkpt>
      <trkpt lat="36.02660142816603" lon="-118.13325181603432">
        <time>2005-06-09T16:50:13-07:00</time>
      </trkpt>
      <trkpt lat="36.02667653001845" lon="-118.13322725705802">
        <time>2005-06-09T16:50:19-07:00</time>
      </trkpt>
      <trkpt lat="36.02674148976803" lon="-118.13320613466203">
        <time>2005-06-09T16:50:25-07:00</time>
      </trkpt>
      <trkpt lat="36.02678029797971" lon="-118.13319465145469">
        <time>2005-06-09T16:50:28-07:00</time>
      </trkpt>
      <trkpt lat="36.026851208880544" lon="-118.13318266533315">
        <time>2005-06-09T16:50:34-07:00</time>
      </trkpt>
      <trkpt lat="36.02698205038905" lon="-118.13315458595753">
        <time>2005-06-09T16:50:45-07:00</time>
      </trkpt>
      <trkpt lat="36.02708715945482" lon="-118.13310756348073">
        <time>2005-06-09T16:50:54-07:00</time>
      </trkpt>
      <trkpt lat="36.02710962295532" lon="-118.13309641554952">
        <time>2005-06-09T16:50:56-07:00</time>
      </trkpt>
      <trkpt lat="36.027210960164666" lon="-118.13306045718491">
        <time>2005-06-09T16:51:05-07:00</time>
      </trkpt>
      <trkpt lat="36.027311626821756" lon="-118.13303120434284">
        <time>2005-06-09T16:51:14-07:00</time>
      </trkpt>
      <trkpt lat="36.027415646240115" lon="-118.1330091599375">
        <time>2005-06-09T16:51:23-07:00</time>
      </trkpt>
      <trkpt lat="36.027502650395036" lon="-118.13299457542598">
        <time>2005-06-09T16:51:31-07:00</time>
      </trkpt>
      <trkpt lat="36.02752779610455" lon="-118.13299549743533">
        <time>2005-06-09T16:51:33-07:00</time>
      </trkpt>
      <trkpt lat="36.027611531317234" lon="-118.13298334367573">
        <time>2005-06-09T16:51:40-07:00</time>
      </trkpt>
      <trkpt lat="36.027645226567984" lon="-118.13298082910478">
        <time>2005-06-09T16:51:43-07:00</time>
      </trkpt>
      <trkpt lat="36.027732817456126" lon="-118.13296146690845">
        <time>2005-06-09T16:51:51-07:00</time>
      </trkpt>
      <trkpt lat="36.0277618188411" lon="-118.13295652158558">
        <time>2005-06-09T16:51:54-07:00</time>
      </trkpt>
      <trkpt lat="36.027805572375655" lon="-118.13294403254986">
        <time>2005-06-09T16:51:58-07:00</time>
      </trkpt>
      <trkpt lat="36.02790640667081" lon="-118.13289776444435">
        <time>2005-06-09T16:52:07-07:00</time>
      </trkpt>
      <trkpt lat="36.0279898904264" lon="-118.13291360624135">
        <time>2005-06-09T16:52:14-07:00</time>
      </trkpt>
      <trkpt lat="36.028094831854105" lon="-118.13287446275353">
        <time>2005-06-09T16:52:23-07:00</time>
      </trkpt>
      <trkpt lat="36.02820128202438" lon="-118.132812269032">
        <time>2005-06-09T16:52:33-07:00</time>
      </trkpt>
      <trkpt lat="36.02832374162972" lon="-118.1327469740063">
        <time>2005-06-09T16:52:45-07:00</time>
      </trkpt>
      <trkpt lat="36.02843957953155" lon="-118.1326893903315">
        <time>2005-06-09T16:52:56-07:00</time>
      </trkpt>
      <trkpt lat="36.028518034145236" lon="-118.13268528319895">
        <time>2005-06-09T16:53:03-07:00</time>
      </trkpt>
      <trkpt lat="36.0285977460444" lon="-118.13265996985137">
        <time>2005-06-09T16:53:11-07:00</time>
      </trkpt>
      <trkpt lat="36.02867569774389" lon="-118.1326499953866">
        <time>2005-06-09T16:53:18-07:00</time>
      </trkpt>
      <trkpt lat="36.02868718095124" lon="-118.13265242613852">
        <time>2005-06-09T16:53:19-07:00</time>
      </trkpt>
      <trkpt lat="36.02880033664405" lon="-118.13264136202633">
        <time>2005-06-09T16:53:29-07:00</time>
      </trkpt>
      <trkpt lat="36.028899159282446" lon="-118.13263826072216">
        <time>2005-06-09T16:53:38-07:00</time>
      </trkpt>
      <trkpt lat="36.02898767217994" lon="-118.13261202536523">
        <time>2005-06-09T16:53:46-07:00</time>
      </trkpt>
      <trkpt lat="36.02909336797893" lon="-118.1325997877866">
        <time>2005-06-09T16:53:56-07:00</time>
      </trkpt>
      <trkpt lat="36.02916084229946" lon="-118.13259903341532">
        <time>2005-06-09T16:54:03-07:00</time>
      </trkpt>
      <trkpt lat="36.0292159114033" lon="-118.13259216025472">
        <time>2005-06-09T16:54:08-07:00</time>
      </trkpt>
      <trkpt lat="36.0292365308851" lon="-118.13259308226407">
        <time>2005-06-09T16:54:10-07:00</time>
      </trkpt>
      <trkpt lat="36.02934239432216" lon="-118.13259274698794">
        <time>2005-06-09T16:54:19-07:00</time>
      </trkpt>
      <trkpt lat="36.02935337461531" lon="-118.13259836286306">
        <time>2005-06-09T16:54:20-07:00</time>
      </trkpt>
      <trkpt lat="36.0294730681926" lon="-118.13263683579862">
        <time>2005-06-09T16:54:30-07:00</time>
      </trkpt>
      <trkpt lat="36.0295423027128" lon="-118.13266516663134">
        <time>2005-06-09T16:54:37-07:00</time>
      </trkpt>
      <trkpt lat="36.02958085946739" lon="-118.13268545083702">
        <time>2005-06-09T16:54:41-07:00</time>
      </trkpt>
      <trkpt lat="36.02968060411513" lon="-118.13273934647441">
        <time>2005-06-09T16:54:50-07:00</time>
      </trkpt>
      <trkpt lat="36.029787473380566" lon="-118.1327292881906">
        <time>2005-06-09T16:54:59-07:00</time>
      </trkpt>
      <trkpt lat="36.02991127409041" lon="-118.13274194486439">
        <time>2005-06-09T16:55:09-07:00</time>
      </trkpt>
      <trkpt lat="36.02998008951545" lon="-118.1328109279275">
        <time>2005-06-09T16:55:16-07:00</time>
      </trkpt>
      <trkpt lat="36.02999836206436" lon="-118.13284252770245">
        <time>2005-06-09T16:55:19-07:00</time>
      </trkpt>
      <trkpt lat="36.030067848041654" lon="-118.13296364620328">
        <time>2005-06-09T16:55:29-07:00</time>
      </trkpt>
      <trkpt lat="36.03015267290175" lon="-118.13305802643299">
        <time>2005-06-09T16:55:39-07:00</time>
      </trkpt>
      <trkpt lat="36.03019433096051" lon="-118.13310865312815">
        <time>2005-06-09T16:55:44-07:00</time>
      </trkpt>
      <trkpt lat="36.030227271839976" lon="-118.13315031118691">
        <time>2005-06-09T16:55:48-07:00</time>
      </trkpt>
      <trkpt lat="36.03030120022595" lon="-118.13321569003165">
        <time>2005-06-09T16:55:56-07:00</time>
      </trkpt>
      <trkpt lat="36.03032374754548" lon="-118.13323203474283">
        <time>2005-06-09T16:55:58-07:00</time>
      </trkpt>
      <trkpt lat="36.03040974587202" lon="-118.13330487348139">
        <time>2005-06-09T16:56:07-07:00</time>
      </trkpt>
      <trkpt lat="36.03053027763963" lon="-118.13338014297187">
        <time>2005-06-09T16:56:19-07:00</time>
      </trkpt>
      <trkpt lat="36.03055575862527" lon="-118.13338994979858">
        <time>2005-06-09T16:56:21-07:00</time>
      </trkpt>
      <trkpt lat="36.03064578026533" lon="-118.13341073691845">
        <time>2005-06-09T16:56:29-07:00</time>
      </trkpt>
      <trkpt lat="36.0307561699301" lon="-118.13342213630676">
        <time>2005-06-09T16:56:39-07:00</time>
      </trkpt>
      <trkpt lat="36.030767653137445" lon="-118.13342054374516">
        <time>2005-06-09T16:56:40-07:00</time>
      </trkpt>
      <trkpt lat="36.03083613328636" lon="-118.13342708162963">
        <time>2005-06-09T16:56:46-07:00</time>
      </trkpt>
      <trkpt lat="36.03092162869871" lon="-118.13344703055918">
        <time>2005-06-09T16:56:53-07:00</time>
      </trkpt>
      <trkpt lat="36.03097837418318" lon="-118.13345683738589">
        <time>2005-06-09T16:56:58-07:00</time>
      </trkpt>
      <trkpt lat="36.03108691982925" lon="-118.1334666442126">
        <time>2005-06-09T16:57:07-07:00</time>
      </trkpt>
      <trkpt lat="36.03111248463392" lon="-118.13346329145133">
        <time>2005-06-09T16:57:09-07:00</time>
      </trkpt>
      <trkpt lat="36.03120367974043" lon="-118.13347200863063">
        <time>2005-06-09T16:57:17-07:00</time>
      </trkpt>
      <trkpt lat="36.0313106328249" lon="-118.13347259536386">
        <time>2005-06-09T16:57:26-07:00</time>
      </trkpt>
      <trkpt lat="36.0314398817718" lon="-118.13346262089908">
        <time>2005-06-09T16:57:37-07:00</time>
      </trkpt>
      <trkpt lat="36.03155882097781" lon="-118.13345625065267">
        <time>2005-06-09T16:57:47-07:00</time>
      </trkpt>
      <trkpt lat="36.03156887926161" lon="-118.13345591537654">
        <time>2005-06-09T16:57:48-07:00</time>
      </trkpt>
      <trkpt lat="36.03170248679817" lon="-118.13345088623464">
        <time>2005-06-09T16:57:59-07:00</time>
      </trkpt>
      <trkpt lat="36.031786892563105" lon="-118.13344401307404">
        <time>2005-06-09T16:58:06-07:00</time>
      </trkpt>
      <trkpt lat="36.031817737966776" lon="-118.13343697227538">
        <time>2005-06-09T16:58:09-07:00</time>
      </trkpt>
      <trkpt lat="36.031923266127706" lon="-118.13341551460326">
        <time>2005-06-09T16:58:18-07:00</time>
      </trkpt>
      <trkpt lat="36.03204078041017" lon="-118.13340218737721">
        <time>2005-06-09T16:58:28-07:00</time>
      </trkpt>
      <trkpt lat="36.03216885589063" lon="-118.13337326981127">
        <time>2005-06-09T16:58:39-07:00</time>
      </trkpt>
      <trkpt lat="36.03228075429797" lon="-118.13331040553749">
        <time>2005-06-09T16:58:49-07:00</time>
      </trkpt>
      <trkpt lat="36.03237245231867" lon="-118.13326028175652">
        <time>2005-06-09T16:58:58-07:00</time>
      </trkpt>
      <trkpt lat="36.032451493665576" lon="-118.13318509608507">
        <time>2005-06-09T16:59:07-07:00</time>
      </trkpt>
      <trkpt lat="36.03247026912868" lon="-118.13316497951746">
        <time>2005-06-09T16:59:09-07:00</time>
      </trkpt>
      <trkpt lat="36.032558446750045" lon="-118.13308945856988">
        <time>2005-06-09T16:59:18-07:00</time>
      </trkpt>
      <trkpt lat="36.03265693411231" lon="-118.13300656154752">
        <time>2005-06-09T16:59:28-07:00</time>
      </trkpt>
      <trkpt lat="36.03273748420179" lon="-118.13292282633483">
        <time>2005-06-09T16:59:37-07:00</time>
      </trkpt>
      <trkpt lat="36.03275567293167" lon="-118.13290748745203">
        <time>2005-06-09T16:59:39-07:00</time>
      </trkpt>
      <trkpt lat="36.032841838896275" lon="-118.13282668590546">
        <time>2005-06-09T16:59:48-07:00</time>
      </trkpt>
      <trkpt lat="36.032940074801445" lon="-118.1327295396477">
        <time>2005-06-09T16:59:59-07:00</time>
      </trkpt>
      <trkpt lat="36.03304057382047" lon="-118.13263113610446">
        <time>2005-06-09T17:00:10-07:00</time>
      </trkpt>
      <trkpt lat="36.033093966543674" lon="-118.13257313333452">
        <time>2005-06-09T17:00:16-07:00</time>
      </trkpt>
      <trkpt lat="36.033139899373055" lon="-118.13253155909479">
        <time>2005-06-09T17:00:21-07:00</time>
      </trkpt>
      <trkpt lat="36.03323293849826" lon="-118.13246274366975">
        <time>2005-06-09T17:00:30-07:00</time>
      </trkpt>
      <trkpt lat="36.03325146250427" lon="-118.13244195654988">
        <time>2005-06-09T17:00:32-07:00</time>
      </trkpt>
      <trkpt lat="36.03330770507455" lon="-118.13235738314688">
        <time>2005-06-09T17:00:39-07:00</time>
      </trkpt>
      <trkpt lat="36.03331667371094" lon="-118.13235436566174">
        <time>2005-06-09T17:00:40-07:00</time>
      </trkpt>
      <trkpt lat="36.033327570185065" lon="-118.13234615139663">
        <time>2005-06-09T17:00:41-07:00</time>
      </trkpt>
      <trkpt lat="36.03336771950126" lon="-118.13227188773453">
        <time>2005-06-09T17:00:47-07:00</time>
      </trkpt>
      <trkpt lat="36.033388171344995" lon="-118.13223207369447">
        <time>2005-06-09T17:00:51-07:00</time>
      </trkpt>
      <trkpt lat="36.03341231122613" lon="-118.13223014585674">
        <time>2005-06-09T17:00:53-07:00</time>
      </trkpt>
      <trkpt lat="36.03349009528756" lon="-118.13218245282769">
        <time>2005-06-09T17:01:00-07:00</time>
      </trkpt>
      <trkpt lat="36.03359302505851" lon="-118.13219058327377">
        <time>2005-06-09T17:01:09-07:00</time>
      </trkpt>
      <trkpt lat="36.0337127186358" lon="-118.13219309784472">
        <time>2005-06-09T17:01:20-07:00</time>
      </trkpt>
      <trkpt lat="36.033832831308246" lon="-118.13219418749213">
        <time>2005-06-09T17:01:30-07:00</time>
      </trkpt>
      <trkpt lat="36.03395411744714" lon="-118.13222092576325">
        <time>2005-06-09T17:01:40-07:00</time>
      </trkpt>
      <trkpt lat="36.03402460925281" lon="-118.13227146863937">
        <time>2005-06-09T17:01:47-07:00</time>
      </trkpt>
      <trkpt lat="36.03403517045081" lon="-118.13227909617126">
        <time>2005-06-09T17:01:48-07:00</time>
      </trkpt>
      <trkpt lat="36.0340528562665" lon="-118.1322908308357">
        <time>2005-06-09T17:01:50-07:00</time>
      </trkpt>
      <trkpt lat="36.034102980047464" lon="-118.13233902677894">
        <time>2005-06-09T17:01:55-07:00</time>
      </trkpt>
      <trkpt lat="36.034145476296544" lon="-118.13239987939596">
        <time>2005-06-09T17:02:01-07:00</time>
      </trkpt>
      <trkpt lat="36.03415654040873" lon="-118.13242158852518">
        <time>2005-06-09T17:02:03-07:00</time>
      </trkpt>
      <trkpt lat="36.03422158397734" lon="-118.13250783830881">
        <time>2005-06-09T17:02:11-07:00</time>
      </trkpt>
      <trkpt lat="36.03427170775831" lon="-118.13259894959629">
        <time>2005-06-09T17:02:19-07:00</time>
      </trkpt>
      <trkpt lat="36.034334655851126" lon="-118.1326965149492">
        <time>2005-06-09T17:02:28-07:00</time>
      </trkpt>
      <trkpt lat="36.03438964113593" lon="-118.13279701396823">
        <time>2005-06-09T17:02:37-07:00</time>
      </trkpt>
      <trkpt lat="36.03445602580905" lon="-118.1329042185098">
        <time>2005-06-09T17:02:46-07:00</time>
      </trkpt>
      <trkpt lat="36.034534983336926" lon="-118.13295191153884">
        <time>2005-06-09T17:02:54-07:00</time>
      </trkpt>
      <trkpt lat="36.03462366387248" lon="-118.13298317603767">
        <time>2005-06-09T17:03:02-07:00</time>
      </trkpt>
      <trkpt lat="36.03467362001538" lon="-118.13303112052381">
        <time>2005-06-09T17:03:09-07:00</time>
      </trkpt>
      <trkpt lat="36.03467646986246" lon="-118.13304528594017">
        <time>2005-06-09T17:03:10-07:00</time>
      </trkpt>
      <trkpt lat="36.03469306603074" lon="-118.13312206417322">
        <time>2005-06-09T17:03:15-07:00</time>
      </trkpt>
      <trkpt lat="36.0346953291446" lon="-118.13321921043098">
        <time>2005-06-09T17:03:23-07:00</time>
      </trkpt>
      <trkpt lat="36.0347537510097" lon="-118.13330143690109">
        <time>2005-06-09T17:03:30-07:00</time>
      </trkpt>
      <trkpt lat="36.03482726030052" lon="-118.13333789817989">
        <time>2005-06-09T17:03:38-07:00</time>
      </trkpt>
      <trkpt lat="36.03492700494826" lon="-118.13337243162096">
        <time>2005-06-09T17:03:47-07:00</time>
      </trkpt>
      <trkpt lat="36.03502918034792" lon="-118.13342766836286">
        <time>2005-06-09T17:03:57-07:00</time>
      </trkpt>
      <trkpt lat="36.035091457888484" lon="-118.1334526464343">
        <time>2005-06-09T17:04:03-07:00</time>
      </trkpt>
      <trkpt lat="36.03520109318197" lon="-118.13352799974382">
        <time>2005-06-09T17:04:14-07:00</time>
      </trkpt>
      <trkpt lat="36.03529061190784" lon="-118.13356379047036">
        <time>2005-06-09T17:04:23-07:00</time>
      </trkpt>
      <trkpt lat="36.03538004681468" lon="-118.13359170220792">
        <time>2005-06-09T17:04:31-07:00</time>
      </trkpt>
      <trkpt lat="36.03547777980566" lon="-118.13362615182996">
        <time>2005-06-09T17:04:40-07:00</time>
      </trkpt>
      <trkpt lat="36.03558314032853" lon="-118.13366244547069">
        <time>2005-06-09T17:04:50-07:00</time>
      </trkpt>
      <trkpt lat="36.035594958812" lon="-118.1336653791368">
        <time>2005-06-09T17:04:51-07:00</time>
      </trkpt>
      <trkpt lat="36.03571381419897" lon="-118.13367158174515">
        <time>2005-06-09T17:05:00-07:00</time>
      </trkpt>
      <trkpt lat="36.03579922579229" lon="-118.1336928717792">
        <time>2005-06-09T17:05:08-07:00</time>
      </trkpt>
      <trkpt lat="36.03587416000664" lon="-118.13370938412845">
        <time>2005-06-09T17:05:15-07:00</time>
      </trkpt>
      <trkpt lat="36.03592000901699" lon="-118.1337155867368">
        <time>2005-06-09T17:05:19-07:00</time>
      </trkpt>
      <trkpt lat="36.035931408405304" lon="-118.1337153352797">
        <time>2005-06-09T17:05:20-07:00</time>
      </trkpt>
      <trkpt lat="36.03596309199929" lon="-118.13372598029673">
        <time>2005-06-09T17:05:23-07:00</time>
      </trkpt>
      <trkpt lat="36.03601371869445" lon="-118.13374291174114">
        <time>2005-06-09T17:05:28-07:00</time>
      </trkpt>
      <trkpt lat="36.036047330126166" lon="-118.13374567776918">
        <time>2005-06-09T17:05:31-07:00</time>
      </trkpt>
      <trkpt lat="36.03609720245004" lon="-118.13375598751009">
        <time>2005-06-09T17:05:35-07:00</time>
      </trkpt>
      <trkpt lat="36.03613165207207" lon="-118.13375623896718">
        <time>2005-06-09T17:05:38-07:00</time>
      </trkpt>
      <trkpt lat="36.03618420660496" lon="-118.1337673868984">
        <time>2005-06-09T17:05:43-07:00</time>
      </trkpt>
      <trkpt lat="36.036239778622985" lon="-118.1337774451822">
        <time>2005-06-09T17:05:48-07:00</time>
      </trkpt>
      <trkpt lat="36.03633742779493" lon="-118.1338067818433">
        <time>2005-06-09T17:05:57-07:00</time>
      </trkpt>
      <trkpt lat="36.03644035756588" lon="-118.13380711711943">
        <time>2005-06-09T17:06:06-07:00</time>
      </trkpt>
      <trkpt lat="36.036486541852355" lon="-118.13381616957486">
        <time>2005-06-09T17:06:10-07:00</time>
      </trkpt>
      <trkpt lat="36.03651076555252" lon="-118.13382010906935">
        <time>2005-06-09T17:06:12-07:00</time>
      </trkpt>
      <trkpt lat="36.03655904531479" lon="-118.13383259810507">
        <time>2005-06-09T17:06:16-07:00</time>
      </trkpt>
      <trkpt lat="36.036689383909106" lon="-118.13388423062861">
        <time>2005-06-09T17:06:28-07:00</time>
      </trkpt>
      <trkpt lat="36.03676808997989" lon="-118.13389780931175">
        <time>2005-06-09T17:06:35-07:00</time>
      </trkpt>
      <trkpt lat="36.03680966421962" lon="-118.13391172327101">
        <time>2005-06-09T17:06:38-07:00</time>
      </trkpt>
      <trkpt lat="36.036903792992234" lon="-118.13396637327969">
        <time>2005-06-09T17:06:47-07:00</time>
      </trkpt>
      <trkpt lat="36.03699062950909" lon="-118.13399235717952">
        <time>2005-06-09T17:06:55-07:00</time>
      </trkpt>
      <trkpt lat="36.037113005295396" lon="-118.13402546569705">
        <time>2005-06-09T17:07:06-07:00</time>
      </trkpt>
      <trkpt lat="36.037163715809584" lon="-118.13403544016182">
        <time>2005-06-09T17:07:10-07:00</time>
      </trkpt>
      <trkpt lat="36.03724418208003" lon="-118.1340557243675">
        <time>2005-06-09T17:07:17-07:00</time>
      </trkpt>
      <trkpt lat="36.037322552874684" lon="-118.13407341018319">
        <time>2005-06-09T17:07:24-07:00</time>
      </trkpt>
      <trkpt lat="36.037334371358156" lon="-118.13407416455448">
        <time>2005-06-09T17:07:25-07:00</time>
      </trkpt>
      <trkpt lat="36.037377286702394" lon="-118.1340591609478">
        <time>2005-06-09T17:07:29-07:00</time>
      </trkpt>
      <trkpt lat="36.037404192611575" lon="-118.13405237160623">
        <time>2005-06-09T17:07:32-07:00</time>
      </trkpt>
      <trkpt lat="36.03744157589972" lon="-118.13404524698853">
        <time>2005-06-09T17:07:38-07:00</time>
      </trkpt>
      <trkpt lat="36.037464709952474" lon="-118.13405823893845">
        <time>2005-06-09T17:07:45-07:00</time>
      </trkpt>
      <trkpt lat="36.037470158189535" lon="-118.13405664637685">
        <time>2005-06-09T17:07:47-07:00</time>
      </trkpt>
      <trkpt lat="36.03746680542827" lon="-118.13404742628336">
        <time>2005-06-09T17:07:48-07:00</time>
      </trkpt>
      <trkpt lat="36.037458172068" lon="-118.13404398970306">
        <time>2005-06-09T17:07:49-07:00</time>
      </trkpt>
      <trkpt lat="36.037437971681356" lon="-118.13404055312276">
        <time>2005-06-09T17:07:51-07:00</time>
      </trkpt>
      <trkpt lat="36.037452891469" lon="-118.1340715661645">
        <time>2005-06-09T17:07:59-07:00</time>
      </trkpt>
      <trkpt lat="36.03752019815147" lon="-118.13408019952476">
        <time>2005-06-09T17:08:05-07:00</time>
      </trkpt>
      <trkpt lat="36.03753964416683" lon="-118.13408128917217">
        <time>2005-06-09T17:08:07-07:00</time>
      </trkpt>
      <trkpt lat="36.037574177607894" lon="-118.1340678781271">
        <time>2005-06-09T17:08:11-07:00</time>
      </trkpt>
      <trkpt lat="36.03758507408202" lon="-118.13406544737518">
        <time>2005-06-09T17:08:12-07:00</time>
      </trkpt>
      <trkpt lat="36.037661684677005" lon="-118.13405471853912">
        <time>2005-06-09T17:08:18-07:00</time>
      </trkpt>
      <trkpt lat="36.037694960832596" lon="-118.13405488617718">
        <time>2005-06-09T17:08:21-07:00</time>
      </trkpt>
      <trkpt lat="36.03770485147834" lon="-118.13405304215848">
        <time>2005-06-09T17:08:22-07:00</time>
      </trkpt>
      <trkpt lat="36.03776520118117" lon="-118.13404030166566">
        <time>2005-06-09T17:08:27-07:00</time>
      </trkpt>
      <trkpt lat="36.03779638186097" lon="-118.13404440879822">
        <time>2005-06-09T17:08:30-07:00</time>
      </trkpt>
      <trkpt lat="36.03785824030638" lon="-118.1340261362493">
        <time>2005-06-09T17:08:35-07:00</time>
      </trkpt>
      <trkpt lat="36.037877183407545" lon="-118.13402990810573">
        <time>2005-06-09T17:08:37-07:00</time>
      </trkpt>
      <trkpt lat="36.037969971075654" lon="-118.13400970771909">
        <time>2005-06-09T17:08:45-07:00</time>
      </trkpt>
      <trkpt lat="36.03806351311505" lon="-118.1340020801872">
        <time>2005-06-09T17:08:53-07:00</time>
      </trkpt>
      <trkpt lat="36.03817876428366" lon="-118.13397995196283">
        <time>2005-06-09T17:09:03-07:00</time>
      </trkpt>
      <trkpt lat="36.03830005042255" lon="-118.13395447097719">
        <time>2005-06-09T17:09:13-07:00</time>
      </trkpt>
      <trkpt lat="36.03839845396578" lon="-118.133932845667">
        <time>2005-06-09T17:09:22-07:00</time>
      </trkpt>
      <trkpt lat="36.03849836625159" lon="-118.1339246314019">
        <time>2005-06-09T17:09:31-07:00</time>
      </trkpt>
      <trkpt lat="36.03857179172337" lon="-118.13392345793545">
        <time>2005-06-09T17:09:38-07:00</time>
      </trkpt>
      <trkpt lat="36.03865527547896" lon="-118.13391851261258">
        <time>2005-06-09T17:09:45-07:00</time>
      </trkpt>
      <trkpt lat="36.0386670101434" lon="-118.13391851261258">
        <time>2005-06-09T17:09:46-07:00</time>
      </trkpt>
      <trkpt lat="36.03874806314707" lon="-118.13389881514013">
        <time>2005-06-09T17:09:53-07:00</time>
      </trkpt>
      <trkpt lat="36.038826517760754" lon="-118.13387878239155">
        <time>2005-06-09T17:10:00-07:00</time>
      </trkpt>
      <trkpt lat="36.038919975981116" lon="-118.13386537134647">
        <time>2005-06-09T17:10:08-07:00</time>
      </trkpt>
      <trkpt lat="36.03901728987694" lon="-118.133864114061">
        <time>2005-06-09T17:10:17-07:00</time>
      </trkpt>
      <trkpt lat="36.0390383284539" lon="-118.13385807909071">
        <time>2005-06-09T17:10:19-07:00</time>
      </trkpt>
      <trkpt lat="36.03910479694605" lon="-118.13383393920958">
        <time>2005-06-09T17:10:25-07:00</time>
      </trkpt>
      <trkpt lat="36.03916003368795" lon="-118.13382061198354">
        <time>2005-06-09T17:10:30-07:00</time>
      </trkpt>
      <trkpt lat="36.03921669535339" lon="-118.13380192033947">
        <time>2005-06-09T17:10:35-07:00</time>
      </trkpt>
      <trkpt lat="36.0392783023417" lon="-118.133790101856">
        <time>2005-06-09T17:10:40-07:00</time>
      </trkpt>
      <trkpt lat="36.039366312325" lon="-118.13377551734447">
        <time>2005-06-09T17:10:48-07:00</time>
      </trkpt>
      <trkpt lat="36.039455495774746" lon="-118.13375556841493">
        <time>2005-06-09T17:10:55-07:00</time>
      </trkpt>
      <trkpt lat="36.03955088183284" lon="-118.13374668359756">
        <time>2005-06-09T17:11:03-07:00</time>
      </trkpt>
      <trkpt lat="36.039628414437175" lon="-118.1337190233171">
        <time>2005-06-09T17:11:10-07:00</time>
      </trkpt>
      <trkpt lat="36.03972983546555" lon="-118.13368474133313">
        <time>2005-06-09T17:11:19-07:00</time>
      </trkpt>
      <trkpt lat="36.03984843939543" lon="-118.13364417292178">
        <time>2005-06-09T17:11:29-07:00</time>
      </trkpt>
      <trkpt lat="36.039926977828145" lon="-118.13361709937453">
        <time>2005-06-09T17:11:36-07:00</time>
      </trkpt>
      <trkpt lat="36.03995061479509" lon="-118.13360838219523">
        <time>2005-06-09T17:11:38-07:00</time>
      </trkpt>
      <trkpt lat="36.04007760062814" lon="-118.13357359729707">
        <time>2005-06-09T17:11:49-07:00</time>
      </trkpt>
      <trkpt lat="36.040195282548666" lon="-118.1335374712944">
        <time>2005-06-09T17:11:59-07:00</time>
      </trkpt>
      <trkpt lat="36.04029561392963" lon="-118.13351701945066">
        <time>2005-06-09T17:12:08-07:00</time>
      </trkpt>
      <trkpt lat="36.04039376601577" lon="-118.13348625786602">
        <time>2005-06-09T17:12:17-07:00</time>
      </trkpt>
      <trkpt lat="36.04051069356501" lon="-118.13347527757287">
        <time>2005-06-09T17:12:27-07:00</time>
      </trkpt>
      <trkpt lat="36.040597865357995" lon="-118.13346647657454">
        <time>2005-06-09T17:12:35-07:00</time>
      </trkpt>
      <trkpt lat="36.04060901328921" lon="-118.13346488401294">
        <time>2005-06-09T17:12:36-07:00</time>
      </trkpt>
      <trkpt lat="36.04067254811525" lon="-118.13345365226269">
        <time>2005-06-09T17:12:41-07:00</time>
      </trkpt>
      <trkpt lat="36.040731305256486" lon="-118.13343211077154">
        <time>2005-06-09T17:12:46-07:00</time>
      </trkpt>
      <trkpt lat="36.04080095887184" lon="-118.13339531421661">
        <time>2005-06-09T17:12:53-07:00</time>
      </trkpt>
      <trkpt lat="36.04086977429688" lon="-118.13337000086904">
        <time>2005-06-09T17:13:00-07:00</time>
      </trkpt>
      <trkpt lat="36.040913024917245" lon="-118.13335566781461">
        <time>2005-06-09T17:13:03-07:00</time>
      </trkpt>
      <trkpt lat="36.04095040820539" lon="-118.13332934863865">
        <time>2005-06-09T17:13:07-07:00</time>
      </trkpt>
      <trkpt lat="36.04097438044846" lon="-118.13331929035485">
        <time>2005-06-09T17:13:11-07:00</time>
      </trkpt>
      <trkpt lat="36.04098351672292" lon="-118.13333286903799">
        <time>2005-06-09T17:13:14-07:00</time>
      </trkpt>
      <trkpt lat="36.04106708429754" lon="-118.13332599587739">
        <time>2005-06-09T17:13:21-07:00</time>
      </trkpt>
      <trkpt lat="36.04109256528318" lon="-118.13332859426737">
        <time>2005-06-09T17:13:23-07:00</time>
      </trkpt>
      <trkpt lat="36.041133385151625" lon="-118.13333270139992">
        <time>2005-06-09T17:13:27-07:00</time>
      </trkpt>
      <trkpt lat="36.04115333408117" lon="-118.13332960009575">
        <time>2005-06-09T17:13:29-07:00</time>
      </trkpt>
      <trkpt lat="36.04123673401773" lon="-118.13328266143799">
        <time>2005-06-09T17:13:37-07:00</time>
      </trkpt>
      <trkpt lat="36.04125710204244" lon="-118.13327017240226">
        <time>2005-06-09T17:13:39-07:00</time>
      </trkpt>
      <trkpt lat="36.04131736792624" lon="-118.13322893343866">
        <time>2005-06-09T17:13:45-07:00</time>
      </trkpt>
      <trkpt lat="36.04139070957899" lon="-118.13319289125502">
        <time>2005-06-09T17:13:52-07:00</time>
      </trkpt>
      <trkpt lat="36.04147897101939" lon="-118.13316363841295">
        <time>2005-06-09T17:14:00-07:00</time>
      </trkpt>
      <trkpt lat="36.04154409840703" lon="-118.13313849270344">
        <time>2005-06-09T17:14:06-07:00</time>
      </trkpt>
      <trkpt lat="36.04156354442239" lon="-118.13312742859125">
        <time>2005-06-09T17:14:08-07:00</time>
      </trkpt>
      <trkpt lat="36.04163244366646" lon="-118.13308769837022">
        <time>2005-06-09T17:14:15-07:00</time>
      </trkpt>
      <trkpt lat="36.041726153343916" lon="-118.13304545357823">
        <time>2005-06-09T17:14:24-07:00</time>
      </trkpt>
      <trkpt lat="36.04182497598231" lon="-118.13300907611847">
        <time>2005-06-09T17:14:32-07:00</time>
      </trkpt>
      <trkpt lat="36.04185246862471" lon="-118.13300723209977">
        <time>2005-06-09T17:14:35-07:00</time>
      </trkpt>
      <trkpt lat="36.041914243251085" lon="-118.13297932036221">
        <time>2005-06-09T17:14:41-07:00</time>
      </trkpt>
      <trkpt lat="36.04196336120367" lon="-118.13295618630946">
        <time>2005-06-09T17:14:45-07:00</time>
      </trkpt>
      <trkpt lat="36.04203678667545" lon="-118.13293640501797">
        <time>2005-06-09T17:14:52-07:00</time>
      </trkpt>
      <trkpt lat="36.04211121797562" lon="-118.13290807418525">
        <time>2005-06-09T17:14:59-07:00</time>
      </trkpt>
      <trkpt lat="36.04215639643371" lon="-118.13289407640696">
        <time>2005-06-09T17:15:03-07:00</time>
      </trkpt>
      <trkpt lat="36.042268043383956" lon="-118.13287178054452">
        <time>2005-06-09T17:15:13-07:00</time>
      </trkpt>
      <trkpt lat="36.04232847690582" lon="-118.13286608085036">
        <time>2005-06-09T17:15:18-07:00</time>
      </trkpt>
      <trkpt lat="36.04236703366041" lon="-118.13285409472883">
        <time>2005-06-09T17:15:21-07:00</time>
      </trkpt>
      <trkpt lat="36.04247256182134" lon="-118.13285778276622">
        <time>2005-06-09T17:15:30-07:00</time>
      </trkpt>
      <trkpt lat="36.04254615493119" lon="-118.13288418576121">
        <time>2005-06-09T17:15:37-07:00</time>
      </trkpt>
      <trkpt lat="36.04256643913686" lon="-118.1328986864537">
        <time>2005-06-09T17:15:39-07:00</time>
      </trkpt>
      <trkpt lat="36.04263374581933" lon="-118.13293154351413">
        <time>2005-06-09T17:15:45-07:00</time>
      </trkpt>
      <trkpt lat="36.042713625356555" lon="-118.13297177664936">
        <time>2005-06-09T17:15:52-07:00</time>
      </trkpt>
      <trkpt lat="36.042741537094116" lon="-118.1329951621592">
        <time>2005-06-09T17:15:55-07:00</time>
      </trkpt>
      <trkpt lat="36.042760480195284" lon="-118.13301821239293">
        <time>2005-06-09T17:15:57-07:00</time>
      </trkpt>
      <trkpt lat="36.04283859953284" lon="-118.1330921407789">
        <time>2005-06-09T17:16:05-07:00</time>
      </trkpt>
      <trkpt lat="36.04286776855588" lon="-118.13311737030745">
        <time>2005-06-09T17:16:08-07:00</time>
      </trkpt>
      <trkpt lat="36.042958879843354" lon="-118.13323580659926">
        <time>2005-06-09T17:16:19-07:00</time>
      </trkpt>
      <trkpt lat="36.043007746338844" lon="-118.13329766504467">
        <time>2005-06-09T17:16:25-07:00</time>
      </trkpt>
      <trkpt lat="36.04303674772382" lon="-118.13331417739391">
        <time>2005-06-09T17:16:28-07:00</time>
      </trkpt>
      <trkpt lat="36.04312718845904" lon="-118.13332918100059">
        <time>2005-06-09T17:16:35-07:00</time>
      </trkpt>
      <trkpt lat="36.04319793172181" lon="-118.13329473137856">
        <time>2005-06-09T17:16:41-07:00</time>
      </trkpt>
      <trkpt lat="36.043293569236994" lon="-118.13327553682029">
        <time>2005-06-09T17:16:49-07:00</time>
      </trkpt>
      <trkpt lat="36.04330329224467" lon="-118.13327570445836">
        <time>2005-06-09T17:16:50-07:00</time>
      </trkpt>
      <trkpt lat="36.043410832062364" lon="-118.1332647241652">
        <time>2005-06-09T17:16:58-07:00</time>
      </trkpt>
      <trkpt lat="36.04351418092847" lon="-118.13330629840493">
        <time>2005-06-09T17:17:07-07:00</time>
      </trkpt>
      <trkpt lat="36.04356841184199" lon="-118.13332063145936">
        <time>2005-06-09T17:17:12-07:00</time>
      </trkpt>
      <trkpt lat="36.04364996775985" lon="-118.13333119265735">
        <time>2005-06-09T17:17:18-07:00</time>
      </trkpt>
      <trkpt lat="36.04367209598422" lon="-118.13332876190543">
        <time>2005-06-09T17:17:20-07:00</time>
      </trkpt>
      <trkpt lat="36.04377309791744" lon="-118.13333018682897">
        <time>2005-06-09T17:17:28-07:00</time>
      </trkpt>
      <trkpt lat="36.04389295913279" lon="-118.13333362340927">
        <time>2005-06-09T17:17:38-07:00</time>
      </trkpt>
      <trkpt lat="36.043984573334455" lon="-118.13328257761896">
        <time>2005-06-09T17:17:47-07:00</time>
      </trkpt>
      <trkpt lat="36.04406101629138" lon="-118.13323454931378">
        <time>2005-06-09T17:17:54-07:00</time>
      </trkpt>
      <trkpt lat="36.04412463493645" lon="-118.13320328481495">
        <time>2005-06-09T17:18:00-07:00</time>
      </trkpt>
      <trkpt lat="36.04419277980924" lon="-118.1331783067435">
        <time>2005-06-09T17:18:06-07:00</time>
      </trkpt>
      <trkpt lat="36.044272324070334" lon="-118.13320563174784">
        <time>2005-06-09T17:18:13-07:00</time>
      </trkpt>
      <trkpt lat="36.04433937929571" lon="-118.1332491338253">
        <time>2005-06-09T17:18:20-07:00</time>
      </trkpt>
      <trkpt lat="36.04440350085497" lon="-118.13329330645502">
        <time>2005-06-09T17:18:26-07:00</time>
      </trkpt>
      <trkpt lat="36.044436525553465" lon="-118.13330772332847">
        <time>2005-06-09T17:18:29-07:00</time>
      </trkpt>
      <trkpt lat="36.04453442618251" lon="-118.1332974974066">
        <time>2005-06-09T17:18:38-07:00</time>
      </trkpt>
      <trkpt lat="36.04465956799686" lon="-118.13325718045235">
        <time>2005-06-09T17:18:49-07:00</time>
      </trkpt>
      <trkpt lat="36.04477138258517" lon="-118.13322901725769">
        <time>2005-06-09T17:18:59-07:00</time>
      </trkpt>
      <trkpt lat="36.04488973505795" lon="-118.13320118933916">
        <time>2005-06-09T17:19:10-07:00</time>
      </trkpt>
      <trkpt lat="36.04494530707598" lon="-118.13318274915218">
        <time>2005-06-09T17:19:15-07:00</time>
      </trkpt>
      <trkpt lat="36.0449805110693" lon="-118.13317034393549">
        <time>2005-06-09T17:19:18-07:00</time>
      </trkpt>
      <trkpt lat="36.045065419748425" lon="-118.1331233214587">
        <time>2005-06-09T17:19:26-07:00</time>
      </trkpt>
      <trkpt lat="36.04517270810902" lon="-118.13304679468274">
        <time>2005-06-09T17:19:37-07:00</time>
      </trkpt>
      <trkpt lat="36.04518301784992" lon="-118.13303992152214">
        <time>2005-06-09T17:19:38-07:00</time>
      </trkpt>
      <trkpt lat="36.04523674584925" lon="-118.13298309221864">
        <time>2005-06-09T17:19:45-07:00</time>
      </trkpt>
      <trkpt lat="36.045299442484975" lon="-118.13289809972048">
        <time>2005-06-09T17:19:53-07:00</time>
      </trkpt>
      <trkpt lat="36.045384937897325" lon="-118.13281159847975">
        <time>2005-06-09T17:20:02-07:00</time>
      </trkpt>
      <trkpt lat="36.045472864061594" lon="-118.13270984217525">
        <time>2005-06-09T17:20:13-07:00</time>
      </trkpt>
      <trkpt lat="36.045479737222195" lon="-118.132703891024">
        <time>2005-06-09T17:20:14-07:00</time>
      </trkpt>
      <trkpt lat="36.04554628953338" lon="-118.13264194875956">
        <time>2005-06-09T17:20:22-07:00</time>
      </trkpt>
      <trkpt lat="36.04559239000082" lon="-118.13260397873819">
        <time>2005-06-09T17:20:27-07:00</time>
      </trkpt>
      <trkpt lat="36.04562315158546" lon="-118.13257765956223">
        <time>2005-06-09T17:20:31-07:00</time>
      </trkpt>
      <trkpt lat="36.04572147130966" lon="-118.13249333761632">
        <time>2005-06-09T17:20:41-07:00</time>
      </trkpt>
      <trkpt lat="36.04579070582986" lon="-118.13243458047509">
        <time>2005-06-09T17:20:48-07:00</time>
      </trkpt>
      <trkpt lat="36.04587058536708" lon="-118.13236383721232">
        <time>2005-06-09T17:20:56-07:00</time>
      </trkpt>
      <trkpt lat="36.045935712754726" lon="-118.1322823651135">
        <time>2005-06-09T17:21:05-07:00</time>
      </trkpt>
      <trkpt lat="36.04601944796741" lon="-118.13219871371984">
        <time>2005-06-09T17:21:13-07:00</time>
      </trkpt>
      <trkpt lat="36.04610159061849" lon="-118.13212931156158">
        <time>2005-06-09T17:21:21-07:00</time>
      </trkpt>
      <trkpt lat="36.0461185220629" lon="-118.13211162574589">
        <time>2005-06-09T17:21:23-07:00</time>
      </trkpt>
      <trkpt lat="36.04619286954403" lon="-118.13203459605575">
        <time>2005-06-09T17:21:32-07:00</time>
      </trkpt>
      <trkpt lat="36.04620158672333" lon="-118.13202663324773">
        <time>2005-06-09T17:21:33-07:00</time>
      </trkpt>
      <trkpt lat="36.04627258144319" lon="-118.13193275593221">
        <time>2005-06-09T17:21:42-07:00</time>
      </trkpt>
      <trkpt lat="36.04634726420045" lon="-118.13185815699399">
        <time>2005-06-09T17:21:50-07:00</time>
      </trkpt>
      <trkpt lat="36.04636721313" lon="-118.13183804042637">
        <time>2005-06-09T17:21:52-07:00</time>
      </trkpt>
      <trkpt lat="36.046449691057205" lon="-118.1317506171763">
        <time>2005-06-09T17:22:01-07:00</time>
      </trkpt>
      <trkpt lat="36.04645572602749" lon="-118.13174122944474">
        <time>2005-06-09T17:22:02-07:00</time>
      </trkpt>
      <trkpt lat="36.046527391299605" lon="-118.13165933825076">
        <time>2005-06-09T17:22:11-07:00</time>
      </trkpt>
      <trkpt lat="36.04660911485553" lon="-118.13158448785543">
        <time>2005-06-09T17:22:19-07:00</time>
      </trkpt>
      <trkpt lat="36.04670307599008" lon="-118.13148516230285">
        <time>2005-06-09T17:22:30-07:00</time>
      </trkpt>
      <trkpt lat="36.04680449701846" lon="-118.13135750591755">
        <time>2005-06-09T17:22:42-07:00</time>
      </trkpt>
      <trkpt lat="36.04685017839074" lon="-118.13122406601906">
        <time>2005-06-09T17:22:52-07:00</time>
      </trkpt>
      <trkpt lat="36.04686082340777" lon="-118.13118257559836">
        <time>2005-06-09T17:22:55-07:00</time>
      </trkpt>
      <trkpt lat="36.04689166881144" lon="-118.13111669383943">
        <time>2005-06-09T17:23:00-07:00</time>
      </trkpt>
      <trkpt lat="36.046929555013776" lon="-118.13100353814662">
        <time>2005-06-09T17:23:08-07:00</time>
      </trkpt>
      <trkpt lat="36.046975906938314" lon="-118.13092508353293">
        <time>2005-06-09T17:23:15-07:00</time>
      </trkpt>
      <trkpt lat="36.04701882228255" lon="-118.13084620982409">
        <time>2005-06-09T17:23:21-07:00</time>
      </trkpt>
      <trkpt lat="36.047061402350664" lon="-118.13080044463277">
        <time>2005-06-09T17:23:27-07:00</time>
      </trkpt>
      <trkpt lat="36.04708109982312" lon="-118.13077001832426">
        <time>2005-06-09T17:23:30-07:00</time>
      </trkpt>
      <trkpt lat="36.047150418162346" lon="-118.13068385235965">
        <time>2005-06-09T17:23:38-07:00</time>
      </trkpt>
      <trkpt lat="36.047181179746985" lon="-118.13065979629755">
        <time>2005-06-09T17:23:41-07:00</time>
      </trkpt>
      <trkpt lat="36.04720582254231" lon="-118.13063842244446">
        <time>2005-06-09T17:23:44-07:00</time>
      </trkpt>
      <trkpt lat="36.047278409823775" lon="-118.13056549988687">
        <time>2005-06-09T17:23:52-07:00</time>
      </trkpt>
      <trkpt lat="36.0473183915019" lon="-118.13053314574063">
        <time>2005-06-09T17:23:56-07:00</time>
      </trkpt>
      <trkpt lat="36.04737035930157" lon="-118.13047832809389">
        <time>2005-06-09T17:24:02-07:00</time>
      </trkpt>
      <trkpt lat="36.047379579395056" lon="-118.13046894036233">
        <time>2005-06-09T17:24:03-07:00</time>
      </trkpt>
      <trkpt lat="36.047440599650145" lon="-118.13041982240975">
        <time>2005-06-09T17:24:10-07:00</time>
      </trkpt>
      <trkpt lat="36.047459626570344" lon="-118.13040792010725">
        <time>2005-06-09T17:24:12-07:00</time>
      </trkpt>
      <trkpt lat="36.047529028728604" lon="-118.13035486266017">
        <time>2005-06-09T17:24:20-07:00</time>
      </trkpt>
      <trkpt lat="36.04763003066182" lon="-118.13031814992428">
        <time>2005-06-09T17:24:29-07:00</time>
      </trkpt>
      <trkpt lat="36.047708904370666" lon="-118.13031513243914">
        <time>2005-06-09T17:24:36-07:00</time>
      </trkpt>
      <trkpt lat="36.04779071174562" lon="-118.13030675053596">
        <time>2005-06-09T17:24:42-07:00</time>
      </trkpt>
      <trkpt lat="36.047814935445786" lon="-118.13030038028955">
        <time>2005-06-09T17:24:44-07:00</time>
      </trkpt>
      <trkpt lat="36.04785659350455" lon="-118.13028931617737">
        <time>2005-06-09T17:24:47-07:00</time>
      </trkpt>
      <trkpt lat="36.04795784689486" lon="-118.13027280382812">
        <time>2005-06-09T17:24:55-07:00</time>
      </trkpt>
      <trkpt lat="36.04804434813559" lon="-118.1302410364151">
        <time>2005-06-09T17:25:02-07:00</time>
      </trkpt>
      <trkpt lat="36.048062704503536" lon="-118.13023776747286">
        <time>2005-06-09T17:25:04-07:00</time>
      </trkpt>
      <trkpt lat="36.048137890174985" lon="-118.1301945168525">
        <time>2005-06-09T17:25:10-07:00</time>
      </trkpt>
      <trkpt lat="36.048182900995016" lon="-118.13014908693731">
        <time>2005-06-09T17:25:16-07:00</time>
      </trkpt>
      <trkpt lat="36.04820511303842" lon="-118.13013860955834">
        <time>2005-06-09T17:25:18-07:00</time>
      </trkpt>
      <trkpt lat="36.04826630093157" lon="-118.13008471392095">
        <time>2005-06-09T17:25:25-07:00</time>
      </trkpt>
      <trkpt lat="36.04827216826379" lon="-118.13007641583681">
        <time>2005-06-09T17:25:26-07:00</time>
      </trkpt>
      <trkpt lat="36.048294296488166" lon="-118.13005034811795">
        <time>2005-06-09T17:25:29-07:00</time>
      </trkpt>
      <trkpt lat="36.04831047356129" lon="-118.13003861345351">
        <time>2005-06-09T17:25:31-07:00</time>
      </trkpt>
      <trkpt lat="36.04834743775427" lon="-118.13002277165651">
        <time>2005-06-09T17:25:34-07:00</time>
      </trkpt>
      <trkpt lat="36.04836981743574" lon="-118.13001204282045">
        <time>2005-06-09T17:25:36-07:00</time>
      </trkpt>
      <trkpt lat="36.048431005328894" lon="-118.12995412386954">
        <time>2005-06-09T17:25:44-07:00</time>
      </trkpt>
      <trkpt lat="36.04845413938165" lon="-118.1299167405814">
        <time>2005-06-09T17:25:47-07:00</time>
      </trkpt>
      <trkpt lat="36.04848791845143" lon="-118.12987457960844">
        <time>2005-06-09T17:25:52-07:00</time>
      </trkpt>
      <trkpt lat="36.048499904572964" lon="-118.1298488471657">
        <time>2005-06-09T17:25:55-07:00</time>
      </trkpt>
      <trkpt lat="36.048531169071794" lon="-118.12979721464217">
        <time>2005-06-09T17:25:59-07:00</time>
      </trkpt>
      <trkpt lat="36.048579113557935" lon="-118.12974901869893">
        <time>2005-06-09T17:26:04-07:00</time>
      </trkpt>
      <trkpt lat="36.04862823151052" lon="-118.1297315005213">
        <time>2005-06-09T17:26:09-07:00</time>
      </trkpt>
      <trkpt lat="36.048632338643074" lon="-118.12972839921713">
        <time>2005-06-09T17:26:10-07:00</time>
      </trkpt>
      <trkpt lat="36.048681791871786" lon="-118.12967215664685">
        <time>2005-06-09T17:26:17-07:00</time>
      </trkpt>
      <trkpt lat="36.04870635084808" lon="-118.12963603064418">
        <time>2005-06-09T17:26:20-07:00</time>
      </trkpt>
      <trkpt lat="36.048729652538896" lon="-118.12959470786154">
        <time>2005-06-09T17:26:24-07:00</time>
      </trkpt>
      <trkpt lat="36.04878061451018" lon="-118.1295367050916">
        <time>2005-06-09T17:26:30-07:00</time>
      </trkpt>
      <trkpt lat="36.04885823093355" lon="-118.1295071169734">
        <time>2005-06-09T17:26:37-07:00</time>
      </trkpt>
      <trkpt lat="36.0489537846297" lon="-118.129548355937">
        <time>2005-06-09T17:26:46-07:00</time>
      </trkpt>
      <trkpt lat="36.04905470274389" lon="-118.12957501038909">
        <time>2005-06-09T17:26:54-07:00</time>
      </trkpt>
      <trkpt lat="36.04913944378495" lon="-118.12954072840512">
        <time>2005-06-09T17:27:02-07:00</time>
      </trkpt>
      <trkpt lat="36.04914866387844" lon="-118.1295314244926">
        <time>2005-06-09T17:27:03-07:00</time>
      </trkpt>
      <trkpt lat="36.04924296028912" lon="-118.12945087440312">
        <time>2005-06-09T17:27:12-07:00</time>
      </trkpt>
      <trkpt lat="36.04926978237927" lon="-118.12944542616606">
        <time>2005-06-09T17:27:15-07:00</time>
      </trkpt>
      <trkpt lat="36.04930414818227" lon="-118.12942975200713">
        <time>2005-06-09T17:27:19-07:00</time>
      </trkpt>
      <trkpt lat="36.049344297498465" lon="-118.12941550277174">
        <time>2005-06-09T17:27:23-07:00</time>
      </trkpt>
      <trkpt lat="36.049372125416994" lon="-118.12939882278442">
        <time>2005-06-09T17:27:26-07:00</time>
      </trkpt>
      <trkpt lat="36.04939475655556" lon="-118.12937015667558">
        <time>2005-06-09T17:27:29-07:00</time>
      </trkpt>
      <trkpt lat="36.04942945763469" lon="-118.12932036817074">
        <time>2005-06-09T17:27:34-07:00</time>
      </trkpt>
      <trkpt lat="36.049497267231345" lon="-118.1292652990669">
        <time>2005-06-09T17:27:42-07:00</time>
      </trkpt>
      <trkpt lat="36.049538757652044" lon="-118.1292570848018">
        <time>2005-06-09T17:27:46-07:00</time>
      </trkpt>
      <trkpt lat="36.049595419317484" lon="-118.12926018610597">
        <time>2005-06-09T17:27:52-07:00</time>
      </trkpt>
      <trkpt lat="36.04967085644603" lon="-118.12923730351031">
        <time>2005-06-09T17:27:59-07:00</time>
      </trkpt>
      <trkpt lat="36.04974729940295" lon="-118.12919430434704">
        <time>2005-06-09T17:28:06-07:00</time>
      </trkpt>
      <trkpt lat="36.04982106015086" lon="-118.12912800349295">
        <time>2005-06-09T17:28:13-07:00</time>
      </trkpt>
      <trkpt lat="36.04990513063967" lon="-118.12912372872233">
        <time>2005-06-09T17:28:20-07:00</time>
      </trkpt>
      <trkpt lat="36.050005462020636" lon="-118.12911693938076">
        <time>2005-06-09T17:28:28-07:00</time>
      </trkpt>
      <trkpt lat="36.05009816586971" lon="-118.12910151667893">
        <time>2005-06-09T17:28:36-07:00</time>
      </trkpt>
      <trkpt lat="36.05013135820627" lon="-118.1291064620018">
        <time>2005-06-09T17:28:39-07:00</time>
      </trkpt>
      <trkpt lat="36.05017385445535" lon="-118.12911375425756">
        <time>2005-06-09T17:28:43-07:00</time>
      </trkpt>
      <trkpt lat="36.05023839510977" lon="-118.12911752611399">
        <time>2005-06-09T17:28:49-07:00</time>
      </trkpt>
      <trkpt lat="36.05026077479124" lon="-118.12911794520915">
        <time>2005-06-09T17:28:51-07:00</time>
      </trkpt>
      <trkpt lat="36.050340654328465" lon="-118.12912113033235">
        <time>2005-06-09T17:28:57-07:00</time>
      </trkpt>
      <trkpt lat="36.05037124827504" lon="-118.12912515364587">
        <time>2005-06-09T17:29:00-07:00</time>
      </trkpt>
      <trkpt lat="36.05046110227704" lon="-118.12916639260948">
        <time>2005-06-09T17:29:08-07:00</time>
      </trkpt>
      <trkpt lat="36.050540478900075" lon="-118.12923822551966">
        <time>2005-06-09T17:29:16-07:00</time>
      </trkpt>
      <trkpt lat="36.05063309893012" lon="-118.12929128296673">
        <time>2005-06-09T17:29:25-07:00</time>
      </trkpt>
      <trkpt lat="36.05071172118187" lon="-118.12935632653534">
        <time>2005-06-09T17:29:32-07:00</time>
      </trkpt>
      <trkpt lat="36.05072286911309" lon="-118.12936219386756">
        <time>2005-06-09T17:29:33-07:00</time>
      </trkpt>
      <trkpt lat="36.05075580999255" lon="-118.12937501817942">
        <time>2005-06-09T17:29:36-07:00</time>
      </trkpt>
      <trkpt lat="36.05082965455949" lon="-118.12941692769527">
        <time>2005-06-09T17:29:42-07:00</time>
      </trkpt>
      <trkpt lat="36.05092202313244" lon="-118.12947493046522">
        <time>2005-06-09T17:29:52-07:00</time>
      </trkpt>
      <trkpt lat="36.05098354630172" lon="-118.12955070286989">
        <time>2005-06-09T17:30:00-07:00</time>
      </trkpt>
      <trkpt lat="36.05101028457284" lon="-118.12962932512164">
        <time>2005-06-09T17:30:06-07:00</time>
      </trkpt>
      <trkpt lat="36.05102528817952" lon="-118.1296641100198">
        <time>2005-06-09T17:30:09-07:00</time>
      </trkpt>
      <trkpt lat="36.051058983430266" lon="-118.12972261570394">
        <time>2005-06-09T17:30:14-07:00</time>
      </trkpt>
      <trkpt lat="36.05107239447534" lon="-118.12974943779409">
        <time>2005-06-09T17:30:16-07:00</time>
      </trkpt>
      <trkpt lat="36.051084380596876" lon="-118.12977734953165">
        <time>2005-06-09T17:30:18-07:00</time>
      </trkpt>
      <trkpt lat="36.05112947523594" lon="-118.12986091710627">
        <time>2005-06-09T17:30:26-07:00</time>
      </trkpt>
      <trkpt lat="36.05115939863026" lon="-118.1298956181854">
        <time>2005-06-09T17:30:29-07:00</time>
      </trkpt>
      <trkpt lat="36.05124866589904" lon="-118.12994750216603">
        <time>2005-06-09T17:30:36-07:00</time>
      </trkpt>
      <trkpt lat="36.051282696425915" lon="-118.12997348606586">
        <time>2005-06-09T17:30:39-07:00</time>
      </trkpt>
      <trkpt lat="36.05132351629436" lon="-118.1300166528672">
        <time>2005-06-09T17:30:43-07:00</time>
      </trkpt>
      <trkpt lat="36.051393086090684" lon="-118.13007700257003">
        <time>2005-06-09T17:30:50-07:00</time>
      </trkpt>
      <trkpt lat="36.05142937973142" lon="-118.130098041147">
        <time>2005-06-09T17:30:53-07:00</time>
      </trkpt>
      <trkpt lat="36.05148470029235" lon="-118.13012645579875">
        <time>2005-06-09T17:30:57-07:00</time>
      </trkpt>
      <trkpt lat="36.05155561119318" lon="-118.13019175082445">
        <time>2005-06-09T17:31:05-07:00</time>
      </trkpt>
      <trkpt lat="36.05162601917982" lon="-118.13025645911694">
        <time>2005-06-09T17:31:12-07:00</time>
      </trkpt>
      <trkpt lat="36.05167488567531" lon="-118.13029367476702">
        <time>2005-06-09T17:31:18-07:00</time>
      </trkpt>
      <trkpt lat="36.0517443716526" lon="-118.13038478605449">
        <time>2005-06-09T17:31:26-07:00</time>
      </trkpt>
      <trkpt lat="36.05179709382355" lon="-118.13043197616935">
        <time>2005-06-09T17:31:31-07:00</time>
      </trkpt>
      <trkpt lat="36.05183036997914" lon="-118.13045653514564">
        <time>2005-06-09T17:31:34-07:00</time>
      </trkpt>
      <trkpt lat="36.0518445353955" lon="-118.130515627563">
        <time>2005-06-09T17:31:39-07:00</time>
      </trkpt>
      <trkpt lat="36.05183120816946" lon="-118.13054647296667">
        <time>2005-06-09T17:31:41-07:00</time>
      </trkpt>
      <trkpt lat="36.05182399973273" lon="-118.13057413324714">
        <time>2005-06-09T17:31:43-07:00</time>
      </trkpt>
      <trkpt lat="36.05182617902756" lon="-118.13062492758036">
        <time>2005-06-09T17:31:49-07:00</time>
      </trkpt>
      <trkpt lat="36.0518291965127" lon="-118.1306176353246">
        <time>2005-06-09T17:31:54-07:00</time>
      </trkpt>
      <trkpt lat="36.05184160172939" lon="-118.13060271553695">
        <time>2005-06-09T17:33:17-07:00</time>
      </trkpt>
      <trkpt lat="36.05185274966061" lon="-118.13060011714697">
        <time>2005-06-09T17:33:18-07:00</time>
      </trkpt>
      <trkpt lat="36.05186984874308" lon="-118.13060003332794">
        <time>2005-06-09T17:33:19-07:00</time>
      </trkpt>
      <trkpt lat="36.05196883901954" lon="-118.13060196116567">
        <time>2005-06-09T17:33:28-07:00</time>
      </trkpt>
      <trkpt lat="36.05208719149232" lon="-118.13063473440707">
        <time>2005-06-09T17:33:37-07:00</time>
      </trkpt>
      <trkpt lat="36.05221476405859" lon="-118.13062802888453">
        <time>2005-06-09T17:33:48-07:00</time>
      </trkpt>
      <trkpt lat="36.052301432937384" lon="-118.13063339330256">
        <time>2005-06-09T17:33:55-07:00</time>
      </trkpt>
      <trkpt lat="36.05232867412269" lon="-118.13063817098737">
        <time>2005-06-09T17:33:58-07:00</time>
      </trkpt>
      <trkpt lat="36.05239170603454" lon="-118.1306517496705">
        <time>2005-06-09T17:34:03-07:00</time>
      </trkpt>
      <trkpt lat="36.05246161110699" lon="-118.13066801056266">
        <time>2005-06-09T17:34:09-07:00</time>
      </trkpt>
      <trkpt lat="36.05247359722853" lon="-118.13066893257201">
        <time>2005-06-09T17:34:10-07:00</time>
      </trkpt>
      <trkpt lat="36.05249589309096" lon="-118.13067647628486">
        <time>2005-06-09T17:34:12-07:00</time>
      </trkpt>
      <trkpt lat="36.05251919478178" lon="-118.13068033196032">
        <time>2005-06-09T17:34:14-07:00</time>
      </trkpt>
      <trkpt lat="36.05257987976074" lon="-118.13067195005715">
        <time>2005-06-09T17:34:19-07:00</time>
      </trkpt>
      <trkpt lat="36.05267794802785" lon="-118.13067982904613">
        <time>2005-06-09T17:34:27-07:00</time>
      </trkpt>
      <trkpt lat="36.052734358236194" lon="-118.13069483265281">
        <time>2005-06-09T17:34:32-07:00</time>
      </trkpt>
      <trkpt lat="36.052747182548046" lon="-118.13069751486182">
        <time>2005-06-09T17:34:33-07:00</time>
      </trkpt>
      <trkpt lat="36.05281583033502" lon="-118.1307069864124">
        <time>2005-06-09T17:34:39-07:00</time>
      </trkpt>
      <trkpt lat="36.052890345454216" lon="-118.1307196430862">
        <time>2005-06-09T17:34:46-07:00</time>
      </trkpt>
      <trkpt lat="36.052972320467234" lon="-118.13073221594095">
        <time>2005-06-09T17:34:53-07:00</time>
      </trkpt>
      <trkpt lat="36.05303669348359" lon="-118.1307312939316">
        <time>2005-06-09T17:34:59-07:00</time>
      </trkpt>
      <trkpt lat="36.05304624885321" lon="-118.1307312939316">
        <time>2005-06-09T17:35:00-07:00</time>
      </trkpt>
      <trkpt lat="36.05308949947357" lon="-118.13073405995965">
        <time>2005-06-09T17:35:04-07:00</time>
      </trkpt>
      <trkpt lat="36.05310911312699" lon="-118.1307331379503">
        <time>2005-06-09T17:35:06-07:00</time>
      </trkpt>
      <trkpt lat="36.053168289363384" lon="-118.13074336387217">
        <time>2005-06-09T17:35:11-07:00</time>
      </trkpt>
      <trkpt lat="36.053206007927656" lon="-118.13074101693928">
        <time>2005-06-09T17:35:14-07:00</time>
      </trkpt>
      <trkpt lat="36.05328748002648" lon="-118.13073774799705">
        <time>2005-06-09T17:35:21-07:00</time>
      </trkpt>
      <trkpt lat="36.053300807252526" lon="-118.13073758035898">
        <time>2005-06-09T17:35:22-07:00</time>
      </trkpt>
      <trkpt lat="36.053402898833156" lon="-118.13073799945414">
        <time>2005-06-09T17:35:31-07:00</time>
      </trkpt>
      <trkpt lat="36.05343198403716" lon="-118.1307312939316">
        <time>2005-06-09T17:35:34-07:00</time>
      </trkpt>
      <trkpt lat="36.05344698764384" lon="-118.13073095865548">
        <time>2005-06-09T17:35:36-07:00</time>
      </trkpt>
      <trkpt lat="36.05347054079175" lon="-118.13073020428419">
        <time>2005-06-09T17:35:38-07:00</time>
      </trkpt>
      <trkpt lat="36.053484957665205" lon="-118.13073020428419">
        <time>2005-06-09T17:35:39-07:00</time>
      </trkpt>
      <trkpt lat="36.05351848527789" lon="-118.13071612268686">
        <time>2005-06-09T17:35:43-07:00</time>
      </trkpt>
      <trkpt lat="36.05355117470026" lon="-118.13071293756366">
        <time>2005-06-09T17:35:46-07:00</time>
      </trkpt>
      <trkpt lat="36.053667766973376" lon="-118.13070028088987">
        <time>2005-06-09T17:35:57-07:00</time>
      </trkpt>
      <trkpt lat="36.05369106866419" lon="-118.13069709576666">
        <time>2005-06-09T17:35:59-07:00</time>
      </trkpt>
      <trkpt lat="36.0537822637707" lon="-118.13068762421608">
        <time>2005-06-09T17:36:08-07:00</time>
      </trkpt>
      <trkpt lat="36.05388695374131" lon="-118.13067178241909">
        <time>2005-06-09T17:36:17-07:00</time>
      </trkpt>
      <trkpt lat="36.053896425291896" lon="-118.13066951930523">
        <time>2005-06-09T17:36:18-07:00</time>
      </trkpt>
      <trkpt lat="36.05393716134131" lon="-118.13065644353628">
        <time>2005-06-09T17:36:22-07:00</time>
      </trkpt>
      <trkpt lat="36.053998516872525" lon="-118.13063548877835">
        <time>2005-06-09T17:36:28-07:00</time>
      </trkpt>
      <trkpt lat="36.05412810109556" lon="-118.130605481565">
        <time>2005-06-09T17:36:39-07:00</time>
      </trkpt>
      <trkpt lat="36.05426372028887" lon="-118.13057530671358">
        <time>2005-06-09T17:36:50-07:00</time>
      </trkpt>
      <trkpt lat="36.05429322458804" lon="-118.1305655837059">
        <time>2005-06-09T17:36:53-07:00</time>
      </trkpt>
      <trkpt lat="36.054365979507565" lon="-118.13055644743145">
        <time>2005-06-09T17:36:59-07:00</time>
      </trkpt>
      <trkpt lat="36.05442389845848" lon="-118.13054404221475">
        <time>2005-06-09T17:37:04-07:00</time>
      </trkpt>
      <trkpt lat="36.05445072054863" lon="-118.1305396836251">
        <time>2005-06-09T17:37:07-07:00</time>
      </trkpt>
      <trkpt lat="36.054483242332935" lon="-118.13053733669221">
        <time>2005-06-09T17:37:13-07:00</time>
      </trkpt>
      <trkpt lat="36.05448215268552" lon="-118.1304984446615">
        <time>2005-06-09T17:37:20-07:00</time>
      </trkpt>
      <trkpt lat="36.05449313297868" lon="-118.13051411882043">
        <time>2005-06-09T17:37:25-07:00</time>
      </trkpt>
      <trkpt lat="36.05450310744345" lon="-118.13051026314497">
        <time>2005-06-09T17:37:28-07:00</time>
      </trkpt>
      <trkpt lat="36.05450880713761" lon="-118.13051520846784">
        <time>2005-06-09T17:37:35-07:00</time>
      </trkpt>
      <trkpt lat="36.05450897477567" lon="-118.13051470555365">
        <time>2005-06-09T17:37:38-07:00</time>
      </trkpt>
      <trkpt lat="36.054519368335605" lon="-118.13051696866751">
        <time>2005-06-09T17:37:50-07:00</time>
      </trkpt>
      <trkpt lat="36.054519368335605" lon="-118.13051696866751">
        <time>2005-06-09T17:37:55-07:00</time>
      </trkpt>
      <trkpt lat="36.054519368335605" lon="-118.13051696866751">
        <time>2005-06-09T17:38:14-07:00</time>
      </trkpt>
      <trkpt lat="36.054519368335605" lon="-118.13051696866751">
        <time>2005-06-09T17:38:30-07:00</time>
      </trkpt>
      <trkpt lat="36.05450302362442" lon="-118.13052233308554">
        <time>2005-06-09T17:38:38-07:00</time>
      </trkpt>
      <trkpt lat="36.05449506081641" lon="-118.13055460341275">
        <time>2005-06-09T17:38:48-07:00</time>
      </trkpt>
      <trkpt lat="36.05449321679771" lon="-118.13055066391826">
        <time>2005-06-09T17:38:50-07:00</time>
      </trkpt>
      <trkpt lat="36.05448382906616" lon="-118.13054848462343">
        <time>2005-06-09T17:38:54-07:00</time>
      </trkpt>
      <trkpt lat="36.05449120514095" lon="-118.13057094812393">
        <time>2005-06-09T17:38:57-07:00</time>
      </trkpt>
      <trkpt lat="36.05452347546816" lon="-118.13069684430957">
        <time>2005-06-09T17:39:07-07:00</time>
      </trkpt>
      <trkpt lat="36.05454107746482" lon="-118.13075845129788">
        <time>2005-06-09T17:39:11-07:00</time>
      </trkpt>
      <trkpt lat="36.054544346407056" lon="-118.13077429309487">
        <time>2005-06-09T17:39:14-07:00</time>
      </trkpt>
      <trkpt lat="36.05454099364579" lon="-118.13078192062676">
        <time>2005-06-09T17:39:16-07:00</time>
      </trkpt>
      <trkpt lat="36.05454753153026" lon="-118.130808994174">
        <time>2005-06-09T17:39:19-07:00</time>
      </trkpt>
      <trkpt lat="36.05455289594829" lon="-118.13087881542742">
        <time>2005-06-09T17:39:24-07:00</time>
      </trkpt>
      <trkpt lat="36.05455683544278" lon="-118.1309160310775">
        <time>2005-06-09T17:39:27-07:00</time>
      </trkpt>
      <trkpt lat="36.0545592661947" lon="-118.13093396835029">
        <time>2005-06-09T17:39:29-07:00</time>
      </trkpt>
      <trkpt lat="36.05456546880305" lon="-118.13094427809119">
        <time>2005-06-09T17:39:33-07:00</time>
      </trkpt>
      <trkpt lat="36.05456789955497" lon="-118.13098300248384">
        <time>2005-06-09T17:39:38-07:00</time>
      </trkpt>
      <trkpt lat="36.054571168497205" lon="-118.13103069551289">
        <time>2005-06-09T17:39:43-07:00</time>
      </trkpt>
      <trkpt lat="36.0545695759356" lon="-118.13103371299803">
        <time>2005-06-09T17:39:44-07:00</time>
      </trkpt>
      <trkpt lat="36.05457418598235" lon="-118.13102273270488">
        <time>2005-06-09T17:39:52-07:00</time>
      </trkpt>
      <trkpt lat="36.054578460752964" lon="-118.13103069551289">
        <time>2005-06-09T17:39:56-07:00</time>
      </trkpt>
      <trkpt lat="36.05459287762642" lon="-118.13105617649853">
        <time>2005-06-09T17:39:59-07:00</time>
      </trkpt>
      <trkpt lat="36.05458910576999" lon="-118.13113681040704">
        <time>2005-06-09T17:40:05-07:00</time>
      </trkpt>
      <trkpt lat="36.05459396727383" lon="-118.13121040351689">
        <time>2005-06-09T17:40:09-07:00</time>
      </trkpt>
      <trkpt lat="36.054589273408055" lon="-118.13125901855528">
        <time>2005-06-09T17:40:12-07:00</time>
      </trkpt>
      <trkpt lat="36.05458030477166" lon="-118.13132666051388">
        <time>2005-06-09T17:40:17-07:00</time>
      </trkpt>
      <trkpt lat="36.054546274244785" lon="-118.13139011152089">
        <time>2005-06-09T17:40:21-07:00</time>
      </trkpt>
      <trkpt lat="36.05453780852258" lon="-118.13140167854726">
        <time>2005-06-09T17:40:22-07:00</time>
      </trkpt>
      <trkpt lat="36.05446295812726" lon="-118.13150418922305">
        <time>2005-06-09T17:40:31-07:00</time>
      </trkpt>
      <trkpt lat="36.05438584461808" lon="-118.13159245066345">
        <time>2005-06-09T17:40:40-07:00</time>
      </trkpt>
      <trkpt lat="36.05434753932059" lon="-118.13162128441036">
        <time>2005-06-09T17:40:44-07:00</time>
      </trkpt>
      <trkpt lat="36.054282831028104" lon="-118.13165120780468">
        <time>2005-06-09T17:40:49-07:00</time>
      </trkpt>
      <trkpt lat="36.05416397564113" lon="-118.13169529661536">
        <time>2005-06-09T17:40:59-07:00</time>
      </trkpt>
      <trkpt lat="36.05404419824481" lon="-118.13173762522638">
        <time>2005-06-09T17:41:09-07:00</time>
      </trkpt>
      <trkpt lat="36.05400597676635" lon="-118.13174793496728">
        <time>2005-06-09T17:41:12-07:00</time>
      </trkpt>
      <trkpt lat="36.053928611800075" lon="-118.13176352530718">
        <time>2005-06-09T17:41:18-07:00</time>
      </trkpt>
      <trkpt lat="36.05382467620075" lon="-118.13178397715092">
        <time>2005-06-09T17:41:26-07:00</time>
      </trkpt>
      <trkpt lat="36.05376943945885" lon="-118.13179495744407">
        <time>2005-06-09T17:41:31-07:00</time>
      </trkpt>
      <trkpt lat="36.0536871291697" lon="-118.13181188888848">
        <time>2005-06-09T17:41:38-07:00</time>
      </trkpt>
      <trkpt lat="36.05358243919909" lon="-118.13184357248247">
        <time>2005-06-09T17:41:48-07:00</time>
      </trkpt>
      <trkpt lat="36.05358000844717" lon="-118.13186922110617">
        <time>2005-06-09T17:41:50-07:00</time>
      </trkpt>
      <trkpt lat="36.053583109751344" lon="-118.13193216919899">
        <time>2005-06-09T17:41:54-07:00</time>
      </trkpt>
      <trkpt lat="36.05358386412263" lon="-118.1320286449045">
        <time>2005-06-09T17:42:02-07:00</time>
      </trkpt>
      <trkpt lat="36.05357514694333" lon="-118.13211522996426">
        <time>2005-06-09T17:42:09-07:00</time>
      </trkpt>
      <trkpt lat="36.053568525239825" lon="-118.13215412199497">
        <time>2005-06-09T17:42:12-07:00</time>
      </trkpt>
      <trkpt lat="36.053555365651846" lon="-118.13216904178262">
        <time>2005-06-09T17:42:16-07:00</time>
      </trkpt>
      <trkpt lat="36.053553856909275" lon="-118.13214741647243">
        <time>2005-06-09T17:42:28-07:00</time>
      </trkpt>
      <trkpt lat="36.053572883829474" lon="-118.13214850611985">
        <time>2005-06-09T17:42:31-07:00</time>
      </trkpt>
      <trkpt lat="36.0535750631243" lon="-118.13218412920833">
        <time>2005-06-09T17:42:36-07:00</time>
      </trkpt>
      <trkpt lat="36.05357171036303" lon="-118.132193852216">
        <time>2005-06-09T17:42:45-07:00</time>
      </trkpt>
      <trkpt lat="36.05357129126787" lon="-118.13219485804439">
        <time>2005-06-09T17:42:47-07:00</time>
      </trkpt>
      <trkpt lat="36.05357129126787" lon="-118.13219477422535">
        <time>2005-06-09T17:42:55-07:00</time>
      </trkpt>
    </trkseg>
  </trk>
</gpx>
