<?xml version="1.0" encoding="UTF-8"?>
<gpx version="1.1" creator="GarminFitSummaryExtractor" xmlns="http://www.topografix.com/GPX/1/1" xmlns:xsi="http://www.w3.org/2001/XMLSchema-instance" xsi:schemaLocation="http://www.topografix.com/GPX/1/1 http://www.topografix.com/GPX/1/1/gpx.xsd">
  <metadata>
    <name>2025-05-10-17-04-21</name>
    <time>2005-05-11T17:04:21-07:00</time>
  </metadata>
  <trk>
    <name>2025-05-10-17-04-21</name>
    <type>HIKING</type>
    <trkseg>
      <trkpt lat="33.925711596384645" lon="-116.69488730840385">
        <time>2005-05-11T17:04:21-07:00</time>
      </trkpt>
      <trkpt lat="33.92583455890417" lon="-116.69498378410935">
        <time>2005-05-11T17:04:24-07:00</time>
      </trkpt>
      <trkpt lat="33.925903709605336" lon="-116.69499401003122">
        <time>2005-05-11T17:04:25-07:00</time>
      </trkpt>
      <trkpt lat="33.92590329051018" lon="-116.69499761424959">
        <time>2005-05-11T17:04:26-07:00</time>
      </trkpt>
      <trkpt lat="33.925965148955584" lon="-116.69499769806862">
        <time>2005-05-11T17:04:31-07:00</time>
      </trkpt>
      <trkpt lat="33.926006304100156" lon="-116.69501446187496">
        <time>2005-05-11T17:04:35-07:00</time>
      </trkpt>
      <trkpt lat="33.92605324275792" lon="-116.6950452234596">
        <time>2005-05-11T17:04:36-07:00</time>
      </trkpt>
      <trkpt lat="33.92612080089748" lon="-116.69507833197713">
        <time>2005-05-11T17:04:42-07:00</time>
      </trkpt>
      <trkpt lat="33.92615650780499" lon="-116.69509073719382">
        <time>2005-05-11T17:04:47-07:00</time>
      </trkpt>
      <trkpt lat="33.92621258273721" lon="-116.6950764041394">
        <time>2005-05-11T17:04:54-07:00</time>
      </trkpt>
      <trkpt lat="33.926302352920175" lon="-116.69509006664157">
        <time>2005-05-11T17:04:59-07:00</time>
      </trkpt>
      <trkpt lat="33.926325822249055" lon="-116.69509878382087">
        <time>2005-05-11T17:05:03-07:00</time>
      </trkpt>
      <trkpt lat="33.926334623247385" lon="-116.69510012492537">
        <time>2005-05-11T17:05:08-07:00</time>
      </trkpt>
      <trkpt lat="33.926398158073425" lon="-116.6951194871217">
        <time>2005-05-11T17:05:14-07:00</time>
      </trkpt>
      <trkpt lat="33.926442163065076" lon="-116.6951261088252">
        <time>2005-05-11T17:05:16-07:00</time>
      </trkpt>
      <trkpt lat="33.92645766958594" lon="-116.69512066058815">
        <time>2005-05-11T17:05:17-07:00</time>
      </trkpt>
      <trkpt lat="33.92647133208811" lon="-116.6951213311404">
        <time>2005-05-11T17:05:22-07:00</time>
      </trkpt>
      <trkpt lat="33.92651567235589" lon="-116.69512518681586">
        <time>2005-05-11T17:05:25-07:00</time>
      </trkpt>
      <trkpt lat="33.92652723938227" lon="-116.69512946158648">
        <time>2005-05-11T17:05:27-07:00</time>
      </trkpt>
      <trkpt lat="33.926588175818324" lon="-116.69516382738948">
        <time>2005-05-11T17:05:28-07:00</time>
      </trkpt>
      <trkpt lat="33.926645424216986" lon="-116.69520950876176">
        <time>2005-05-11T17:05:32-07:00</time>
      </trkpt>
      <trkpt lat="33.926687752828" lon="-116.69523532502353">
        <time>2005-05-11T17:05:33-07:00</time>
      </trkpt>
      <trkpt lat="33.92672387883067" lon="-116.6952648293227">
        <time>2005-05-11T17:05:39-07:00</time>
      </trkpt>
      <trkpt lat="33.926764111965895" lon="-116.69529290869832">
        <time>2005-05-11T17:05:44-07:00</time>
      </trkpt>
      <trkpt lat="33.9268915168941" lon="-116.69532450847328">
        <time>2005-05-11T17:05:48-07:00</time>
      </trkpt>
      <trkpt lat="33.92693342640996" lon="-116.6953182220459">
        <time>2005-05-11T17:05:51-07:00</time>
      </trkpt>
      <trkpt lat="33.92699059098959" lon="-116.69530145823956">
        <time>2005-05-11T17:05:54-07:00</time>
      </trkpt>
      <trkpt lat="33.92703744582832" lon="-116.69531939551234">
        <time>2005-05-11T17:06:00-07:00</time>
      </trkpt>
      <trkpt lat="33.927094945684075" lon="-116.69535510241985">
        <time>2005-05-11T17:06:02-07:00</time>
      </trkpt>
      <trkpt lat="33.92713509500027" lon="-116.69538846239448">
        <time>2005-05-11T17:06:06-07:00</time>
      </trkpt>
      <trkpt lat="33.927145740017295" lon="-116.69541763141751">
        <time>2005-05-11T17:06:10-07:00</time>
      </trkpt>
      <trkpt lat="33.9271835424006" lon="-116.69543464668095">
        <time>2005-05-11T17:06:15-07:00</time>
      </trkpt>
      <trkpt lat="33.927197037264705" lon="-116.69544017873704">
        <time>2005-05-11T17:06:19-07:00</time>
      </trkpt>
      <trkpt lat="33.92728907056153" lon="-116.69548544101417">
        <time>2005-05-11T17:06:22-07:00</time>
      </trkpt>
      <trkpt lat="33.9273542817682" lon="-116.69550128281116">
        <time>2005-05-11T17:06:25-07:00</time>
      </trkpt>
      <trkpt lat="33.92743080854416" lon="-116.69550279155374">
        <time>2005-05-11T17:06:26-07:00</time>
      </trkpt>
      <trkpt lat="33.927485290914774" lon="-116.69553179293871">
        <time>2005-05-11T17:06:34-07:00</time>
      </trkpt>
      <trkpt lat="33.927535163238645" lon="-116.69556607492268">
        <time>2005-05-11T17:06:40-07:00</time>
      </trkpt>
      <trkpt lat="33.927548406645656" lon="-116.69556607492268">
        <time>2005-05-11T17:06:46-07:00</time>
      </trkpt>
      <trkpt lat="33.92757690511644" lon="-116.69555802829564">
        <time>2005-05-11T17:06:50-07:00</time>
      </trkpt>
      <trkpt lat="33.92765175551176" lon="-116.6955267637968">
        <time>2005-05-11T17:06:55-07:00</time>
      </trkpt>
      <trkpt lat="33.92770783044398" lon="-116.69555651955307">
        <time>2005-05-11T17:06:57-07:00</time>
      </trkpt>
      <trkpt lat="33.92779818736017" lon="-116.6955875325948">
        <time>2005-05-11T17:07:00-07:00</time>
      </trkpt>
      <trkpt lat="33.92786121927202" lon="-116.69563438743353">
        <time>2005-05-11T17:07:06-07:00</time>
      </trkpt>
      <trkpt lat="33.92787513323128" lon="-116.69564335606992">
        <time>2005-05-11T17:07:12-07:00</time>
      </trkpt>
      <trkpt lat="33.927925592288375" lon="-116.69571376405656">
        <time>2005-05-11T17:07:19-07:00</time>
      </trkpt>
      <trkpt lat="33.92795115709305" lon="-116.69575056061149">
        <time>2005-05-11T17:07:25-07:00</time>
      </trkpt>
      <trkpt lat="33.9280176255852" lon="-116.69580009765923">
        <time>2005-05-11T17:07:26-07:00</time>
      </trkpt>
      <trkpt lat="33.928073113784194" lon="-116.69583404436707">
        <time>2005-05-11T17:07:32-07:00</time>
      </trkpt>
      <trkpt lat="33.928095661103725" lon="-116.69585558585823">
        <time>2005-05-11T17:07:36-07:00</time>
      </trkpt>
      <trkpt lat="33.9281468745321" lon="-116.69587989337742">
        <time>2005-05-11T17:07:42-07:00</time>
      </trkpt>
      <trkpt lat="33.92819934524596" lon="-116.69591836631298">
        <time>2005-05-11T17:07:47-07:00</time>
      </trkpt>
      <trkpt lat="33.9282560069114" lon="-116.69593705795705">
        <time>2005-05-11T17:07:49-07:00</time>
      </trkpt>
      <trkpt lat="33.9283213019371" lon="-116.69594376347959">
        <time>2005-05-11T17:07:54-07:00</time>
      </trkpt>
      <trkpt lat="33.92839003354311" lon="-116.6959295142442">
        <time>2005-05-11T17:07:59-07:00</time>
      </trkpt>
      <trkpt lat="33.9284579269588" lon="-116.69591836631298">
        <time>2005-05-11T17:08:04-07:00</time>
      </trkpt>
      <trkpt lat="33.92853504046798" lon="-116.69593605212867">
        <time>2005-05-11T17:08:09-07:00</time>
      </trkpt>
      <trkpt lat="33.92856387421489" lon="-116.69593932107091">
        <time>2005-05-11T17:08:15-07:00</time>
      </trkpt>
      <trkpt lat="33.92859329469502" lon="-116.69595147483051">
        <time>2005-05-11T17:08:20-07:00</time>
      </trkpt>
      <trkpt lat="33.92865691334009" lon="-116.69599304907024">
        <time>2005-05-11T17:08:26-07:00</time>
      </trkpt>
      <trkpt lat="33.92870041541755" lon="-116.69603546150029">
        <time>2005-05-11T17:08:29-07:00</time>
      </trkpt>
      <trkpt lat="33.92876319587231" lon="-116.69608340598643">
        <time>2005-05-11T17:08:31-07:00</time>
      </trkpt>
      <trkpt lat="33.92877995967865" lon="-116.69609849341214">
        <time>2005-05-11T17:08:36-07:00</time>
      </trkpt>
      <trkpt lat="33.92879328690469" lon="-116.69611316174269">
        <time>2005-05-11T17:08:41-07:00</time>
      </trkpt>
      <trkpt lat="33.92880041152239" lon="-116.69612984173">
        <time>2005-05-11T17:08:46-07:00</time>
      </trkpt>
      <trkpt lat="33.92884056083858" lon="-116.69616906903684">
        <time>2005-05-11T17:08:48-07:00</time>
      </trkpt>
      <trkpt lat="33.928863694891334" lon="-116.69617577455938">
        <time>2005-05-11T17:08:50-07:00</time>
      </trkpt>
      <trkpt lat="33.928904347121716" lon="-116.69619144871831">
        <time>2005-05-11T17:08:51-07:00</time>
      </trkpt>
      <trkpt lat="33.928970228880644" lon="-116.69622874818742">
        <time>2005-05-11T17:08:55-07:00</time>
      </trkpt>
      <trkpt lat="33.92898363992572" lon="-116.69623520225286">
        <time>2005-05-11T17:08:57-07:00</time>
      </trkpt>
      <trkpt lat="33.92904197797179" lon="-116.69627007097006">
        <time>2005-05-11T17:09:00-07:00</time>
      </trkpt>
      <trkpt lat="33.92909453250468" lon="-116.69628943316638">
        <time>2005-05-11T17:09:06-07:00</time>
      </trkpt>
      <trkpt lat="33.929161839187145" lon="-116.69632220640779">
        <time>2005-05-11T17:09:07-07:00</time>
      </trkpt>
      <trkpt lat="33.929203748703" lon="-116.69634441845119">
        <time>2005-05-11T17:09:12-07:00</time>
      </trkpt>
      <trkpt lat="33.929248256608844" lon="-116.69635841622949">
        <time>2005-05-11T17:09:17-07:00</time>
      </trkpt>
      <trkpt lat="33.92928362824023" lon="-116.6963766887784">
        <time>2005-05-11T17:09:23-07:00</time>
      </trkpt>
      <trkpt lat="33.92933836206794" lon="-116.69640837237239">
        <time>2005-05-11T17:09:27-07:00</time>
      </trkpt>
      <trkpt lat="33.92940357327461" lon="-116.69642647728324">
        <time>2005-05-11T17:09:30-07:00</time>
      </trkpt>
      <trkpt lat="33.92942293547094" lon="-116.69643921777606">
        <time>2005-05-11T17:09:33-07:00</time>
      </trkpt>
      <trkpt lat="33.92947289161384" lon="-116.69647626578808">
        <time>2005-05-11T17:09:38-07:00</time>
      </trkpt>
      <trkpt lat="33.92951522022486" lon="-116.69649839401245">
        <time>2005-05-11T17:09:44-07:00</time>
      </trkpt>
      <trkpt lat="33.9295716304332" lon="-116.69652823358774">
        <time>2005-05-11T17:09:46-07:00</time>
      </trkpt>
      <trkpt lat="33.929583532735705" lon="-116.69653913006186">
        <time>2005-05-11T17:09:50-07:00</time>
      </trkpt>
      <trkpt lat="33.92962636426091" lon="-116.6965733282268">
        <time>2005-05-11T17:09:55-07:00</time>
      </trkpt>
      <trkpt lat="33.92967430874705" lon="-116.6966164112091">
        <time>2005-05-11T17:10:00-07:00</time>
      </trkpt>
      <trkpt lat="33.9297407772392" lon="-116.6966446582228">
        <time>2005-05-11T17:10:01-07:00</time>
      </trkpt>
      <trkpt lat="33.92980850301683" lon="-116.69667223468423">
        <time>2005-05-11T17:10:06-07:00</time>
      </trkpt>
      <trkpt lat="33.92987337894738" lon="-116.69671565294266">
        <time>2005-05-11T17:10:11-07:00</time>
      </trkpt>
      <trkpt lat="33.92990908585489" lon="-116.69671238400042">
        <time>2005-05-11T17:10:17-07:00</time>
      </trkpt>
      <trkpt lat="33.92993029206991" lon="-116.69670433737338">
        <time>2005-05-11T17:10:23-07:00</time>
      </trkpt>
      <trkpt lat="33.92998251132667" lon="-116.69670618139207">
        <time>2005-05-11T17:10:29-07:00</time>
      </trkpt>
      <trkpt lat="33.93000287935138" lon="-116.69671716168523">
        <time>2005-05-11T17:10:33-07:00</time>
      </trkpt>
      <trkpt lat="33.93006121739745" lon="-116.69672965072095">
        <time>2005-05-11T17:10:35-07:00</time>
      </trkpt>
      <trkpt lat="33.93012567423284" lon="-116.69674155302346">
        <time>2005-05-11T17:10:39-07:00</time>
      </trkpt>
      <trkpt lat="33.93014185130596" lon="-116.69675546698272">
        <time>2005-05-11T17:10:41-07:00</time>
      </trkpt>
      <trkpt lat="33.930162973701954" lon="-116.69676988385618">
        <time>2005-05-11T17:10:46-07:00</time>
      </trkpt>
      <trkpt lat="33.930219719186425" lon="-116.69679863378406">
        <time>2005-05-11T17:10:51-07:00</time>
      </trkpt>
      <trkpt lat="33.93026917241514" lon="-116.69682285748422">
        <time>2005-05-11T17:10:53-07:00</time>
      </trkpt>
      <trkpt lat="33.93034569919109" lon="-116.69684389606118">
        <time>2005-05-11T17:10:55-07:00</time>
      </trkpt>
      <trkpt lat="33.93035869114101" lon="-116.6968428902328">
        <time>2005-05-11T17:11:00-07:00</time>
      </trkpt>
      <trkpt lat="33.930401019752026" lon="-116.69687616638839">
        <time>2005-05-11T17:11:05-07:00</time>
      </trkpt>
      <trkpt lat="33.930452233180404" lon="-116.69690189883113">
        <time>2005-05-11T17:11:11-07:00</time>
      </trkpt>
      <trkpt lat="33.93049883656204" lon="-116.69691815972328">
        <time>2005-05-11T17:11:12-07:00</time>
      </trkpt>
      <trkpt lat="33.930547032505274" lon="-116.69696166180074">
        <time>2005-05-11T17:11:16-07:00</time>
      </trkpt>
      <trkpt lat="33.9305975753814" lon="-116.69701874256134">
        <time>2005-05-11T17:11:21-07:00</time>
      </trkpt>
      <trkpt lat="33.93060780130327" lon="-116.69702754355967">
        <time>2005-05-11T17:11:25-07:00</time>
      </trkpt>
      <trkpt lat="33.930665887892246" lon="-116.69708504341543">
        <time>2005-05-11T17:11:30-07:00</time>
      </trkpt>
      <trkpt lat="33.93071115016937" lon="-116.69713106006384">
        <time>2005-05-11T17:11:36-07:00</time>
      </trkpt>
      <trkpt lat="33.93076102249324" lon="-116.6971919964999">
        <time>2005-05-11T17:11:37-07:00</time>
      </trkpt>
      <trkpt lat="33.93081760033965" lon="-116.69726039282978">
        <time>2005-05-11T17:11:43-07:00</time>
      </trkpt>
      <trkpt lat="33.930858839303255" lon="-116.69732065871358">
        <time>2005-05-11T17:11:48-07:00</time>
      </trkpt>
      <trkpt lat="33.93089907243848" lon="-116.69737296178937">
        <time>2005-05-11T17:11:54-07:00</time>
      </trkpt>
      <trkpt lat="33.93091876991093" lon="-116.69739777222276">
        <time>2005-05-11T17:12:00-07:00</time>
      </trkpt>
      <trkpt lat="33.93093151040375" lon="-116.69742073863745">
        <time>2005-05-11T17:12:05-07:00</time>
      </trkpt>
      <trkpt lat="33.93097844906151" lon="-116.69747253879905">
        <time>2005-05-11T17:12:10-07:00</time>
      </trkpt>
      <trkpt lat="33.931014742702246" lon="-116.6975442878902">
        <time>2005-05-11T17:12:13-07:00</time>
      </trkpt>
      <trkpt lat="33.93105950206518" lon="-116.69759357348084">
        <time>2005-05-11T17:12:15-07:00</time>
      </trkpt>
      <trkpt lat="33.9311121404171" lon="-116.6976233292371">
        <time>2005-05-11T17:12:20-07:00</time>
      </trkpt>
      <trkpt lat="33.931123707443476" lon="-116.69763053767383">
        <time>2005-05-11T17:12:26-07:00</time>
      </trkpt>
      <trkpt lat="33.931171568110585" lon="-116.69766590930521">
        <time>2005-05-11T17:12:32-07:00</time>
      </trkpt>
      <trkpt lat="33.93118632026017" lon="-116.69769298285246">
        <time>2005-05-11T17:12:37-07:00</time>
      </trkpt>
      <trkpt lat="33.93123049288988" lon="-116.6977377422154">
        <time>2005-05-11T17:12:38-07:00</time>
      </trkpt>
      <trkpt lat="33.93127114512026" lon="-116.69775743968785">
        <time>2005-05-11T17:12:42-07:00</time>
      </trkpt>
      <trkpt lat="33.931330824270844" lon="-116.69780177995563">
        <time>2005-05-11T17:12:44-07:00</time>
      </trkpt>
      <trkpt lat="33.931356221437454" lon="-116.69782063923776">
        <time>2005-05-11T17:12:48-07:00</time>
      </trkpt>
      <trkpt lat="33.931381618604064" lon="-116.69783488847315">
        <time>2005-05-11T17:12:52-07:00</time>
      </trkpt>
      <trkpt lat="33.931434005498886" lon="-116.69789716601372">
        <time>2005-05-11T17:12:57-07:00</time>
      </trkpt>
      <trkpt lat="33.93148446455598" lon="-116.69793429784477">
        <time>2005-05-11T17:13:00-07:00</time>
      </trkpt>
      <trkpt lat="33.93155579455197" lon="-116.69792859815061">
        <time>2005-05-11T17:13:03-07:00</time>
      </trkpt>
      <trkpt lat="33.931635757908225" lon="-116.69794368557632">
        <time>2005-05-11T17:13:09-07:00</time>
      </trkpt>
      <trkpt lat="33.931698789820075" lon="-116.69798391871154">
        <time>2005-05-11T17:13:14-07:00</time>
      </trkpt>
      <trkpt lat="33.931742794811726" lon="-116.69802247546613">
        <time>2005-05-11T17:13:20-07:00</time>
      </trkpt>
      <trkpt lat="33.93181588500738" lon="-116.6981207113713">
        <time>2005-05-11T17:13:27-07:00</time>
      </trkpt>
      <trkpt lat="33.93185486085713" lon="-116.69818977825344">
        <time>2005-05-11T17:13:33-07:00</time>
      </trkpt>
      <trkpt lat="33.931887885555625" lon="-116.69827988371253">
        <time>2005-05-11T17:13:38-07:00</time>
      </trkpt>
      <trkpt lat="33.931924514472485" lon="-116.69837166555226">
        <time>2005-05-11T17:13:46-07:00</time>
      </trkpt>
      <trkpt lat="33.931957287713885" lon="-116.6984111443162">
        <time>2005-05-11T17:13:52-07:00</time>
      </trkpt>
      <trkpt lat="33.931965585798025" lon="-116.69842447154224">
        <time>2005-05-11T17:13:59-07:00</time>
      </trkpt>
      <trkpt lat="33.931983187794685" lon="-116.69843696057796">
        <time>2005-05-11T17:14:06-07:00</time>
      </trkpt>
      <trkpt lat="33.93202509731054" lon="-116.69844810850918">
        <time>2005-05-11T17:14:10-07:00</time>
      </trkpt>
      <trkpt lat="33.93207815475762" lon="-116.69848088175058">
        <time>2005-05-11T17:14:11-07:00</time>
      </trkpt>
      <trkpt lat="33.93212467432022" lon="-116.69851776212454">
        <time>2005-05-11T17:14:13-07:00</time>
      </trkpt>
      <trkpt lat="33.93213867209852" lon="-116.6985266469419">
        <time>2005-05-11T17:14:16-07:00</time>
      </trkpt>
      <trkpt lat="33.93215836957097" lon="-116.69853645376861">
        <time>2005-05-11T17:14:22-07:00</time>
      </trkpt>
      <trkpt lat="33.932207403704524" lon="-116.69860208407044">
        <time>2005-05-11T17:14:27-07:00</time>
      </trkpt>
      <trkpt lat="33.93221561796963" lon="-116.69862764887512">
        <time>2005-05-11T17:14:29-07:00</time>
      </trkpt>
      <trkpt lat="33.93225006759167" lon="-116.69868942350149">
        <time>2005-05-11T17:14:31-07:00</time>
      </trkpt>
      <trkpt lat="33.932290971279144" lon="-116.69873233884573">
        <time>2005-05-11T17:14:37-07:00</time>
      </trkpt>
      <trkpt lat="33.93232894130051" lon="-116.69877357780933">
        <time>2005-05-11T17:14:39-07:00</time>
      </trkpt>
      <trkpt lat="33.932363810017705" lon="-116.69884826056659">
        <time>2005-05-11T17:14:44-07:00</time>
      </trkpt>
      <trkpt lat="33.93241795711219" lon="-116.69889721088111">
        <time>2005-05-11T17:14:49-07:00</time>
      </trkpt>
      <trkpt lat="33.93242516554892" lon="-116.698915399611">
        <time>2005-05-11T17:14:54-07:00</time>
      </trkpt>
      <trkpt lat="33.932453244924545" lon="-116.6989719774574">
        <time>2005-05-11T17:15:00-07:00</time>
      </trkpt>
      <trkpt lat="33.932495322078466" lon="-116.6990345902741">
        <time>2005-05-11T17:15:06-07:00</time>
      </trkpt>
      <trkpt lat="33.93253647722304" lon="-116.69912033714354">
        <time>2005-05-11T17:15:08-07:00</time>
      </trkpt>
      <trkpt lat="33.932564640417695" lon="-116.69917146675289">
        <time>2005-05-11T17:15:12-07:00</time>
      </trkpt>
      <trkpt lat="33.932573860511184" lon="-116.69918068684638">
        <time>2005-05-11T17:15:18-07:00</time>
      </trkpt>
      <trkpt lat="33.93264493905008" lon="-116.69924455694854">
        <time>2005-05-11T17:15:24-07:00</time>
      </trkpt>
      <trkpt lat="33.93271065317094" lon="-116.6992988716811">
        <time>2005-05-11T17:15:29-07:00</time>
      </trkpt>
      <trkpt lat="33.93276245333254" lon="-116.69933793134987">
        <time>2005-05-11T17:15:30-07:00</time>
      </trkpt>
      <trkpt lat="33.93282146193087" lon="-116.69937523081899">
        <time>2005-05-11T17:15:37-07:00</time>
      </trkpt>
      <trkpt lat="33.93288457766175" lon="-116.69940272346139">
        <time>2005-05-11T17:15:44-07:00</time>
      </trkpt>
      <trkpt lat="33.932919446378946" lon="-116.69944169931114">
        <time>2005-05-11T17:15:49-07:00</time>
      </trkpt>
      <trkpt lat="33.93295615911484" lon="-116.6995111014694">
        <time>2005-05-11T17:15:54-07:00</time>
      </trkpt>
      <trkpt lat="33.93301776610315" lon="-116.69954982586205">
        <time>2005-05-11T17:16:00-07:00</time>
      </trkpt>
      <trkpt lat="33.933048443868756" lon="-116.69954119250178">
        <time>2005-05-11T17:16:04-07:00</time>
      </trkpt>
      <trkpt lat="33.93306294456124" lon="-116.69951646588743">
        <time>2005-05-11T17:16:10-07:00</time>
      </trkpt>
      <trkpt lat="33.93308674916625" lon="-116.69949073344469">
        <time>2005-05-11T17:16:16-07:00</time>
      </trkpt>
      <trkpt lat="33.933110469952226" lon="-116.6994989477098">
        <time>2005-05-11T17:16:19-07:00</time>
      </trkpt>
      <trkpt lat="33.93312379717827" lon="-116.69950531795621">
        <time>2005-05-11T17:16:21-07:00</time>
      </trkpt>
      <trkpt lat="33.93317861482501" lon="-116.69954102486372">
        <time>2005-05-11T17:16:24-07:00</time>
      </trkpt>
      <trkpt lat="33.93321826122701" lon="-116.69959022663534">
        <time>2005-05-11T17:16:26-07:00</time>
      </trkpt>
      <trkpt lat="33.9332602545619" lon="-116.6996540967375">
        <time>2005-05-11T17:16:27-07:00</time>
      </trkpt>
      <trkpt lat="33.93331599421799" lon="-116.69971704483032">
        <time>2005-05-11T17:16:33-07:00</time>
      </trkpt>
      <trkpt lat="33.93334181047976" lon="-116.69978141784668">
        <time>2005-05-11T17:16:38-07:00</time>
      </trkpt>
      <trkpt lat="33.93338045105338" lon="-116.69982927851379">
        <time>2005-05-11T17:16:44-07:00</time>
      </trkpt>
      <trkpt lat="33.933446584269404" lon="-116.69988485053182">
        <time>2005-05-11T17:16:50-07:00</time>
      </trkpt>
      <trkpt lat="33.93349947407842" lon="-116.69992877170444">
        <time>2005-05-11T17:16:55-07:00</time>
      </trkpt>
      <trkpt lat="33.93354373052716" lon="-116.6999809909612">
        <time>2005-05-11T17:17:00-07:00</time>
      </trkpt>
      <trkpt lat="33.93358949571848" lon="-116.70000177808106">
        <time>2005-05-11T17:17:06-07:00</time>
      </trkpt>
      <trkpt lat="33.93362335860729" lon="-116.70002968981862">
        <time>2005-05-11T17:17:12-07:00</time>
      </trkpt>
      <trkpt lat="33.93363023176789" lon="-116.70004008337855">
        <time>2005-05-11T17:17:18-07:00</time>
      </trkpt>
      <trkpt lat="33.93366635777056" lon="-116.70008023269475">
        <time>2005-05-11T17:17:22-07:00</time>
      </trkpt>
      <trkpt lat="33.93368328921497" lon="-116.70013379305601">
        <time>2005-05-11T17:17:26-07:00</time>
      </trkpt>
      <trkpt lat="33.93371136859059" lon="-116.70018643140793">
        <time>2005-05-11T17:17:27-07:00</time>
      </trkpt>
      <trkpt lat="33.93371698446572" lon="-116.70019590295851">
        <time>2005-05-11T17:17:31-07:00</time>
      </trkpt>
      <trkpt lat="33.93374774605036" lon="-116.7002310231328">
        <time>2005-05-11T17:17:35-07:00</time>
      </trkpt>
      <trkpt lat="33.93377959728241" lon="-116.70023915357888">
        <time>2005-05-11T17:17:40-07:00</time>
      </trkpt>
      <trkpt lat="33.93380055204034" lon="-116.7002497985959">
        <time>2005-05-11T17:17:41-07:00</time>
      </trkpt>
      <trkpt lat="33.93383106216788" lon="-116.70027578249574">
        <time>2005-05-11T17:17:44-07:00</time>
      </trkpt>
      <trkpt lat="33.93383936025202" lon="-116.70028760097921">
        <time>2005-05-11T17:17:47-07:00</time>
      </trkpt>
      <trkpt lat="33.933880012482405" lon="-116.70035222545266">
        <time>2005-05-11T17:17:49-07:00</time>
      </trkpt>
      <trkpt lat="33.93391069024801" lon="-116.70039656572044">
        <time>2005-05-11T17:17:53-07:00</time>
      </trkpt>
      <trkpt lat="33.93393944017589" lon="-116.70042908750474">
        <time>2005-05-11T17:17:54-07:00</time>
      </trkpt>
      <trkpt lat="33.93395846709609" lon="-116.70044761151075">
        <time>2005-05-11T17:17:59-07:00</time>
      </trkpt>
      <trkpt lat="33.933992413803935" lon="-116.7005122359842">
        <time>2005-05-11T17:18:03-07:00</time>
      </trkpt>
      <trkpt lat="33.93402644433081" lon="-116.70054249465466">
        <time>2005-05-11T17:18:06-07:00</time>
      </trkpt>
      <trkpt lat="33.93404982984066" lon="-116.70056152157485">
        <time>2005-05-11T17:18:09-07:00</time>
      </trkpt>
      <trkpt lat="33.934109676629305" lon="-116.70061499811709">
        <time>2005-05-11T17:18:15-07:00</time>
      </trkpt>
      <trkpt lat="33.934148233383894" lon="-116.70065548270941">
        <time>2005-05-11T17:18:19-07:00</time>
      </trkpt>
      <trkpt lat="33.93415896221995" lon="-116.70066679827869">
        <time>2005-05-11T17:18:21-07:00</time>
      </trkpt>
      <trkpt lat="33.93420715816319" lon="-116.70069831423461">
        <time>2005-05-11T17:18:27-07:00</time>
      </trkpt>
      <trkpt lat="33.93425979651511" lon="-116.7007114738226">
        <time>2005-05-11T17:18:31-07:00</time>
      </trkpt>
      <trkpt lat="33.9342928212136" lon="-116.70075237751007">
        <time>2005-05-11T17:18:32-07:00</time>
      </trkpt>
      <trkpt lat="33.93432232551277" lon="-116.70077894814312">
        <time>2005-05-11T17:18:37-07:00</time>
      </trkpt>
      <trkpt lat="33.93435082398355" lon="-116.70079302974045">
        <time>2005-05-11T17:18:42-07:00</time>
      </trkpt>
      <trkpt lat="33.93439918756485" lon="-116.70082110911608">
        <time>2005-05-11T17:18:47-07:00</time>
      </trkpt>
      <trkpt lat="33.93442592583597" lon="-116.7008444108069">
        <time>2005-05-11T17:18:50-07:00</time>
      </trkpt>
      <trkpt lat="33.93446481786668" lon="-116.70086234807968">
        <time>2005-05-11T17:18:53-07:00</time>
      </trkpt>
      <trkpt lat="33.9344828389585" lon="-116.70087106525898">
        <time>2005-05-11T17:18:57-07:00</time>
      </trkpt>
      <trkpt lat="33.93453396856785" lon="-116.70091758482158">
        <time>2005-05-11T17:19:01-07:00</time>
      </trkpt>
      <trkpt lat="33.93457663245499" lon="-116.70097282156348">
        <time>2005-05-11T17:19:05-07:00</time>
      </trkpt>
      <trkpt lat="33.93460605293512" lon="-116.70103183016181">
        <time>2005-05-11T17:19:07-07:00</time>
      </trkpt>
      <trkpt lat="33.93464645370841" lon="-116.70108010992408">
        <time>2005-05-11T17:19:12-07:00</time>
      </trkpt>
      <trkpt lat="33.93466707319021" lon="-116.70110550709069">
        <time>2005-05-11T17:19:18-07:00</time>
      </trkpt>
      <trkpt lat="33.93468894995749" lon="-116.70112386345863">
        <time>2005-05-11T17:19:23-07:00</time>
      </trkpt>
      <trkpt lat="33.934748377650976" lon="-116.70116258785129">
        <time>2005-05-11T17:19:27-07:00</time>
      </trkpt>
      <trkpt lat="33.93479221500456" lon="-116.70120801776648">
        <time>2005-05-11T17:19:29-07:00</time>
      </trkpt>
      <trkpt lat="33.934824569150805" lon="-116.70125705190003">
        <time>2005-05-11T17:19:32-07:00</time>
      </trkpt>
      <trkpt lat="33.934862120077014" lon="-116.70129368081689">
        <time>2005-05-11T17:19:37-07:00</time>
      </trkpt>
      <trkpt lat="33.934873351827264" lon="-116.70130021870136">
        <time>2005-05-11T17:19:43-07:00</time>
      </trkpt>
      <trkpt lat="33.93491953611374" lon="-116.70133768580854">
        <time>2005-05-11T17:19:47-07:00</time>
      </trkpt>
      <trkpt lat="33.93495976924896" lon="-116.70137372799218">
        <time>2005-05-11T17:19:52-07:00</time>
      </trkpt>
      <trkpt lat="33.93500352278352" lon="-116.70141639187932">
        <time>2005-05-11T17:19:53-07:00</time>
      </trkpt>
      <trkpt lat="33.93502850085497" lon="-116.70143206603825">
        <time>2005-05-11T17:19:58-07:00</time>
      </trkpt>
      <trkpt lat="33.93502472899854" lon="-116.701420834288">
        <time>2005-05-11T17:20:03-07:00</time>
      </trkpt>
      <trkpt lat="33.935030763968825" lon="-116.70142418704927">
        <time>2005-05-11T17:20:08-07:00</time>
      </trkpt>
      <trkpt lat="33.93505347892642" lon="-116.70144296251237">
        <time>2005-05-11T17:20:12-07:00</time>
      </trkpt>
      <trkpt lat="33.9350906945765" lon="-116.70151110738516">
        <time>2005-05-11T17:20:14-07:00</time>
      </trkpt>
      <trkpt lat="33.935095304623246" lon="-116.70152409933507">
        <time>2005-05-11T17:20:23-07:00</time>
      </trkpt>
      <trkpt lat="33.93513637594879" lon="-116.70158897526562">
        <time>2005-05-11T17:20:30-07:00</time>
      </trkpt>
      <trkpt lat="33.93515205010772" lon="-116.70160221867263">
        <time>2005-05-11T17:20:36-07:00</time>
      </trkpt>
      <trkpt lat="33.93519764766097" lon="-116.70162577182055">
        <time>2005-05-11T17:20:37-07:00</time>
      </trkpt>
      <trkpt lat="33.93522002734244" lon="-116.70164530165493">
        <time>2005-05-11T17:20:43-07:00</time>
      </trkpt>
      <trkpt lat="33.93524777144194" lon="-116.70166625641286">
        <time>2005-05-11T17:20:45-07:00</time>
      </trkpt>
      <trkpt lat="33.935285322368145" lon="-116.70170665718615">
        <time>2005-05-11T17:20:49-07:00</time>
      </trkpt>
      <trkpt lat="33.93533209338784" lon="-116.70175426639616">
        <time>2005-05-11T17:20:52-07:00</time>
      </trkpt>
      <trkpt lat="33.935404093936086" lon="-116.70182056725025">
        <time>2005-05-11T17:20:54-07:00</time>
      </trkpt>
      <trkpt lat="33.93546603620052" lon="-116.70188552699983">
        <time>2005-05-11T17:20:59-07:00</time>
      </trkpt>
      <trkpt lat="33.93552890047431" lon="-116.70195886865258">
        <time>2005-05-11T17:21:04-07:00</time>
      </trkpt>
      <trkpt lat="33.93556955270469" lon="-116.70202600769699">
        <time>2005-05-11T17:21:12-07:00</time>
      </trkpt>
      <trkpt lat="33.935576509684324" lon="-116.70203975401819">
        <time>2005-05-11T17:21:19-07:00</time>
      </trkpt>
      <trkpt lat="33.93559687770903" lon="-116.70208694413304">
        <time>2005-05-11T17:21:27-07:00</time>
      </trkpt>
      <trkpt lat="33.93564507365227" lon="-116.70213036239147">
        <time>2005-05-11T17:21:33-07:00</time>
      </trkpt>
      <trkpt lat="33.935666028410196" lon="-116.70212902128696">
        <time>2005-05-11T17:21:34-07:00</time>
      </trkpt>
      <trkpt lat="33.93569787964225" lon="-116.7021240759641">
        <time>2005-05-11T17:21:38-07:00</time>
      </trkpt>
      <trkpt lat="33.93572000786662" lon="-116.70214192941785">
        <time>2005-05-11T17:21:44-07:00</time>
      </trkpt>
      <trkpt lat="33.935731910169125" lon="-116.70215550810099">
        <time>2005-05-11T17:21:46-07:00</time>
      </trkpt>
      <trkpt lat="33.935760827735066" lon="-116.70216196216643">
        <time>2005-05-11T17:21:49-07:00</time>
      </trkpt>
      <trkpt lat="33.935814974829555" lon="-116.70217419974506">
        <time>2005-05-11T17:21:52-07:00</time>
      </trkpt>
      <trkpt lat="33.935823859646916" lon="-116.70217612758279">
        <time>2005-05-11T17:21:53-07:00</time>
      </trkpt>
      <trkpt lat="33.93588915467262" lon="-116.70214855112135">
        <time>2005-05-11T17:21:55-07:00</time>
      </trkpt>
      <trkpt lat="33.9359749853611" lon="-116.70212944038212">
        <time>2005-05-11T17:22:00-07:00</time>
      </trkpt>
      <trkpt lat="33.936057379469275" lon="-116.70210781507194">
        <time>2005-05-11T17:22:01-07:00</time>
      </trkpt>
      <trkpt lat="33.93612996675074" lon="-116.7021254170686">
        <time>2005-05-11T17:22:06-07:00</time>
      </trkpt>
      <trkpt lat="33.9361959323287" lon="-116.7021478805691">
        <time>2005-05-11T17:22:13-07:00</time>
      </trkpt>
      <trkpt lat="33.93625686876476" lon="-116.70218056999147">
        <time>2005-05-11T17:22:20-07:00</time>
      </trkpt>
      <trkpt lat="33.93632744438946" lon="-116.70219490304589">
        <time>2005-05-11T17:22:26-07:00</time>
      </trkpt>
      <trkpt lat="33.93634831532836" lon="-116.70219708234072">
        <time>2005-05-11T17:22:32-07:00</time>
      </trkpt>
      <trkpt lat="33.936386201530695" lon="-116.70214779675007">
        <time>2005-05-11T17:22:38-07:00</time>
      </trkpt>
      <trkpt lat="33.9363978523761" lon="-116.70212323777378">
        <time>2005-05-11T17:22:44-07:00</time>
      </trkpt>
      <trkpt lat="33.93643925897777" lon="-116.70207898132503">
        <time>2005-05-11T17:22:46-07:00</time>
      </trkpt>
      <trkpt lat="33.936527436599135" lon="-116.70205081813037">
        <time>2005-05-11T17:22:51-07:00</time>
      </trkpt>
      <trkpt lat="33.936606142669916" lon="-116.70206531882286">
        <time>2005-05-11T17:22:53-07:00</time>
      </trkpt>
      <trkpt lat="33.93665375187993" lon="-116.7020463757217">
        <time>2005-05-11T17:22:57-07:00</time>
      </trkpt>
      <trkpt lat="33.93673690035939" lon="-116.7020146921277">
        <time>2005-05-11T17:23:04-07:00</time>
      </trkpt>
      <trkpt lat="33.93677721731365" lon="-116.70199004933238">
        <time>2005-05-11T17:23:10-07:00</time>
      </trkpt>
      <trkpt lat="33.93678853288293" lon="-116.70199155807495">
        <time>2005-05-11T17:23:15-07:00</time>
      </trkpt>
      <trkpt lat="33.93683387897909" lon="-116.70199600048363">
        <time>2005-05-11T17:23:23-07:00</time>
      </trkpt>
      <trkpt lat="33.936847457662225" lon="-116.7019961681217">
        <time>2005-05-11T17:23:28-07:00</time>
      </trkpt>
      <trkpt lat="33.93689808435738" lon="-116.7019819188863">
        <time>2005-05-11T17:23:29-07:00</time>
      </trkpt>
      <trkpt lat="33.93691627308726" lon="-116.70198300853372">
        <time>2005-05-11T17:23:33-07:00</time>
      </trkpt>
      <trkpt lat="33.93693622201681" lon="-116.70197957195342">
        <time>2005-05-11T17:23:34-07:00</time>
      </trkpt>
      <trkpt lat="33.93694921396673" lon="-116.70197697356343">
        <time>2005-05-11T17:23:40-07:00</time>
      </trkpt>
      <trkpt lat="33.93695223145187" lon="-116.701978482306">
        <time>2005-05-11T17:23:42-07:00</time>
      </trkpt>
      <trkpt lat="33.93698274157941" lon="-116.70196205377579">
        <time>2005-05-11T17:23:44-07:00</time>
      </trkpt>
      <trkpt lat="33.93699095584452" lon="-116.70195534825325">
        <time>2005-05-11T17:23:46-07:00</time>
      </trkpt>
      <trkpt lat="33.93702540546656" lon="-116.70191989280283">
        <time>2005-05-11T17:23:47-07:00</time>
      </trkpt>
      <trkpt lat="33.9370680693537" lon="-116.70188988558948">
        <time>2005-05-11T17:23:51-07:00</time>
      </trkpt>
      <trkpt lat="33.937088353559375" lon="-116.70188292860985">
        <time>2005-05-11T17:23:52-07:00</time>
      </trkpt>
      <trkpt lat="33.93713076598942" lon="-116.70184219256043">
        <time>2005-05-11T17:23:57-07:00</time>
      </trkpt>
      <trkpt lat="33.937158761546016" lon="-116.70180891640484">
        <time>2005-05-11T17:24:01-07:00</time>
      </trkpt>
      <trkpt lat="33.93716580234468" lon="-116.70178754255176">
        <time>2005-05-11T17:24:03-07:00</time>
      </trkpt>
      <trkpt lat="33.93716094084084" lon="-116.7017903085798">
        <time>2005-05-11T17:24:09-07:00</time>
      </trkpt>
      <trkpt lat="33.9371629524976" lon="-116.7017905600369">
        <time>2005-05-11T17:24:14-07:00</time>
      </trkpt>
      <trkpt lat="33.93717661499977" lon="-116.70176700688899">
        <time>2005-05-11T17:24:20-07:00</time>
      </trkpt>
      <trkpt lat="33.9371975697577" lon="-116.70175116509199">
        <time>2005-05-11T17:24:28-07:00</time>
      </trkpt>
      <trkpt lat="33.93722196109593" lon="-116.70173205435276">
        <time>2005-05-11T17:24:38-07:00</time>
      </trkpt>
      <trkpt lat="33.93723210319877" lon="-116.701724762097">
        <time>2005-05-11T17:24:42-07:00</time>
      </trkpt>
      <trkpt lat="33.93726781010628" lon="-116.70168553479016">
        <time>2005-05-11T17:24:44-07:00</time>
      </trkpt>
      <trkpt lat="33.93728096969426" lon="-116.70166684314609">
        <time>2005-05-11T17:24:47-07:00</time>
      </trkpt>
      <trkpt lat="33.93729387782514" lon="-116.7016523424536">
        <time>2005-05-11T17:24:49-07:00</time>
      </trkpt>
      <trkpt lat="33.937303852289915" lon="-116.70164119452238">
        <time>2005-05-11T17:24:53-07:00</time>
      </trkpt>
      <trkpt lat="33.93733670935035" lon="-116.70158436521888">
        <time>2005-05-11T17:24:55-07:00</time>
      </trkpt>
      <trkpt lat="33.937344923615456" lon="-116.70156257227063">
        <time>2005-05-11T17:24:57-07:00</time>
      </trkpt>
      <trkpt lat="33.93736520782113" lon="-116.70152921229601">
        <time>2005-05-11T17:24:58-07:00</time>
      </trkpt>
      <trkpt lat="33.937375182285905" lon="-116.70150297693908">
        <time>2005-05-11T17:25:03-07:00</time>
      </trkpt>
      <trkpt lat="33.937383564189076" lon="-116.70149643905461">
        <time>2005-05-11T17:25:05-07:00</time>
      </trkpt>
      <trkpt lat="33.93739580176771" lon="-116.70148462057114">
        <time>2005-05-11T17:25:08-07:00</time>
      </trkpt>
      <trkpt lat="33.9374306704849" lon="-116.70146316289902">
        <time>2005-05-11T17:25:12-07:00</time>
      </trkpt>
      <trkpt lat="33.93746495246887" lon="-116.70143835246563">
        <time>2005-05-11T17:25:13-07:00</time>
      </trkpt>
      <trkpt lat="33.937474340200424" lon="-116.70143365859985">
        <time>2005-05-11T17:25:14-07:00</time>
      </trkpt>
      <trkpt lat="33.937528068199754" lon="-116.70138998888433">
        <time>2005-05-11T17:25:18-07:00</time>
      </trkpt>
      <trkpt lat="33.937551621347666" lon="-116.70136970467865">
        <time>2005-05-11T17:25:22-07:00</time>
      </trkpt>
      <trkpt lat="33.93755824305117" lon="-116.70135889202356">
        <time>2005-05-11T17:25:23-07:00</time>
      </trkpt>
      <trkpt lat="33.93759839236736" lon="-116.70132217928767">
        <time>2005-05-11T17:25:29-07:00</time>
      </trkpt>
      <trkpt lat="33.9376101270318" lon="-116.7013153899461">
        <time>2005-05-11T17:25:32-07:00</time>
      </trkpt>
      <trkpt lat="33.93764222972095" lon="-116.70129359699786">
        <time>2005-05-11T17:25:33-07:00</time>
      </trkpt>
      <trkpt lat="33.93765396438539" lon="-116.70128647238016">
        <time>2005-05-11T17:25:38-07:00</time>
      </trkpt>
      <trkpt lat="33.93767927773297" lon="-116.70125395059586">
        <time>2005-05-11T17:25:39-07:00</time>
      </trkpt>
      <trkpt lat="33.937708446756005" lon="-116.70119552873075">
        <time>2005-05-11T17:25:43-07:00</time>
      </trkpt>
      <trkpt lat="33.93771682865918" lon="-116.70114054344594">
        <time>2005-05-11T17:25:44-07:00</time>
      </trkpt>
      <trkpt lat="33.93774482421577" lon="-116.70104674994946">
        <time>2005-05-11T17:25:48-07:00</time>
      </trkpt>
      <trkpt lat="33.937755301594734" lon="-116.70102872885764">
        <time>2005-05-11T17:25:53-07:00</time>
      </trkpt>
      <trkpt lat="33.93778044730425" lon="-116.70098011381924">
        <time>2005-05-11T17:25:57-07:00</time>
      </trkpt>
      <trkpt lat="33.93781581893563" lon="-116.70091414824128">
        <time>2005-05-11T17:26:04-07:00</time>
      </trkpt>
      <trkpt lat="33.93784406594932" lon="-116.7008489370346">
        <time>2005-05-11T17:26:06-07:00</time>
      </trkpt>
      <trkpt lat="33.937853788957" lon="-116.70080996118486">
        <time>2005-05-11T17:26:10-07:00</time>
      </trkpt>
      <trkpt lat="33.93787424080074" lon="-116.70076880604029">
        <time>2005-05-11T17:26:15-07:00</time>
      </trkpt>
      <trkpt lat="33.937883293256164" lon="-116.70076268725097">
        <time>2005-05-11T17:26:20-07:00</time>
      </trkpt>
      <trkpt lat="33.93791489303112" lon="-116.70071859844029">
        <time>2005-05-11T17:26:23-07:00</time>
      </trkpt>
      <trkpt lat="33.937943475320935" lon="-116.70066453516483">
        <time>2005-05-11T17:26:27-07:00</time>
      </trkpt>
      <trkpt lat="33.93796166405082" lon="-116.70061742886901">
        <time>2005-05-11T17:26:28-07:00</time>
      </trkpt>
      <trkpt lat="33.937968453392386" lon="-116.70060594566166">
        <time>2005-05-11T17:26:32-07:00</time>
      </trkpt>
      <trkpt lat="33.93798052333295" lon="-116.70058549381793">
        <time>2005-05-11T17:26:37-07:00</time>
      </trkpt>
      <trkpt lat="33.937998125329614" lon="-116.70054609887302">
        <time>2005-05-11T17:26:41-07:00</time>
      </trkpt>
      <trkpt lat="33.938009943813086" lon="-116.70052036643028">
        <time>2005-05-11T17:26:42-07:00</time>
      </trkpt>
      <trkpt lat="33.93801656551659" lon="-116.70050695538521">
        <time>2005-05-11T17:26:44-07:00</time>
      </trkpt>
      <trkpt lat="33.93805721774697" lon="-116.70041651464999">
        <time>2005-05-11T17:26:47-07:00</time>
      </trkpt>
      <trkpt lat="33.93808881752193" lon="-116.70033286325634">
        <time>2005-05-11T17:26:50-07:00</time>
      </trkpt>
      <trkpt lat="33.938113963231444" lon="-116.70027687214315">
        <time>2005-05-11T17:26:51-07:00</time>
      </trkpt>
      <trkpt lat="33.938155034556985" lon="-116.70021987520158">
        <time>2005-05-11T17:26:58-07:00</time>
      </trkpt>
      <trkpt lat="33.93815444782376" lon="-116.70019187964499">
        <time>2005-05-11T17:27:04-07:00</time>
      </trkpt>
      <trkpt lat="33.938159979879856" lon="-116.70015298761427">
        <time>2005-05-11T17:27:09-07:00</time>
      </trkpt>
      <trkpt lat="33.938197111710906" lon="-116.7000793106854">
        <time>2005-05-11T17:27:16-07:00</time>
      </trkpt>
      <trkpt lat="33.93822862766683" lon="-116.70000412501395">
        <time>2005-05-11T17:27:18-07:00</time>
      </trkpt>
      <trkpt lat="33.9382665976882" lon="-116.69993011280894">
        <time>2005-05-11T17:27:21-07:00</time>
      </trkpt>
      <trkpt lat="33.938290821388364" lon="-116.69986934401095">
        <time>2005-05-11T17:27:27-07:00</time>
      </trkpt>
      <trkpt lat="33.9383371733129" lon="-116.69978854246438">
        <time>2005-05-11T17:27:33-07:00</time>
      </trkpt>
      <trkpt lat="33.93837992101908" lon="-116.69971654191613">
        <time>2005-05-11T17:27:39-07:00</time>
      </trkpt>
      <trkpt lat="33.93841344863176" lon="-116.69964755885303">
        <time>2005-05-11T17:27:44-07:00</time>
      </trkpt>
      <trkpt lat="33.93841654993594" lon="-116.69963674619794">
        <time>2005-05-11T17:27:50-07:00</time>
      </trkpt>
      <trkpt lat="33.93844471313059" lon="-116.69961461797357">
        <time>2005-05-11T17:27:57-07:00</time>
      </trkpt>
      <trkpt lat="33.93847329542041" lon="-116.69955862686038">
        <time>2005-05-11T17:28:03-07:00</time>
      </trkpt>
      <trkpt lat="33.93847966566682" lon="-116.69954831711948">
        <time>2005-05-11T17:28:04-07:00</time>
      </trkpt>
      <trkpt lat="33.938497100025415" lon="-116.69946332462132">
        <time>2005-05-11T17:28:07-07:00</time>
      </trkpt>
      <trkpt lat="33.938518641516566" lon="-116.69942594133317">
        <time>2005-05-11T17:28:12-07:00</time>
      </trkpt>
      <trkpt lat="33.93852995708585" lon="-116.69942082837224">
        <time>2005-05-11T17:28:13-07:00</time>
      </trkpt>
      <trkpt lat="33.938564071431756" lon="-116.69941563159227">
        <time>2005-05-11T17:28:19-07:00</time>
      </trkpt>
      <trkpt lat="33.93859944306314" lon="-116.69940548948944">
        <time>2005-05-11T17:28:22-07:00</time>
      </trkpt>
      <trkpt lat="33.93864353187382" lon="-116.69940171763301">
        <time>2005-05-11T17:28:23-07:00</time>
      </trkpt>
      <trkpt lat="33.938690051436424" lon="-116.69940079562366">
        <time>2005-05-11T17:28:26-07:00</time>
      </trkpt>
      <trkpt lat="33.93873397260904" lon="-116.69939752668142">
        <time>2005-05-11T17:28:29-07:00</time>
      </trkpt>
      <trkpt lat="33.93877185881138" lon="-116.69940389692783">
        <time>2005-05-11T17:28:32-07:00</time>
      </trkpt>
      <trkpt lat="33.93877915106714" lon="-116.6994022205472">
        <time>2005-05-11T17:28:36-07:00</time>
      </trkpt>
      <trkpt lat="33.938848888501525" lon="-116.69939367100596">
        <time>2005-05-11T17:28:40-07:00</time>
      </trkpt>
      <trkpt lat="33.93885936588049" lon="-116.69939467683434">
        <time>2005-05-11T17:28:43-07:00</time>
      </trkpt>
      <trkpt lat="33.93890714272857" lon="-116.69938704930246">
        <time>2005-05-11T17:28:44-07:00</time>
      </trkpt>
      <trkpt lat="33.93894620239735" lon="-116.6993744764477">
        <time>2005-05-11T17:28:49-07:00</time>
      </trkpt>
      <trkpt lat="33.938964139670134" lon="-116.69935343787074">
        <time>2005-05-11T17:28:50-07:00</time>
      </trkpt>
      <trkpt lat="33.93901476636529" lon="-116.69927875511348">
        <time>2005-05-11T17:28:54-07:00</time>
      </trkpt>
      <trkpt lat="33.939027171581984" lon="-116.699248412624">
        <time>2005-05-11T17:28:57-07:00</time>
      </trkpt>
      <trkpt lat="33.93904502503574" lon="-116.69919124804437">
        <time>2005-05-11T17:28:59-07:00</time>
      </trkpt>
      <trkpt lat="33.93907042220235" lon="-116.69913114979863">
        <time>2005-05-11T17:29:05-07:00</time>
      </trkpt>
      <trkpt lat="33.93911392427981" lon="-116.69906158000231">
        <time>2005-05-11T17:29:07-07:00</time>
      </trkpt>
      <trkpt lat="33.93915994092822" lon="-116.69902360998094">
        <time>2005-05-11T17:29:11-07:00</time>
      </trkpt>
      <trkpt lat="33.93919422291219" lon="-116.69897231273353">
        <time>2005-05-11T17:29:15-07:00</time>
      </trkpt>
      <trkpt lat="33.939228085801005" lon="-116.69891648925841">
        <time>2005-05-11T17:29:21-07:00</time>
      </trkpt>
      <trkpt lat="33.93926194868982" lon="-116.69886167161167">
        <time>2005-05-11T17:29:26-07:00</time>
      </trkpt>
      <trkpt lat="33.93928240053356" lon="-116.69880132190883">
        <time>2005-05-11T17:29:31-07:00</time>
      </trkpt>
      <trkpt lat="33.93933176994324" lon="-116.6987047623843">
        <time>2005-05-11T17:29:37-07:00</time>
      </trkpt>
      <trkpt lat="33.93935389816761" lon="-116.69865631498396">
        <time>2005-05-11T17:29:41-07:00</time>
      </trkpt>
      <trkpt lat="33.93939337693155" lon="-116.6985699813813">
        <time>2005-05-11T17:29:46-07:00</time>
      </trkpt>
      <trkpt lat="33.939443500712514" lon="-116.69850585982203">
        <time>2005-05-11T17:29:54-07:00</time>
      </trkpt>
      <trkpt lat="33.939463114365935" lon="-116.69843930751085">
        <time>2005-05-11T17:29:58-07:00</time>
      </trkpt>
      <trkpt lat="33.93949312157929" lon="-116.69834065251052">
        <time>2005-05-11T17:30:05-07:00</time>
      </trkpt>
      <trkpt lat="33.93950343132019" lon="-116.69831466861069">
        <time>2005-05-11T17:30:11-07:00</time>
      </trkpt>
      <trkpt lat="33.939530588686466" lon="-116.69827552512288">
        <time>2005-05-11T17:30:16-07:00</time>
      </trkpt>
      <trkpt lat="33.93956545740366" lon="-116.69821836054325">
        <time>2005-05-11T17:30:23-07:00</time>
      </trkpt>
      <trkpt lat="33.93961926922202" lon="-116.69815801084042">
        <time>2005-05-11T17:30:26-07:00</time>
      </trkpt>
      <trkpt lat="33.9396498631686" lon="-116.69810411520302">
        <time>2005-05-11T17:30:29-07:00</time>
      </trkpt>
      <trkpt lat="33.93968665972352" lon="-116.69803052209318">
        <time>2005-05-11T17:30:34-07:00</time>
      </trkpt>
      <trkpt lat="33.93971440382302" lon="-116.69796857982874">
        <time>2005-05-11T17:30:40-07:00</time>
      </trkpt>
      <trkpt lat="33.93975648097694" lon="-116.69788526371121">
        <time>2005-05-11T17:30:45-07:00</time>
      </trkpt>
      <trkpt lat="33.939761929214" lon="-116.69787788763642">
        <time>2005-05-11T17:30:51-07:00</time>
      </trkpt>
      <trkpt lat="33.939784057438374" lon="-116.69784075580537">
        <time>2005-05-11T17:30:56-07:00</time>
      </trkpt>
      <trkpt lat="33.939816327765584" lon="-116.69777831062675">
        <time>2005-05-11T17:31:03-07:00</time>
      </trkpt>
      <trkpt lat="33.93984256312251" lon="-116.69771393761039">
        <time>2005-05-11T17:31:04-07:00</time>
      </trkpt>
      <trkpt lat="33.9398602489382" lon="-116.69768426567316">
        <time>2005-05-11T17:31:08-07:00</time>
      </trkpt>
      <trkpt lat="33.93988262861967" lon="-116.69764587655663">
        <time>2005-05-11T17:31:13-07:00</time>
      </trkpt>
      <trkpt lat="33.939939541742206" lon="-116.69758653268218">
        <time>2005-05-11T17:31:18-07:00</time>
      </trkpt>
      <trkpt lat="33.94000584259629" lon="-116.69753255322576">
        <time>2005-05-11T17:31:20-07:00</time>
      </trkpt>
      <trkpt lat="33.94001103937626" lon="-116.69752207584679">
        <time>2005-05-11T17:31:24-07:00</time>
      </trkpt>
      <trkpt lat="33.94000324420631" lon="-116.69751193374395">
        <time>2005-05-11T17:31:31-07:00</time>
      </trkpt>
      <trkpt lat="33.940003076568246" lon="-116.69747714884579">
        <time>2005-05-11T17:31:37-07:00</time>
      </trkpt>
      <trkpt lat="33.940025959163904" lon="-116.69742660596967">
        <time>2005-05-11T17:31:38-07:00</time>
      </trkpt>
      <trkpt lat="33.94003325141966" lon="-116.69739928096533">
        <time>2005-05-11T17:31:39-07:00</time>
      </trkpt>
      <trkpt lat="33.94004037603736" lon="-116.69734697788954">
        <time>2005-05-11T17:31:42-07:00</time>
      </trkpt>
      <trkpt lat="33.94005496054888" lon="-116.69732292182744">
        <time>2005-05-11T17:31:47-07:00</time>
      </trkpt>
      <trkpt lat="33.9400642644614" lon="-116.69731361791492">
        <time>2005-05-11T17:31:49-07:00</time>
      </trkpt>
      <trkpt lat="33.940085135400295" lon="-116.69728755019605">
        <time>2005-05-11T17:31:54-07:00</time>
      </trkpt>
      <trkpt lat="33.94009024836123" lon="-116.69727019965649">
        <time>2005-05-11T17:31:58-07:00</time>
      </trkpt>
      <trkpt lat="33.940117405727506" lon="-116.69725025072694">
        <time>2005-05-11T17:31:59-07:00</time>
      </trkpt>
      <trkpt lat="33.94012461416423" lon="-116.69724077917635">
        <time>2005-05-11T17:32:02-07:00</time>
      </trkpt>
      <trkpt lat="33.94013609737158" lon="-116.69719400815666">
        <time>2005-05-11T17:32:05-07:00</time>
      </trkpt>
      <trkpt lat="33.94014950841665" lon="-116.6971555352211">
        <time>2005-05-11T17:32:08-07:00</time>
      </trkpt>
      <trkpt lat="33.940162751823664" lon="-116.69713818468153">
        <time>2005-05-11T17:32:09-07:00</time>
      </trkpt>
      <trkpt lat="33.94017046317458" lon="-116.69712619856">
        <time>2005-05-11T17:32:14-07:00</time>
      </trkpt>
      <trkpt lat="33.940211618319154" lon="-116.69705126434565">
        <time>2005-05-11T17:32:18-07:00</time>
      </trkpt>
      <trkpt lat="33.940236596390605" lon="-116.69698806479573">
        <time>2005-05-11T17:32:20-07:00</time>
      </trkpt>
      <trkpt lat="33.94027087837458" lon="-116.69691782444715">
        <time>2005-05-11T17:32:21-07:00</time>
      </trkpt>
      <trkpt lat="33.94032318145037" lon="-116.69683014973998">
        <time>2005-05-11T17:32:27-07:00</time>
      </trkpt>
      <trkpt lat="33.94035754725337" lon="-116.69677969068289">
        <time>2005-05-11T17:32:32-07:00</time>
      </trkpt>
      <trkpt lat="33.940390571951866" lon="-116.69674021191895">
        <time>2005-05-11T17:32:38-07:00</time>
      </trkpt>
      <trkpt lat="33.94040825776756" lon="-116.6967223584652">
        <time>2005-05-11T17:32:45-07:00</time>
      </trkpt>
      <trkpt lat="33.94041169434786" lon="-116.69673199765384">
        <time>2005-05-11T17:32:50-07:00</time>
      </trkpt>
      <trkpt lat="33.940413957461715" lon="-116.69672998599708">
        <time>2005-05-11T17:32:55-07:00</time>
      </trkpt>
      <trkpt lat="33.940432481467724" lon="-116.69669738039374">
        <time>2005-05-11T17:32:57-07:00</time>
      </trkpt>
      <trkpt lat="33.94044270738959" lon="-116.69666695408523">
        <time>2005-05-11T17:32:59-07:00</time>
      </trkpt>
      <trkpt lat="33.94044295884669" lon="-116.69666309840977">
        <time>2005-05-11T17:33:01-07:00</time>
      </trkpt>
      <trkpt lat="33.94044890999794" lon="-116.69662655331194">
        <time>2005-05-11T17:33:05-07:00</time>
      </trkpt>
      <trkpt lat="33.94047715701163" lon="-116.69652261771262">
        <time>2005-05-11T17:33:09-07:00</time>
      </trkpt>
      <trkpt lat="33.94049190916121" lon="-116.69648305512965">
        <time>2005-05-11T17:33:10-07:00</time>
      </trkpt>
      <trkpt lat="33.9404908195138" lon="-116.69648456387222">
        <time>2005-05-11T17:33:16-07:00</time>
      </trkpt>
      <trkpt lat="33.940491238608956" lon="-116.69648389331996">
        <time>2005-05-11T17:33:25-07:00</time>
      </trkpt>
      <trkpt lat="33.940508253872395" lon="-116.69645237736404">
        <time>2005-05-11T17:33:30-07:00</time>
      </trkpt>
      <trkpt lat="33.940538093447685" lon="-116.69638372957706">
        <time>2005-05-11T17:33:33-07:00</time>
      </trkpt>
      <trkpt lat="33.940563909709454" lon="-116.69630309566855">
        <time>2005-05-11T17:33:37-07:00</time>
      </trkpt>
      <trkpt lat="33.94056910648942" lon="-116.6962921153754">
        <time>2005-05-11T17:33:41-07:00</time>
      </trkpt>
      <trkpt lat="33.940599700435996" lon="-116.69622707180679">
        <time>2005-05-11T17:33:47-07:00</time>
      </trkpt>
      <trkpt lat="33.94061713479459" lon="-116.69618558138609">
        <time>2005-05-11T17:33:54-07:00</time>
      </trkpt>
      <trkpt lat="33.94063943065703" lon="-116.69615951366723">
        <time>2005-05-11T17:33:55-07:00</time>
      </trkpt>
      <trkpt lat="33.94069232046604" lon="-116.69611752033234">
        <time>2005-05-11T17:34:01-07:00</time>
      </trkpt>
      <trkpt lat="33.9406996127218" lon="-116.69610226526856">
        <time>2005-05-11T17:34:05-07:00</time>
      </trkpt>
      <trkpt lat="33.94070103764534" lon="-116.69608114287257">
        <time>2005-05-11T17:34:07-07:00</time>
      </trkpt>
      <trkpt lat="33.94068921916187" lon="-116.69602221809328">
        <time>2005-05-11T17:34:12-07:00</time>
      </trkpt>
      <trkpt lat="33.94068947061896" lon="-116.69600310735404">
        <time>2005-05-11T17:34:13-07:00</time>
      </trkpt>
      <trkpt lat="33.94067455083132" lon="-116.69595298357308">
        <time>2005-05-11T17:34:14-07:00</time>
      </trkpt>
      <trkpt lat="33.94068628549576" lon="-116.69586933217943">
        <time>2005-05-11T17:34:19-07:00</time>
      </trkpt>
      <trkpt lat="33.94069500267506" lon="-116.69586136937141">
        <time>2005-05-11T17:34:20-07:00</time>
      </trkpt>
      <trkpt lat="33.94072266295552" lon="-116.69582046568394">
        <time>2005-05-11T17:34:23-07:00</time>
      </trkpt>
      <trkpt lat="33.94072777591646" lon="-116.69580931775272">
        <time>2005-05-11T17:34:29-07:00</time>
      </trkpt>
      <trkpt lat="33.94073531962931" lon="-116.69578593224287">
        <time>2005-05-11T17:34:30-07:00</time>
      </trkpt>
      <trkpt lat="33.94074806012213" lon="-116.69575718231499">
        <time>2005-05-11T17:34:34-07:00</time>
      </trkpt>
      <trkpt lat="33.940747641026974" lon="-116.69574226252735">
        <time>2005-05-11T17:34:35-07:00</time>
      </trkpt>
      <trkpt lat="33.94073540344834" lon="-116.69570387341082">
        <time>2005-05-11T17:34:37-07:00</time>
      </trkpt>
      <trkpt lat="33.940756022930145" lon="-116.69565852731466">
        <time>2005-05-11T17:34:41-07:00</time>
      </trkpt>
      <trkpt lat="33.94076121971011" lon="-116.69565349817276">
        <time>2005-05-11T17:34:42-07:00</time>
      </trkpt>
      <trkpt lat="33.94076314754784" lon="-116.6956427693367">
        <time>2005-05-11T17:34:46-07:00</time>
      </trkpt>
      <trkpt lat="33.940758872777224" lon="-116.69561125338078">
        <time>2005-05-11T17:34:50-07:00</time>
      </trkpt>
      <trkpt lat="33.94075619056821" lon="-116.69557588174939">
        <time>2005-05-11T17:34:51-07:00</time>
      </trkpt>
      <trkpt lat="33.94075577147305" lon="-116.69556423090398">
        <time>2005-05-11T17:34:52-07:00</time>
      </trkpt>
      <trkpt lat="33.9407617226243" lon="-116.69554227031767">
        <time>2005-05-11T17:34:54-07:00</time>
      </trkpt>
      <trkpt lat="33.940753592178226" lon="-116.69551888480783">
        <time>2005-05-11T17:34:56-07:00</time>
      </trkpt>
      <trkpt lat="33.940738420933485" lon="-116.69548175297678">
        <time>2005-05-11T17:34:57-07:00</time>
      </trkpt>
      <trkpt lat="33.94073121249676" lon="-116.6954252589494">
        <time>2005-05-11T17:34:59-07:00</time>
      </trkpt>
      <trkpt lat="33.94073037430644" lon="-116.69542056508362">
        <time>2005-05-11T17:35:01-07:00</time>
      </trkpt>
      <trkpt lat="33.94070187583566" lon="-116.6953631490469">
        <time>2005-05-11T17:35:03-07:00</time>
      </trkpt>
      <trkpt lat="33.940697852522135" lon="-116.69530170969665">
        <time>2005-05-11T17:35:07-07:00</time>
      </trkpt>
      <trkpt lat="33.94070095382631" lon="-116.69529240578413">
        <time>2005-05-11T17:35:08-07:00</time>
      </trkpt>
      <trkpt lat="33.94069919362664" lon="-116.69521152041852">
        <time>2005-05-11T17:35:12-07:00</time>
      </trkpt>
      <trkpt lat="33.94071226939559" lon="-116.6951607260853">
        <time>2005-05-11T17:35:16-07:00</time>
      </trkpt>
      <trkpt lat="33.940694499760866" lon="-116.69508721679449">
        <time>2005-05-11T17:35:17-07:00</time>
      </trkpt>
      <trkpt lat="33.94068293273449" lon="-116.69500381685793">
        <time>2005-05-11T17:35:22-07:00</time>
      </trkpt>
      <trkpt lat="33.94068008288741" lon="-116.69496718794107">
        <time>2005-05-11T17:35:27-07:00</time>
      </trkpt>
      <trkpt lat="33.94067220389843" lon="-116.69491815380752">
        <time>2005-05-11T17:35:32-07:00</time>
      </trkpt>
      <trkpt lat="33.94069374538958" lon="-116.69488261453807">
        <time>2005-05-11T17:35:38-07:00</time>
      </trkpt>
      <trkpt lat="33.94069910980761" lon="-116.69487901031971">
        <time>2005-05-11T17:35:41-07:00</time>
      </trkpt>
      <trkpt lat="33.94070724025369" lon="-116.69487909413874">
        <time>2005-05-11T17:35:44-07:00</time>
      </trkpt>
      <trkpt lat="33.94075820222497" lon="-116.69485956430435">
        <time>2005-05-11T17:35:48-07:00</time>
      </trkpt>
      <trkpt lat="33.94079206511378" lon="-116.6948258690536">
        <time>2005-05-11T17:35:49-07:00</time>
      </trkpt>
      <trkpt lat="33.94086238928139" lon="-116.6948086861521">
        <time>2005-05-11T17:35:50-07:00</time>
      </trkpt>
      <trkpt lat="33.9409171231091" lon="-116.69479711912572">
        <time>2005-05-11T17:35:54-07:00</time>
      </trkpt>
      <trkpt lat="33.94098585471511" lon="-116.69476954266429">
        <time>2005-05-11T17:35:59-07:00</time>
      </trkpt>
      <trkpt lat="33.9410051330924" lon="-116.69477490708232">
        <time>2005-05-11T17:36:06-07:00</time>
      </trkpt>
      <trkpt lat="33.94103245809674" lon="-116.69476652517915">
        <time>2005-05-11T17:36:11-07:00</time>
      </trkpt>
      <trkpt lat="33.94107076339424" lon="-116.69473509304225">
        <time>2005-05-11T17:36:17-07:00</time>
      </trkpt>
      <trkpt lat="33.941103955730796" lon="-116.69471925124526">
        <time>2005-05-11T17:36:19-07:00</time>
      </trkpt>
      <trkpt lat="33.94115877337754" lon="-116.6947034932673">
        <time>2005-05-11T17:36:22-07:00</time>
      </trkpt>
      <trkpt lat="33.941164053976536" lon="-116.69470248743892">
        <time>2005-05-11T17:36:26-07:00</time>
      </trkpt>
      <trkpt lat="33.94122046418488" lon="-116.69469703920186">
        <time>2005-05-11T17:36:30-07:00</time>
      </trkpt>
      <trkpt lat="33.94125130958855" lon="-116.69468798674643">
        <time>2005-05-11T17:36:37-07:00</time>
      </trkpt>
      <trkpt lat="33.94130294211209" lon="-116.6946757491678">
        <time>2005-05-11T17:36:38-07:00</time>
      </trkpt>
      <trkpt lat="33.9413246512413" lon="-116.6946564707905">
        <time>2005-05-11T17:36:45-07:00</time>
      </trkpt>
      <trkpt lat="33.94134066067636" lon="-116.69465395621955">
        <time>2005-05-11T17:36:52-07:00</time>
      </trkpt>
      <trkpt lat="33.9413698296994" lon="-116.69464834034443">
        <time>2005-05-11T17:36:58-07:00</time>
      </trkpt>
      <trkpt lat="33.941401932388544" lon="-116.69462176971138">
        <time>2005-05-11T17:37:01-07:00</time>
      </trkpt>
      <trkpt lat="33.94143805839121" lon="-116.694594360888">
        <time>2005-05-11T17:37:03-07:00</time>
      </trkpt>
      <trkpt lat="33.941471334546804" lon="-116.6945845540613">
        <time>2005-05-11T17:37:06-07:00</time>
      </trkpt>
      <trkpt lat="33.94148415885866" lon="-116.69457457959652">
        <time>2005-05-11T17:37:09-07:00</time>
      </trkpt>
      <trkpt lat="33.94152305088937" lon="-116.69455697759986">
        <time>2005-05-11T17:37:13-07:00</time>
      </trkpt>
      <trkpt lat="33.941562697291374" lon="-116.69453795067966">
        <time>2005-05-11T17:37:16-07:00</time>
      </trkpt>
      <trkpt lat="33.94158138893545" lon="-116.69452428817749">
        <time>2005-05-11T17:37:18-07:00</time>
      </trkpt>
      <trkpt lat="33.94162908196449" lon="-116.69451121240854">
        <time>2005-05-11T17:37:22-07:00</time>
      </trkpt>
      <trkpt lat="33.941681049764156" lon="-116.69447843916714">
        <time>2005-05-11T17:37:26-07:00</time>
      </trkpt>
      <trkpt lat="33.94171063788235" lon="-116.69445815496147">
        <time>2005-05-11T17:37:28-07:00</time>
      </trkpt>
      <trkpt lat="33.94172622822225" lon="-116.69444642029703">
        <time>2005-05-11T17:37:33-07:00</time>
      </trkpt>
      <trkpt lat="33.94178221933544" lon="-116.6944257169962">
        <time>2005-05-11T17:37:38-07:00</time>
      </trkpt>
      <trkpt lat="33.94184064120054" lon="-116.69438162818551">
        <time>2005-05-11T17:37:41-07:00</time>
      </trkpt>
      <trkpt lat="33.94187710247934" lon="-116.69436167925596">
        <time>2005-05-11T17:37:43-07:00</time>
      </trkpt>
      <trkpt lat="33.94190811552107" lon="-116.69435329735279">
        <time>2005-05-11T17:37:48-07:00</time>
      </trkpt>
      <trkpt lat="33.941952204331756" lon="-116.6943305823952">
        <time>2005-05-11T17:37:54-07:00</time>
      </trkpt>
      <trkpt lat="33.94200090318918" lon="-116.6943165846169">
        <time>2005-05-11T17:37:58-07:00</time>
      </trkpt>
      <trkpt lat="33.942039627581835" lon="-116.69429462403059">
        <time>2005-05-11T17:38:01-07:00</time>
      </trkpt>
      <trkpt lat="33.94205446355045" lon="-116.6942835599184">
        <time>2005-05-11T17:38:06-07:00</time>
      </trkpt>
      <trkpt lat="33.94209863618016" lon="-116.69426922686398">
        <time>2005-05-11T17:38:11-07:00</time>
      </trkpt>
      <trkpt lat="33.9421138074249" lon="-116.69426419772208">
        <time>2005-05-11T17:38:15-07:00</time>
      </trkpt>
      <trkpt lat="33.94216351211071" lon="-116.69425623491406">
        <time>2005-05-11T17:38:17-07:00</time>
      </trkpt>
      <trkpt lat="33.94221564754844" lon="-116.69424240477383">
        <time>2005-05-11T17:38:22-07:00</time>
      </trkpt>
      <trkpt lat="33.94223039969802" lon="-116.6942367888987">
        <time>2005-05-11T17:38:24-07:00</time>
      </trkpt>
      <trkpt lat="33.94224984571338" lon="-116.69423284940422">
        <time>2005-05-11T17:38:28-07:00</time>
      </trkpt>
      <trkpt lat="33.9423072617501" lon="-116.6942143253982">
        <time>2005-05-11T17:38:33-07:00</time>
      </trkpt>
      <trkpt lat="33.94233400002122" lon="-116.69421222992241">
        <time>2005-05-11T17:38:35-07:00</time>
      </trkpt>
      <trkpt lat="33.94235352985561" lon="-116.69420527294278">
        <time>2005-05-11T17:38:37-07:00</time>
      </trkpt>
      <trkpt lat="33.94241848960519" lon="-116.69417736120522">
        <time>2005-05-11T17:38:42-07:00</time>
      </trkpt>
      <trkpt lat="33.94242385402322" lon="-116.69417224824429">
        <time>2005-05-11T17:38:45-07:00</time>
      </trkpt>
      <trkpt lat="33.942453442141414" lon="-116.6941630281508">
        <time>2005-05-11T17:38:48-07:00</time>
      </trkpt>
      <trkpt lat="33.94250809215009" lon="-116.69416286051273">
        <time>2005-05-11T17:38:54-07:00</time>
      </trkpt>
      <trkpt lat="33.942573722451925" lon="-116.69413276948035">
        <time>2005-05-11T17:38:55-07:00</time>
      </trkpt>
      <trkpt lat="33.94259626977146" lon="-116.69412774033844">
        <time>2005-05-11T17:38:58-07:00</time>
      </trkpt>
      <trkpt lat="33.942625019699335" lon="-116.69410586357117">
        <time>2005-05-11T17:39:03-07:00</time>
      </trkpt>
      <trkpt lat="33.94266181625426" lon="-116.69404962100089">
        <time>2005-05-11T17:39:10-07:00</time>
      </trkpt>
      <trkpt lat="33.94269383512437" lon="-116.69403721578419">
        <time>2005-05-11T17:39:12-07:00</time>
      </trkpt>
      <trkpt lat="33.942723758518696" lon="-116.69402564875782">
        <time>2005-05-11T17:39:15-07:00</time>
      </trkpt>
      <trkpt lat="33.94275921396911" lon="-116.69402380473912">
        <time>2005-05-11T17:39:20-07:00</time>
      </trkpt>
      <trkpt lat="33.94280028529465" lon="-116.69401743449271">
        <time>2005-05-11T17:39:24-07:00</time>
      </trkpt>
      <trkpt lat="33.942831214517355" lon="-116.69397410005331">
        <time>2005-05-11T17:39:26-07:00</time>
      </trkpt>
      <trkpt lat="33.942848816514015" lon="-116.69395599514246">
        <time>2005-05-11T17:39:30-07:00</time>
      </trkpt>
      <trkpt lat="33.942870860919356" lon="-116.69394434429705">
        <time>2005-05-11T17:39:34-07:00</time>
      </trkpt>
      <trkpt lat="33.94289726391435" lon="-116.69393084943295">
        <time>2005-05-11T17:39:39-07:00</time>
      </trkpt>
      <trkpt lat="33.94290195778012" lon="-116.69391542673111">
        <time>2005-05-11T17:39:41-07:00</time>
      </trkpt>
      <trkpt lat="33.94291025586426" lon="-116.69388458132744">
        <time>2005-05-11T17:39:43-07:00</time>
      </trkpt>
      <trkpt lat="33.942936826497316" lon="-116.6938091441989">
        <time>2005-05-11T17:39:47-07:00</time>
      </trkpt>
      <trkpt lat="33.94294529221952" lon="-116.69373773038387">
        <time>2005-05-11T17:39:48-07:00</time>
      </trkpt>
      <trkpt lat="33.94298627972603" lon="-116.69367033988237">
        <time>2005-05-11T17:39:51-07:00</time>
      </trkpt>
      <trkpt lat="33.94302626140416" lon="-116.69358761049807">
        <time>2005-05-11T17:39:57-07:00</time>
      </trkpt>
      <trkpt lat="33.943072110414505" lon="-116.69352700933814">
        <time>2005-05-11T17:40:02-07:00</time>
      </trkpt>
      <trkpt lat="33.94308443181217" lon="-116.69351745396852">
        <time>2005-05-11T17:40:08-07:00</time>
      </trkpt>
      <trkpt lat="33.943148385733366" lon="-116.69346406124532">
        <time>2005-05-11T17:40:14-07:00</time>
      </trkpt>
      <trkpt lat="33.94323346205056" lon="-116.69342248700559">
        <time>2005-05-11T17:40:20-07:00</time>
      </trkpt>
      <trkpt lat="33.943288112059236" lon="-116.69337948784232">
        <time>2005-05-11T17:40:21-07:00</time>
      </trkpt>
      <trkpt lat="33.943345779553056" lon="-116.69337973929942">
        <time>2005-05-11T17:40:28-07:00</time>
      </trkpt>
      <trkpt lat="33.94338550977409" lon="-116.69338082894683">
        <time>2005-05-11T17:40:35-07:00</time>
      </trkpt>
      <trkpt lat="33.94342842511833" lon="-116.69337512925267">
        <time>2005-05-11T17:40:41-07:00</time>
      </trkpt>
      <trkpt lat="33.94344217143953" lon="-116.69337739236653">
        <time>2005-05-11T17:40:46-07:00</time>
      </trkpt>
      <trkpt lat="33.94349757581949" lon="-116.69338149949908">
        <time>2005-05-11T17:40:50-07:00</time>
      </trkpt>
      <trkpt lat="33.943549040704966" lon="-116.69337328523397">
        <time>2005-05-11T17:40:53-07:00</time>
      </trkpt>
      <trkpt lat="33.94357267767191" lon="-116.69337663799524">
        <time>2005-05-11T17:40:54-07:00</time>
      </trkpt>
      <trkpt lat="33.94359329715371" lon="-116.6933889593929">
        <time>2005-05-11T17:40:59-07:00</time>
      </trkpt>
      <trkpt lat="33.943611569702625" lon="-116.69340656138957">
        <time>2005-05-11T17:41:04-07:00</time>
      </trkpt>
      <trkpt lat="33.943651132285595" lon="-116.69341309927404">
        <time>2005-05-11T17:41:06-07:00</time>
      </trkpt>
      <trkpt lat="33.943704860284925" lon="-116.69344620779157">
        <time>2005-05-11T17:41:08-07:00</time>
      </trkpt>
      <trkpt lat="33.94373092800379" lon="-116.69345375150442">
        <time>2005-05-11T17:41:10-07:00</time>
      </trkpt>
      <trkpt lat="33.943796306848526" lon="-116.69345182366669">
        <time>2005-05-11T17:41:14-07:00</time>
      </trkpt>
      <trkpt lat="33.94381516613066" lon="-116.69345593079925">
        <time>2005-05-11T17:41:19-07:00</time>
      </trkpt>
      <trkpt lat="33.94382480531931" lon="-116.6934602893889">
        <time>2005-05-11T17:41:22-07:00</time>
      </trkpt>
      <trkpt lat="33.9438615180552" lon="-116.6934822499752">
        <time>2005-05-11T17:41:27-07:00</time>
      </trkpt>
      <trkpt lat="33.94392312504351" lon="-116.6935015283525">
        <time>2005-05-11T17:41:29-07:00</time>
      </trkpt>
      <trkpt lat="33.943974087014794" lon="-116.69352315366268">
        <time>2005-05-11T17:41:30-07:00</time>
      </trkpt>
      <trkpt lat="33.943977272138" lon="-116.69352415949106">
        <time>2005-05-11T17:41:34-07:00</time>
      </trkpt>
      <trkpt lat="33.943988755345345" lon="-116.69352759607136">
        <time>2005-05-11T17:41:40-07:00</time>
      </trkpt>
      <trkpt lat="33.944007866084576" lon="-116.69353622943163">
        <time>2005-05-11T17:41:48-07:00</time>
      </trkpt>
      <trkpt lat="33.944067461416125" lon="-116.69355383142829">
        <time>2005-05-11T17:41:49-07:00</time>
      </trkpt>
      <trkpt lat="33.94412982277572" lon="-116.69356087222695">
        <time>2005-05-11T17:41:50-07:00</time>
      </trkpt>
      <trkpt lat="33.944141222164035" lon="-116.69355961494148">
        <time>2005-05-11T17:41:52-07:00</time>
      </trkpt>
      <trkpt lat="33.94419419579208" lon="-116.69354218058288">
        <time>2005-05-11T17:41:58-07:00</time>
      </trkpt>
      <trkpt lat="33.94422604702413" lon="-116.69352600350976">
        <time>2005-05-11T17:42:04-07:00</time>
      </trkpt>
      <trkpt lat="33.94422931596637" lon="-116.69352072291076">
        <time>2005-05-11T17:42:05-07:00</time>
      </trkpt>
      <trkpt lat="33.94428187049925" lon="-116.69348535127938">
        <time>2005-05-11T17:42:10-07:00</time>
      </trkpt>
      <trkpt lat="33.94434431567788" lon="-116.69347470626235">
        <time>2005-05-11T17:42:15-07:00</time>
      </trkpt>
      <trkpt lat="33.944367030635476" lon="-116.69346590526402">
        <time>2005-05-11T17:42:16-07:00</time>
      </trkpt>
      <trkpt lat="33.94440030679107" lon="-116.6934634745121">
        <time>2005-05-11T17:42:21-07:00</time>
      </trkpt>
      <trkpt lat="33.94444146193564" lon="-116.69347629882395">
        <time>2005-05-11T17:42:26-07:00</time>
      </trkpt>
      <trkpt lat="33.94445613026619" lon="-116.6934756282717">
        <time>2005-05-11T17:42:28-07:00</time>
      </trkpt>
      <trkpt lat="33.94451220519841" lon="-116.6934666596353">
        <time>2005-05-11T17:42:32-07:00</time>
      </trkpt>
      <trkpt lat="33.94458018243313" lon="-116.6934687551111">
        <time>2005-05-11T17:42:36-07:00</time>
      </trkpt>
      <trkpt lat="33.94461681134999" lon="-116.69347730465233">
        <time>2005-05-11T17:42:37-07:00</time>
      </trkpt>
      <trkpt lat="33.94463684409857" lon="-116.69348283670843">
        <time>2005-05-11T17:42:42-07:00</time>
      </trkpt>
      <trkpt lat="33.94469736143947" lon="-116.69346942566335">
        <time>2005-05-11T17:42:48-07:00</time>
      </trkpt>
      <trkpt lat="33.944725105538964" lon="-116.69345408678055">
        <time>2005-05-11T17:42:51-07:00</time>
      </trkpt>
      <trkpt lat="33.94476315937936" lon="-116.69344821944833">
        <time>2005-05-11T17:42:53-07:00</time>
      </trkpt>
      <trkpt lat="33.94478880800307" lon="-116.69345626607537">
        <time>2005-05-11T17:42:58-07:00</time>
      </trkpt>
      <trkpt lat="33.944843877106905" lon="-116.69348007068038">
        <time>2005-05-11T17:43:02-07:00</time>
      </trkpt>
      <trkpt lat="33.94490079022944" lon="-116.69348577037454">
        <time>2005-05-11T17:43:05-07:00</time>
      </trkpt>
      <trkpt lat="33.94496466033161" lon="-116.6934959962964">
        <time>2005-05-11T17:43:08-07:00</time>
      </trkpt>
      <trkpt lat="33.94498729147017" lon="-116.69349063187838">
        <time>2005-05-11T17:43:13-07:00</time>
      </trkpt>
      <trkpt lat="33.94502928480506" lon="-116.69348677620292">
        <time>2005-05-11T17:43:18-07:00</time>
      </trkpt>
      <trkpt lat="33.94509583711624" lon="-116.69347889721394">
        <time>2005-05-11T17:43:24-07:00</time>
      </trkpt>
      <trkpt lat="33.94514755345881" lon="-116.6934669110924">
        <time>2005-05-11T17:43:26-07:00</time>
      </trkpt>
      <trkpt lat="33.945219134911895" lon="-116.69345391914248">
        <time>2005-05-11T17:43:30-07:00</time>
      </trkpt>
      <trkpt lat="33.94524394534528" lon="-116.6934476327151">
        <time>2005-05-11T17:43:37-07:00</time>
      </trkpt>
      <trkpt lat="33.94525450654328" lon="-116.69343799352646">
        <time>2005-05-11T17:43:42-07:00</time>
      </trkpt>
      <trkpt lat="33.94527814351022" lon="-116.69341946952045">
        <time>2005-05-11T17:43:48-07:00</time>
      </trkpt>
      <trkpt lat="33.9453208912164" lon="-116.69340262189507">
        <time>2005-05-11T17:43:50-07:00</time>
      </trkpt>
      <trkpt lat="33.94533857703209" lon="-116.69340077787638">
        <time>2005-05-11T17:43:52-07:00</time>
      </trkpt>
      <trkpt lat="33.9453967474401" lon="-116.69339801184833">
        <time>2005-05-11T17:43:54-07:00</time>
      </trkpt>
      <trkpt lat="33.94546614959836" lon="-116.69337420724332">
        <time>2005-05-11T17:43:58-07:00</time>
      </trkpt>
      <trkpt lat="33.94547889009118" lon="-116.69336666353047">
        <time>2005-05-11T17:44:00-07:00</time>
      </trkpt>
      <trkpt lat="33.94550822675228" lon="-116.69335735961795">
        <time>2005-05-11T17:44:06-07:00</time>
      </trkpt>
      <trkpt lat="33.94555524922907" lon="-116.69334445148706">
        <time>2005-05-11T17:44:12-07:00</time>
      </trkpt>
      <trkpt lat="33.945584585890174" lon="-116.69333338737488">
        <time>2005-05-11T17:44:14-07:00</time>
      </trkpt>
      <trkpt lat="33.94559724256396" lon="-116.69333196245134">
        <time>2005-05-11T17:44:17-07:00</time>
      </trkpt>
      <trkpt lat="33.94565423950553" lon="-116.69330698437989">
        <time>2005-05-11T17:44:21-07:00</time>
      </trkpt>
      <trkpt lat="33.94568843767047" lon="-116.69330296106637">
        <time>2005-05-11T17:44:24-07:00</time>
      </trkpt>
      <trkpt lat="33.9457178581506" lon="-116.69330664910376">
        <time>2005-05-11T17:44:25-07:00</time>
      </trkpt>
      <trkpt lat="33.94575733691454" lon="-116.69329742901027">
        <time>2005-05-11T17:44:31-07:00</time>
      </trkpt>
      <trkpt lat="33.94578474573791" lon="-116.69328896328807">
        <time>2005-05-11T17:44:34-07:00</time>
      </trkpt>
      <trkpt lat="33.94579547457397" lon="-116.69328326359391">
        <time>2005-05-11T17:44:37-07:00</time>
      </trkpt>
      <trkpt lat="33.94585917703807" lon="-116.69325032271445">
        <time>2005-05-11T17:44:41-07:00</time>
      </trkpt>
      <trkpt lat="33.94590737298131" lon="-116.6932179685682">
        <time>2005-05-11T17:44:44-07:00</time>
      </trkpt>
      <trkpt lat="33.94597141072154" lon="-116.69319114647806">
        <time>2005-05-11T17:44:45-07:00</time>
      </trkpt>
      <trkpt lat="33.94600820727646" lon="-116.69316122308373">
        <time>2005-05-11T17:44:51-07:00</time>
      </trkpt>
      <trkpt lat="33.94607970491052" lon="-116.69311269186437">
        <time>2005-05-11T17:44:56-07:00</time>
      </trkpt>
      <trkpt lat="33.94612287171185" lon="-116.6930596344173">
        <time>2005-05-11T17:45:01-07:00</time>
      </trkpt>
      <trkpt lat="33.94617802463472" lon="-116.69301160611212">
        <time>2005-05-11T17:45:06-07:00</time>
      </trkpt>
      <trkpt lat="33.94623074680567" lon="-116.69296709820628">
        <time>2005-05-11T17:45:13-07:00</time>
      </trkpt>
      <trkpt lat="33.946278523653746" lon="-116.6929349116981">
        <time>2005-05-11T17:45:18-07:00</time>
      </trkpt>
      <trkpt lat="33.946287240833044" lon="-116.69292761944234">
        <time>2005-05-11T17:45:24-07:00</time>
      </trkpt>
      <trkpt lat="33.94635253585875" lon="-116.69289216399193">
        <time>2005-05-11T17:45:29-07:00</time>
      </trkpt>
      <trkpt lat="33.94642327912152" lon="-116.69286500662565">
        <time>2005-05-11T17:45:35-07:00</time>
      </trkpt>
      <trkpt lat="33.94644473679364" lon="-116.69285411015153">
        <time>2005-05-11T17:45:36-07:00</time>
      </trkpt>
      <trkpt lat="33.94647474400699" lon="-116.69283969327807">
        <time>2005-05-11T17:45:42-07:00</time>
      </trkpt>
      <trkpt lat="33.946543307974935" lon="-116.69279577210546">
        <time>2005-05-11T17:45:48-07:00</time>
      </trkpt>
      <trkpt lat="33.94660994410515" lon="-116.69279468245804">
        <time>2005-05-11T17:45:51-07:00</time>
      </trkpt>
      <trkpt lat="33.94664263352752" lon="-116.69279971159995">
        <time>2005-05-11T17:45:54-07:00</time>
      </trkpt>
      <trkpt lat="33.94667607732117" lon="-116.69280583038926">
        <time>2005-05-11T17:46:01-07:00</time>
      </trkpt>
      <trkpt lat="33.94670809619129" lon="-116.6928035672754">
        <time>2005-05-11T17:46:08-07:00</time>
      </trkpt>
      <trkpt lat="33.946745647117496" lon="-116.69276802800596">
        <time>2005-05-11T17:46:11-07:00</time>
      </trkpt>
      <trkpt lat="33.946768110617995" lon="-116.69272125698626">
        <time>2005-05-11T17:46:14-07:00</time>
      </trkpt>
      <trkpt lat="33.946826700121164" lon="-116.69272150844336">
        <time>2005-05-11T17:46:18-07:00</time>
      </trkpt>
      <trkpt lat="33.94685729406774" lon="-116.69269912876189">
        <time>2005-05-11T17:46:24-07:00</time>
      </trkpt>
      <trkpt lat="33.94685226492584" lon="-116.69270667247474">
        <time>2005-05-11T17:46:30-07:00</time>
      </trkpt>
      <trkpt lat="33.946852600201964" lon="-116.69271463528275">
        <time>2005-05-11T17:46:36-07:00</time>
      </trkpt>
      <trkpt lat="33.946857545524836" lon="-116.69271404854953">
        <time>2005-05-11T17:46:42-07:00</time>
      </trkpt>
      <trkpt lat="33.94688076339662" lon="-116.69268789701164">
        <time>2005-05-11T17:46:46-07:00</time>
      </trkpt>
      <trkpt lat="33.946889815852046" lon="-116.69265135191381">
        <time>2005-05-11T17:46:47-07:00</time>
      </trkpt>
      <trkpt lat="33.94688034430146" lon="-116.69259879738092">
        <time>2005-05-11T17:46:54-07:00</time>
      </trkpt>
      <trkpt lat="33.94687439315021" lon="-116.69259469024837">
        <time>2005-05-11T17:46:56-07:00</time>
      </trkpt>
      <trkpt lat="33.94687062129378" lon="-116.69257013127208">
        <time>2005-05-11T17:47:00-07:00</time>
      </trkpt>
      <trkpt lat="33.946860479190946" lon="-116.69257692061365">
        <time>2005-05-11T17:47:06-07:00</time>
      </trkpt>
      <trkpt lat="33.946866849437356" lon="-116.69257164001465">
        <time>2005-05-11T17:47:07-07:00</time>
      </trkpt>
      <trkpt lat="33.946866262704134" lon="-116.69257004745305">
        <time>2005-05-11T17:47:12-07:00</time>
      </trkpt>
      <trkpt lat="33.94692812114954" lon="-116.69241481460631">
        <time>2005-05-11T17:47:13-07:00</time>
      </trkpt>
      <trkpt lat="33.94694019109011" lon="-116.69241087511182">
        <time>2005-05-11T17:47:15-07:00</time>
      </trkpt>
      <trkpt lat="33.9469647500664" lon="-116.69240601360798">
        <time>2005-05-11T17:47:16-07:00</time>
      </trkpt>
      <trkpt lat="33.947013365104795" lon="-116.69236871413887">
        <time>2005-05-11T17:49:15-07:00</time>
      </trkpt>
      <trkpt lat="33.94701705314219" lon="-116.69235957786441">
        <time>2005-05-11T17:49:16-07:00</time>
      </trkpt>
      <trkpt lat="33.94707287661731" lon="-116.69231406413019">
        <time>2005-05-11T17:49:18-07:00</time>
      </trkpt>
      <trkpt lat="33.9471217431128" lon="-116.69226905331016">
        <time>2005-05-11T17:49:23-07:00</time>
      </trkpt>
      <trkpt lat="33.94715887494385" lon="-116.69225723482668">
        <time>2005-05-11T17:49:24-07:00</time>
      </trkpt>
      <trkpt lat="33.9471960067749" lon="-116.69224734418094">
        <time>2005-05-11T17:49:30-07:00</time>
      </trkpt>
      <trkpt lat="33.94725199788809" lon="-116.69227592647076">
        <time>2005-05-11T17:49:36-07:00</time>
      </trkpt>
      <trkpt lat="33.94729315303266" lon="-116.6922998148948">
        <time>2005-05-11T17:49:40-07:00</time>
      </trkpt>
      <trkpt lat="33.94733623601496" lon="-116.69231632724404">
        <time>2005-05-11T17:49:45-07:00</time>
      </trkpt>
      <trkpt lat="33.94737035036087" lon="-116.6923151537776">
        <time>2005-05-11T17:49:50-07:00</time>
      </trkpt>
      <trkpt lat="33.94741284660995" lon="-116.69229227118194">
        <time>2005-05-11T17:49:55-07:00</time>
      </trkpt>
      <trkpt lat="33.94741779193282" lon="-116.69228481128812">
        <time>2005-05-11T17:50:01-07:00</time>
      </trkpt>
      <trkpt lat="33.94745693542063" lon="-116.69226821511984">
        <time>2005-05-11T17:50:05-07:00</time>
      </trkpt>
      <trkpt lat="33.94746992737055" lon="-116.69225086458027">
        <time>2005-05-11T17:50:10-07:00</time>
      </trkpt>
      <trkpt lat="33.94748384132981" lon="-116.69222488068044">
        <time>2005-05-11T17:50:11-07:00</time>
      </trkpt>
      <trkpt lat="33.94753388129175" lon="-116.69219110161066">
        <time>2005-05-11T17:50:16-07:00</time>
      </trkpt>
      <trkpt lat="33.94758207723498" lon="-116.69217911548913">
        <time>2005-05-11T17:50:18-07:00</time>
      </trkpt>
      <trkpt lat="33.94764393568039" lon="-116.69211432337761">
        <time>2005-05-11T17:50:21-07:00</time>
      </trkpt>
      <trkpt lat="33.94769716076553" lon="-116.69209311716259">
        <time>2005-05-11T17:50:26-07:00</time>
      </trkpt>
      <trkpt lat="33.94771878607571" lon="-116.69208674691617">
        <time>2005-05-11T17:50:30-07:00</time>
      </trkpt>
      <trkpt lat="33.94774653017521" lon="-116.69204944744706">
        <time>2005-05-11T17:50:36-07:00</time>
      </trkpt>
      <trkpt lat="33.947777543216944" lon="-116.69199731200933">
        <time>2005-05-11T17:50:42-07:00</time>
      </trkpt>
      <trkpt lat="33.9477972406894" lon="-116.69199119322002">
        <time>2005-05-11T17:50:44-07:00</time>
      </trkpt>
      <trkpt lat="33.947800509631634" lon="-116.69199496507645">
        <time>2005-05-11T17:50:48-07:00</time>
      </trkpt>
      <trkpt lat="33.94784275442362" lon="-116.69199689291418">
        <time>2005-05-11T17:50:55-07:00</time>
      </trkpt>
      <trkpt lat="33.94786563701928" lon="-116.69201776385307">
        <time>2005-05-11T17:50:59-07:00</time>
      </trkpt>
      <trkpt lat="33.947867564857006" lon="-116.69201742857695">
        <time>2005-05-11T17:51:00-07:00</time>
      </trkpt>
      <trkpt lat="33.947872845456004" lon="-116.69201089069247">
        <time>2005-05-11T17:51:05-07:00</time>
      </trkpt>
      <trkpt lat="33.94787804223597" lon="-116.69201483018696">
        <time>2005-05-11T17:51:11-07:00</time>
      </trkpt>
      <trkpt lat="33.947872845456004" lon="-116.69201089069247">
        <time>2005-05-11T17:51:20-07:00</time>
      </trkpt>
      <trkpt lat="33.94786387681961" lon="-116.69201399199665">
        <time>2005-05-11T17:51:25-07:00</time>
      </trkpt>
      <trkpt lat="33.94785666838288" lon="-116.69202220626175">
        <time>2005-05-11T17:51:30-07:00</time>
      </trkpt>
      <trkpt lat="33.94785113632679" lon="-116.69202446937561">
        <time>2005-05-11T17:51:33-07:00</time>
      </trkpt>
      <trkpt lat="33.94785113632679" lon="-116.69202446937561">
        <time>2005-05-11T17:51:35-07:00</time>
      </trkpt>
      <trkpt lat="33.94785113632679" lon="-116.69202446937561">
        <time>2005-05-11T17:51:41-07:00</time>
      </trkpt>
      <trkpt lat="33.94785113632679" lon="-116.69202446937561">
        <time>2005-05-11T17:51:47-07:00</time>
      </trkpt>
      <trkpt lat="33.94785113632679" lon="-116.69202446937561">
        <time>2005-05-11T17:51:52-07:00</time>
      </trkpt>
      <trkpt lat="33.94785515964031" lon="-116.69202136807144">
        <time>2005-05-11T17:51:57-07:00</time>
      </trkpt>
      <trkpt lat="33.9478556625545" lon="-116.69202203862369">
        <time>2005-05-11T17:52:05-07:00</time>
      </trkpt>
      <trkpt lat="33.94785599783063" lon="-116.69202212244272">
        <time>2005-05-11T17:52:11-07:00</time>
      </trkpt>
    </trkseg>
  </trk>
</gpx>
